{"type":"FeatureCollection","features":[{"type":"Feature","properties":{"district":"BIL>SPUR","state":"HIMACHAL PRADESH"},"geometry":{"type":"MultiPolygon","coordinates":[[[[76.729,31.582],[76.731,31.574],[76.727,31.565],[76.735,31.561],[76.728,31.552],[76.731,31.542],[76.729,31.538],[76.738,31.527],[76.739,31.521],[76.734,31.521],[76.731,31.517],[76.742,31.514],[76.751,31.518],[76.76,31.517],[76.766,31.518],[76.774,31.514],[76.776,31.508],[76.782,31.505],[76.787,31.498],[76.788,31.489],[76.782,31.48],[76.792,31.479],[76.795,31.472],[76.797,31.459],[76.802,31.452],[76.796,31.447],[76.797,31.441],[76.803,31.44],[76.8,31.435],[76.803,31.43],[76.801,31.424],[76.805,31.421],[76.809,31.423],[76.82,31.417],[76.829,31.422],[76.835,31.422],[76.843,31.416],[76.853,31.411],[76.863,31.411],[76.876,31.413],[76.882,31.401],[76.883,31.392],[76.88,31.383],[76.876,31.381],[76.868,31.385],[76.864,31.378],[76.874,31.37],[76.876,31.362],[76.872,31.356],[76.875,31.351],[76.873,31.347],[76.88,31.34],[76.883,31.336],[76.877,31.328],[76.891,31.321],[76.894,31.317],[76.903,31.314],[76.913,31.316],[76.918,31.312],[76.919,31.305],[76.928,31.304],[76.916,31.286],[76.909,31.281],[76.9,31.281],[76.892,31.274],[76.896,31.267],[76.894,31.265],[76.886,31.265],[76.883,31.261],[76.873,31.262],[76.87,31.256],[76.871,31.252],[76.866,31.245],[76.868,31.238],[76.876,31.232],[76.874,31.228],[76.878,31.22],[76.874,31.219],[76.856,31.219],[76.848,31.228],[76.843,31.227],[76.84,31.231],[76.833,31.229],[76.829,31.225],[76.824,31.223],[76.816,31.227],[76.804,31.226],[76.8,31.222],[76.793,31.226],[76.786,31.222],[76.78,31.215],[76.774,31.217],[76.772,31.223],[76.766,31.227],[76.758,31.226],[76.752,31.23],[76.746,31.236],[76.733,31.241],[76.72,31.228],[76.712,31.223],[76.703,31.222],[76.699,31.217],[76.691,31.216],[76.686,31.213],[76.678,31.214],[76.664,31.213],[76.658,31.21],[76.645,31.209],[76.643,31.214],[76.637,31.218],[76.639,31.223],[76.633,31.223],[76.628,31.226],[76.613,31.217],[76.606,31.217],[76.597,31.212],[76.592,31.212],[76.592,31.217],[76.589,31.219],[76.595,31.227],[76.595,31.234],[76.598,31.24],[76.611,31.244],[76.612,31.25],[76.601,31.259],[76.596,31.261],[76.588,31.274],[76.584,31.276],[76.579,31.271],[76.565,31.262],[76.561,31.254],[76.549,31.253],[76.544,31.259],[76.55,31.27],[76.549,31.274],[76.551,31.278],[76.543,31.282],[76.541,31.275],[76.538,31.271],[76.54,31.266],[76.539,31.261],[76.531,31.256],[76.523,31.26],[76.53,31.271],[76.527,31.277],[76.521,31.28],[76.506,31.268],[76.496,31.271],[76.495,31.281],[76.497,31.285],[76.49,31.29],[76.484,31.305],[76.479,31.309],[76.474,31.302],[76.465,31.295],[76.457,31.285],[76.443,31.277],[76.44,31.279],[76.44,31.288],[76.457,31.295],[76.463,31.299],[76.463,31.304],[76.454,31.312],[76.442,31.318],[76.432,31.327],[76.425,31.34],[76.427,31.345],[76.424,31.349],[76.42,31.349],[76.408,31.367],[76.404,31.378],[76.4,31.38],[76.393,31.389],[76.403,31.397],[76.4,31.4],[76.395,31.408],[76.396,31.414],[76.393,31.42],[76.397,31.427],[76.402,31.425],[76.418,31.412],[76.426,31.408],[76.437,31.414],[76.456,31.417],[76.462,31.422],[76.473,31.425],[76.476,31.428],[76.466,31.443],[76.466,31.45],[76.471,31.454],[76.47,31.457],[76.461,31.466],[76.461,31.469],[76.451,31.482],[76.455,31.485],[76.462,31.486],[76.475,31.473],[76.481,31.469],[76.487,31.471],[76.499,31.468],[76.51,31.46],[76.513,31.461],[76.516,31.47],[76.522,31.464],[76.532,31.463],[76.536,31.452],[76.544,31.449],[76.546,31.446],[76.557,31.44],[76.557,31.433],[76.562,31.429],[76.573,31.431],[76.58,31.421],[76.583,31.42],[76.591,31.423],[76.598,31.42],[76.607,31.421],[76.61,31.416],[76.618,31.419],[76.612,31.43],[76.616,31.436],[76.622,31.437],[76.626,31.441],[76.624,31.449],[76.617,31.456],[76.608,31.476],[76.607,31.483],[76.611,31.492],[76.612,31.507],[76.618,31.516],[76.617,31.527],[76.614,31.535],[76.616,31.542],[76.614,31.547],[76.617,31.553],[76.615,31.565],[76.619,31.569],[76.62,31.575],[76.628,31.577],[76.633,31.574],[76.639,31.583],[76.653,31.583],[76.656,31.577],[76.662,31.578],[76.676,31.584],[76.681,31.583],[76.681,31.591],[76.705,31.596],[76.713,31.595],[76.721,31.587],[76.729,31.582]]]]}},{"type":"Feature","properties":{"district":"SHIMLA","state":"HIMACHAL PRADESH"},"geometry":{"type":"MultiPolygon","coordinates":[[[[77.031,31.273],[77.048,31.268],[77.054,31.268],[77.063,31.259],[77.074,31.258],[77.077,31.25],[77.085,31.245],[77.106,31.241],[77.12,31.235],[77.123,31.232],[77.136,31.23],[77.141,31.232],[77.157,31.232],[77.169,31.235],[77.182,31.244],[77.188,31.253],[77.19,31.254],[77.195,31.243],[77.203,31.244],[77.214,31.253],[77.22,31.261],[77.232,31.26],[77.247,31.252],[77.251,31.259],[77.258,31.264],[77.266,31.268],[77.269,31.273],[77.273,31.273],[77.275,31.268],[77.282,31.264],[77.288,31.269],[77.303,31.267],[77.307,31.269],[77.306,31.276],[77.308,31.279],[77.319,31.284],[77.322,31.292],[77.331,31.293],[77.334,31.296],[77.337,31.307],[77.337,31.315],[77.34,31.324],[77.345,31.327],[77.343,31.334],[77.345,31.337],[77.351,31.341],[77.357,31.353],[77.372,31.36],[77.379,31.357],[77.383,31.36],[77.393,31.355],[77.397,31.362],[77.408,31.354],[77.411,31.347],[77.421,31.348],[77.427,31.341],[77.433,31.341],[77.435,31.344],[77.442,31.345],[77.452,31.344],[77.455,31.35],[77.469,31.351],[77.473,31.349],[77.481,31.354],[77.499,31.356],[77.505,31.348],[77.511,31.349],[77.518,31.348],[77.527,31.353],[77.535,31.362],[77.544,31.375],[77.545,31.381],[77.553,31.39],[77.573,31.388],[77.577,31.396],[77.591,31.399],[77.607,31.397],[77.614,31.391],[77.623,31.388],[77.631,31.393],[77.633,31.402],[77.622,31.417],[77.621,31.427],[77.623,31.437],[77.628,31.444],[77.628,31.451],[77.635,31.453],[77.64,31.457],[77.653,31.456],[77.659,31.46],[77.669,31.463],[77.674,31.466],[77.68,31.477],[77.682,31.482],[77.691,31.49],[77.704,31.498],[77.707,31.502],[77.699,31.514],[77.699,31.522],[77.702,31.53],[77.702,31.535],[77.699,31.542],[77.693,31.545],[77.688,31.544],[77.68,31.551],[77.679,31.558],[77.675,31.562],[77.668,31.564],[77.666,31.569],[77.659,31.576],[77.649,31.583],[77.647,31.591],[77.649,31.596],[77.645,31.606],[77.646,31.615],[77.649,31.622],[77.65,31.628],[77.663,31.634],[77.661,31.638],[77.654,31.644],[77.65,31.652],[77.647,31.652],[77.646,31.663],[77.657,31.668],[77.658,31.68],[77.667,31.682],[77.67,31.686],[77.67,31.695],[77.675,31.696],[77.678,31.703],[77.696,31.705],[77.712,31.704],[77.721,31.708],[77.731,31.715],[77.748,31.713],[77.757,31.707],[77.765,31.705],[77.772,31.705],[77.775,31.701],[77.784,31.696],[77.785,31.692],[77.793,31.679],[77.793,31.675],[77.805,31.671],[77.811,31.666],[77.817,31.654],[77.816,31.644],[77.821,31.642],[77.823,31.634],[77.812,31.616],[77.812,31.61],[77.819,31.605],[77.82,31.601],[77.832,31.586],[77.837,31.581],[77.834,31.56],[77.835,31.555],[77.841,31.538],[77.843,31.523],[77.842,31.515],[77.839,31.511],[77.84,31.506],[77.859,31.51],[77.866,31.504],[77.869,31.498],[77.877,31.494],[77.882,31.489],[77.88,31.472],[77.881,31.47],[77.889,31.465],[77.895,31.46],[77.898,31.451],[77.897,31.445],[77.907,31.441],[77.916,31.431],[77.923,31.431],[77.927,31.423],[77.934,31.422],[77.947,31.424],[77.958,31.416],[77.963,31.405],[77.966,31.402],[77.977,31.4],[77.99,31.403],[77.999,31.403],[78.006,31.4],[78.015,31.401],[78.02,31.399],[78.027,31.4],[78.035,31.407],[78.043,31.409],[78.055,31.417],[78.068,31.413],[78.075,31.417],[78.08,31.417],[78.087,31.422],[78.093,31.418],[78.1,31.419],[78.106,31.411],[78.117,31.409],[78.127,31.405],[78.131,31.398],[78.14,31.394],[78.144,31.388],[78.152,31.39],[78.161,31.385],[78.165,31.377],[78.157,31.366],[78.151,31.361],[78.154,31.355],[78.162,31.344],[78.166,31.346],[78.171,31.344],[78.177,31.337],[78.183,31.339],[78.189,31.333],[78.197,31.33],[78.208,31.329],[78.212,31.324],[78.22,31.325],[78.229,31.332],[78.234,31.333],[78.238,31.339],[78.245,31.341],[78.254,31.33],[78.258,31.327],[78.268,31.325],[78.291,31.324],[78.295,31.318],[78.301,31.315],[78.297,31.311],[78.297,31.303],[78.292,31.293],[78.297,31.289],[78.311,31.283],[78.308,31.276],[78.31,31.271],[78.308,31.261],[78.303,31.259],[78.296,31.261],[78.292,31.26],[78.283,31.266],[78.276,31.261],[78.269,31.249],[78.263,31.246],[78.26,31.24],[78.254,31.239],[78.251,31.233],[78.243,31.229],[78.237,31.233],[78.226,31.235],[78.22,31.234],[78.215,31.226],[78.215,31.222],[78.205,31.218],[78.198,31.218],[78.192,31.225],[78.187,31.227],[78.18,31.226],[78.173,31.227],[78.168,31.225],[78.16,31.225],[78.158,31.219],[78.154,31.218],[78.147,31.21],[78.133,31.208],[78.129,31.201],[78.124,31.2],[78.115,31.195],[78.104,31.185],[78.096,31.184],[78.088,31.187],[78.066,31.187],[78.051,31.18],[78.043,31.179],[78.041,31.173],[78.033,31.169],[78.029,31.162],[78.03,31.151],[78.021,31.152],[78.014,31.158],[78.009,31.161],[78.001,31.162],[77.991,31.16],[77.985,31.157],[77.981,31.162],[77.973,31.166],[77.969,31.172],[77.959,31.171],[77.951,31.161],[77.943,31.161],[77.936,31.155],[77.925,31.15],[77.916,31.154],[77.908,31.154],[77.899,31.15],[77.901,31.144],[77.894,31.134],[77.889,31.133],[77.89,31.123],[77.889,31.119],[77.871,31.114],[77.864,31.109],[77.861,31.099],[77.862,31.092],[77.851,31.073],[77.837,31.072],[77.829,31.058],[77.823,31.059],[77.817,31.056],[77.816,31.05],[77.822,31.047],[77.821,31.043],[77.828,31.03],[77.83,31.029],[77.823,31.029],[77.818,31.033],[77.811,31.032],[77.807,31.027],[77.808,31.016],[77.81,31.011],[77.825,31.01],[77.822,31.004],[77.832,30.994],[77.824,30.988],[77.825,30.985],[77.822,30.976],[77.816,30.973],[77.815,30.961],[77.823,30.957],[77.832,30.96],[77.838,30.954],[77.835,30.952],[77.829,30.953],[77.824,30.95],[77.81,30.956],[77.804,30.962],[77.794,30.969],[77.785,30.972],[77.769,30.974],[77.767,30.971],[77.754,30.964],[77.749,30.953],[77.754,30.933],[77.764,30.931],[77.762,30.919],[77.777,30.917],[77.785,30.917],[77.787,30.92],[77.804,30.924],[77.812,30.923],[77.811,30.917],[77.816,30.91],[77.815,30.904],[77.809,30.897],[77.802,30.894],[77.8,30.873],[77.799,30.868],[77.803,30.865],[77.806,30.853],[77.786,30.857],[77.779,30.86],[77.776,30.876],[77.763,30.88],[77.758,30.877],[77.756,30.871],[77.757,30.86],[77.754,30.855],[77.746,30.851],[77.744,30.847],[77.758,30.835],[77.761,30.826],[77.748,30.822],[77.746,30.814],[77.735,30.804],[77.732,30.797],[77.732,30.792],[77.721,30.776],[77.717,30.772],[77.704,30.764],[77.693,30.771],[77.685,30.778],[77.687,30.785],[77.683,30.79],[77.676,30.791],[77.674,30.794],[77.667,30.8],[77.66,30.8],[77.661,30.805],[77.646,30.805],[77.637,30.809],[77.624,30.81],[77.622,30.809],[77.618,30.799],[77.62,30.794],[77.611,30.793],[77.608,30.79],[77.604,30.783],[77.598,30.78],[77.579,30.777],[77.555,30.778],[77.552,30.775],[77.547,30.774],[77.545,30.778],[77.55,30.787],[77.55,30.799],[77.536,30.801],[77.528,30.796],[77.521,30.786],[77.518,30.79],[77.507,30.791],[77.5,30.794],[77.492,30.795],[77.495,30.801],[77.494,30.815],[77.489,30.817],[77.491,30.832],[77.49,30.838],[77.491,30.843],[77.485,30.849],[77.479,30.865],[77.464,30.865],[77.461,30.867],[77.451,30.863],[77.443,30.872],[77.436,30.875],[77.439,30.885],[77.436,30.893],[77.433,30.899],[77.427,30.903],[77.423,30.919],[77.422,30.926],[77.419,30.928],[77.443,30.945],[77.445,30.951],[77.441,30.959],[77.443,30.966],[77.439,30.979],[77.436,30.985],[77.426,30.988],[77.425,30.993],[77.419,30.999],[77.412,30.997],[77.407,30.999],[77.394,31.014],[77.391,31.013],[77.378,31.021],[77.376,31.014],[77.371,31.006],[77.364,31.005],[77.347,30.999],[77.343,31.002],[77.335,30.997],[77.335,30.993],[77.329,30.989],[77.321,30.977],[77.314,30.975],[77.311,30.97],[77.301,30.968],[77.3,30.964],[77.303,30.959],[77.295,30.951],[77.281,30.951],[77.265,30.94],[77.267,30.938],[77.263,30.93],[77.255,30.922],[77.247,30.917],[77.245,30.928],[77.239,30.93],[77.239,30.94],[77.246,30.942],[77.25,30.947],[77.243,30.954],[77.231,30.961],[77.219,30.965],[77.206,30.966],[77.202,30.972],[77.207,30.977],[77.207,30.981],[77.212,30.987],[77.207,30.991],[77.205,30.998],[77.197,31.003],[77.188,31.005],[77.171,31.012],[77.164,31],[77.151,31.005],[77.143,31.016],[77.135,31.023],[77.124,31.026],[77.119,31.031],[77.113,31.032],[77.102,31.029],[77.096,31.031],[77.087,31.039],[77.086,31.043],[77.067,31.048],[77.07,31.054],[77.078,31.055],[77.08,31.059],[77.088,31.066],[77.084,31.068],[77.079,31.074],[77.083,31.081],[77.077,31.083],[77.073,31.078],[77.066,31.086],[77.054,31.084],[77.046,31.078],[77.045,31.071],[77.036,31.067],[77.035,31.076],[77.026,31.079],[77.025,31.086],[77.038,31.096],[77.043,31.099],[77.054,31.1],[77.051,31.112],[77.048,31.114],[77.034,31.11],[77.029,31.111],[77.022,31.108],[77.017,31.109],[77.005,31.104],[76.998,31.103],[76.991,31.108],[76.989,31.114],[76.994,31.116],[77.003,31.113],[77.01,31.114],[77.007,31.129],[77.01,31.135],[77.016,31.137],[77.02,31.143],[77.025,31.145],[77.035,31.157],[77.031,31.174],[77.033,31.178],[77.024,31.18],[77.013,31.185],[77.011,31.188],[77.002,31.194],[77.003,31.204],[77.009,31.213],[77.021,31.221],[77.013,31.226],[77.012,31.234],[77.005,31.238],[77.004,31.246],[77.009,31.25],[77.017,31.259],[77.031,31.273]]]]}},{"type":"Feature","properties":{"district":"KINNAUR","state":"HIMACHAL PRADESH"},"geometry":{"type":"MultiPolygon","coordinates":[[[[78.912,31.251],[78.916,31.249],[78.922,31.232],[78.922,31.225],[78.932,31.216],[78.947,31.216],[78.948,31.212],[78.944,31.206],[78.948,31.199],[78.958,31.19],[78.958,31.187],[78.973,31.18],[78.98,31.179],[78.986,31.174],[78.991,31.161],[78.988,31.155],[78.991,31.148],[78.987,31.144],[78.991,31.138],[78.999,31.136],[79.006,31.119],[79.009,31.11],[79.002,31.112],[78.99,31.109],[78.973,31.108],[78.959,31.099],[78.949,31.098],[78.945,31.101],[78.932,31.101],[78.927,31.109],[78.921,31.111],[78.914,31.108],[78.912,31.101],[78.909,31.099],[78.9,31.1],[78.89,31.097],[78.884,31.099],[78.873,31.109],[78.865,31.12],[78.853,31.122],[78.844,31.128],[78.838,31.138],[78.831,31.141],[78.828,31.151],[78.823,31.158],[78.825,31.164],[78.811,31.172],[78.81,31.18],[78.817,31.19],[78.816,31.195],[78.81,31.198],[78.797,31.196],[78.779,31.189],[78.769,31.186],[78.761,31.186],[78.756,31.188],[78.738,31.188],[78.727,31.19],[78.718,31.188],[78.712,31.19],[78.704,31.189],[78.695,31.192],[78.688,31.197],[78.679,31.196],[78.672,31.197],[78.668,31.192],[78.662,31.189],[78.657,31.196],[78.65,31.201],[78.649,31.213],[78.625,31.218],[78.623,31.224],[78.614,31.228],[78.607,31.229],[78.597,31.225],[78.589,31.227],[78.58,31.226],[78.575,31.221],[78.569,31.22],[78.565,31.213],[78.555,31.205],[78.552,31.2],[78.544,31.198],[78.508,31.196],[78.497,31.198],[78.484,31.199],[78.48,31.214],[78.473,31.218],[78.462,31.236],[78.455,31.241],[78.449,31.241],[78.443,31.245],[78.436,31.254],[78.431,31.253],[78.426,31.244],[78.421,31.244],[78.413,31.24],[78.407,31.242],[78.403,31.248],[78.407,31.256],[78.396,31.27],[78.396,31.275],[78.386,31.271],[78.384,31.282],[78.379,31.285],[78.37,31.286],[78.362,31.285],[78.352,31.281],[78.34,31.283],[78.332,31.278],[78.318,31.279],[78.311,31.283],[78.297,31.289],[78.292,31.293],[78.297,31.303],[78.297,31.311],[78.301,31.315],[78.295,31.318],[78.291,31.324],[78.268,31.325],[78.258,31.327],[78.254,31.33],[78.245,31.341],[78.238,31.339],[78.234,31.333],[78.229,31.332],[78.22,31.325],[78.212,31.324],[78.208,31.329],[78.197,31.33],[78.189,31.333],[78.183,31.339],[78.177,31.337],[78.171,31.344],[78.166,31.346],[78.162,31.344],[78.154,31.355],[78.151,31.361],[78.157,31.366],[78.165,31.377],[78.161,31.385],[78.152,31.39],[78.144,31.388],[78.14,31.394],[78.131,31.398],[78.127,31.405],[78.117,31.409],[78.106,31.411],[78.1,31.419],[78.093,31.418],[78.087,31.422],[78.08,31.417],[78.075,31.417],[78.068,31.413],[78.055,31.417],[78.043,31.409],[78.035,31.407],[78.027,31.4],[78.02,31.399],[78.015,31.401],[78.006,31.4],[77.999,31.403],[77.99,31.403],[77.977,31.4],[77.966,31.402],[77.963,31.405],[77.958,31.416],[77.947,31.424],[77.934,31.422],[77.927,31.423],[77.923,31.431],[77.916,31.431],[77.907,31.441],[77.897,31.445],[77.898,31.451],[77.895,31.46],[77.889,31.465],[77.881,31.47],[77.88,31.472],[77.882,31.489],[77.877,31.494],[77.869,31.498],[77.866,31.504],[77.859,31.51],[77.84,31.506],[77.839,31.511],[77.842,31.515],[77.843,31.523],[77.841,31.538],[77.835,31.555],[77.834,31.56],[77.837,31.581],[77.832,31.586],[77.82,31.601],[77.819,31.605],[77.812,31.61],[77.812,31.616],[77.823,31.634],[77.821,31.642],[77.816,31.644],[77.817,31.654],[77.811,31.666],[77.805,31.671],[77.793,31.675],[77.793,31.679],[77.785,31.692],[77.784,31.696],[77.775,31.701],[77.772,31.705],[77.765,31.705],[77.757,31.707],[77.748,31.713],[77.753,31.718],[77.754,31.724],[77.751,31.73],[77.752,31.751],[77.758,31.753],[77.764,31.762],[77.777,31.755],[77.788,31.753],[77.795,31.759],[77.807,31.761],[77.829,31.761],[77.833,31.759],[77.854,31.755],[77.856,31.771],[77.858,31.777],[77.857,31.78],[77.861,31.784],[77.868,31.783],[77.873,31.776],[77.899,31.76],[77.9,31.753],[77.909,31.75],[77.917,31.752],[77.922,31.749],[77.936,31.748],[77.942,31.753],[77.94,31.757],[77.947,31.762],[77.946,31.768],[77.947,31.783],[77.953,31.787],[77.961,31.783],[77.971,31.78],[77.989,31.781],[77.99,31.779],[77.999,31.779],[78.003,31.771],[78.011,31.774],[78.015,31.771],[78.017,31.765],[78.022,31.764],[78.027,31.758],[78.032,31.758],[78.04,31.761],[78.044,31.769],[78.054,31.777],[78.058,31.782],[78.075,31.782],[78.085,31.788],[78.083,31.797],[78.086,31.808],[78.093,31.816],[78.096,31.824],[78.092,31.83],[78.098,31.835],[78.093,31.84],[78.087,31.841],[78.084,31.845],[78.088,31.849],[78.094,31.851],[78.091,31.855],[78.099,31.858],[78.108,31.857],[78.116,31.861],[78.122,31.866],[78.142,31.865],[78.148,31.867],[78.154,31.861],[78.163,31.859],[78.172,31.86],[78.174,31.865],[78.182,31.865],[78.19,31.872],[78.186,31.878],[78.187,31.882],[78.183,31.889],[78.183,31.896],[78.186,31.903],[78.182,31.915],[78.194,31.917],[78.195,31.926],[78.202,31.932],[78.216,31.933],[78.225,31.931],[78.249,31.934],[78.264,31.932],[78.269,31.934],[78.275,31.933],[78.29,31.926],[78.302,31.926],[78.303,31.933],[78.31,31.937],[78.323,31.934],[78.339,31.933],[78.342,31.931],[78.346,31.937],[78.353,31.938],[78.366,31.951],[78.366,31.959],[78.372,31.959],[78.381,31.955],[78.394,31.953],[78.398,31.954],[78.409,31.947],[78.41,31.944],[78.421,31.934],[78.428,31.937],[78.435,31.935],[78.44,31.936],[78.446,31.935],[78.456,31.938],[78.458,31.942],[78.453,31.949],[78.46,31.958],[78.454,31.963],[78.444,31.969],[78.437,31.97],[78.433,31.978],[78.44,31.983],[78.442,32],[78.438,32.012],[78.438,32.019],[78.446,32.038],[78.445,32.043],[78.447,32.05],[78.45,32.053],[78.45,32.06],[78.455,32.062],[78.473,32.058],[78.476,32.053],[78.488,32.051],[78.497,32.053],[78.503,32.048],[78.509,32.047],[78.522,32.05],[78.53,32.057],[78.536,32.056],[78.549,32.062],[78.553,32.06],[78.57,32.06],[78.58,32.064],[78.588,32.063],[78.591,32.067],[78.597,32.067],[78.603,32.063],[78.607,32.057],[78.605,32.051],[78.615,32.049],[78.624,32.058],[78.625,32.063],[78.629,32.067],[78.64,32.06],[78.649,32.062],[78.652,32.071],[78.656,32.074],[78.668,32.07],[78.676,32.076],[78.675,32.088],[78.685,32.086],[78.682,32.081],[78.69,32.071],[78.706,32.066],[78.706,32.058],[78.712,32.047],[78.722,32.039],[78.721,32.029],[78.724,32.026],[78.724,32.021],[78.728,32.016],[78.734,32.013],[78.734,32.004],[78.74,32.001],[78.749,32.003],[78.754,32.002],[78.765,32.003],[78.772,31.996],[78.781,31.993],[78.776,31.987],[78.776,31.98],[78.774,31.974],[78.781,31.966],[78.767,31.959],[78.766,31.949],[78.771,31.943],[78.769,31.937],[78.771,31.929],[78.768,31.925],[78.761,31.922],[78.753,31.913],[78.749,31.906],[78.742,31.901],[78.748,31.892],[78.741,31.885],[78.745,31.877],[78.75,31.874],[78.742,31.862],[78.745,31.855],[78.744,31.845],[78.745,31.843],[78.742,31.835],[78.735,31.834],[78.718,31.824],[78.713,31.817],[78.708,31.814],[78.703,31.807],[78.705,31.8],[78.704,31.794],[78.707,31.784],[78.705,31.781],[78.706,31.774],[78.716,31.768],[78.726,31.758],[78.728,31.741],[78.73,31.733],[78.739,31.72],[78.743,31.718],[78.745,31.705],[78.754,31.695],[78.75,31.681],[78.756,31.677],[78.764,31.675],[78.789,31.678],[78.799,31.682],[78.801,31.678],[78.799,31.671],[78.8,31.662],[78.799,31.658],[78.802,31.648],[78.81,31.638],[78.817,31.638],[78.827,31.629],[78.831,31.624],[78.84,31.623],[78.843,31.619],[78.847,31.608],[78.842,31.601],[78.83,31.593],[78.818,31.577],[78.807,31.577],[78.806,31.569],[78.798,31.562],[78.793,31.562],[78.78,31.556],[78.775,31.544],[78.77,31.544],[78.761,31.549],[78.757,31.542],[78.753,31.541],[78.744,31.541],[78.731,31.532],[78.727,31.517],[78.723,31.513],[78.72,31.507],[78.724,31.498],[78.724,31.493],[78.727,31.49],[78.725,31.485],[78.742,31.481],[78.749,31.484],[78.759,31.482],[78.764,31.475],[78.769,31.472],[78.774,31.457],[78.78,31.45],[78.788,31.449],[78.798,31.443],[78.795,31.436],[78.79,31.435],[78.783,31.429],[78.78,31.422],[78.773,31.416],[78.769,31.406],[78.761,31.401],[78.761,31.397],[78.753,31.385],[78.757,31.377],[78.757,31.372],[78.75,31.369],[78.751,31.363],[78.756,31.359],[78.762,31.357],[78.768,31.352],[78.768,31.347],[78.764,31.344],[78.767,31.339],[78.774,31.333],[78.768,31.329],[78.77,31.324],[78.778,31.319],[78.778,31.313],[78.792,31.305],[78.8,31.307],[78.812,31.307],[78.816,31.3],[78.827,31.296],[78.838,31.295],[78.843,31.297],[78.852,31.295],[78.857,31.3],[78.852,31.305],[78.853,31.313],[78.86,31.316],[78.863,31.315],[78.868,31.308],[78.876,31.303],[78.879,31.294],[78.883,31.279],[78.886,31.275],[78.887,31.267],[78.898,31.259],[78.907,31.256],[78.912,31.251]]]]}},{"type":"Feature","properties":{"district":"SOLAN","state":"HIMACHAL PRADESH"},"geometry":{"type":"MultiPolygon","coordinates":[[[[77.031,31.273],[77.017,31.259],[77.009,31.25],[77.004,31.246],[77.005,31.238],[77.012,31.234],[77.013,31.226],[77.021,31.221],[77.009,31.213],[77.003,31.204],[77.002,31.194],[77.011,31.188],[77.013,31.185],[77.024,31.18],[77.033,31.178],[77.031,31.174],[77.035,31.157],[77.025,31.145],[77.02,31.143],[77.016,31.137],[77.01,31.135],[77.007,31.129],[77.01,31.114],[77.003,31.113],[76.994,31.116],[76.989,31.114],[76.991,31.108],[76.998,31.103],[77.005,31.104],[77.017,31.109],[77.022,31.108],[77.029,31.111],[77.034,31.11],[77.048,31.114],[77.051,31.112],[77.054,31.1],[77.043,31.099],[77.038,31.096],[77.025,31.086],[77.026,31.079],[77.035,31.076],[77.036,31.067],[77.045,31.071],[77.046,31.078],[77.054,31.084],[77.066,31.086],[77.073,31.078],[77.077,31.083],[77.083,31.081],[77.079,31.074],[77.084,31.068],[77.088,31.066],[77.08,31.059],[77.078,31.055],[77.07,31.054],[77.067,31.048],[77.086,31.043],[77.087,31.039],[77.096,31.031],[77.102,31.029],[77.113,31.032],[77.119,31.031],[77.124,31.026],[77.135,31.023],[77.143,31.016],[77.151,31.005],[77.164,31],[77.171,31.012],[77.188,31.005],[77.197,31.003],[77.205,30.998],[77.207,30.991],[77.212,30.987],[77.207,30.981],[77.207,30.977],[77.202,30.972],[77.206,30.966],[77.219,30.965],[77.231,30.961],[77.243,30.954],[77.25,30.947],[77.246,30.942],[77.239,30.94],[77.239,30.93],[77.245,30.928],[77.247,30.917],[77.24,30.914],[77.236,30.905],[77.231,30.901],[77.225,30.9],[77.222,30.903],[77.215,30.902],[77.214,30.896],[77.206,30.888],[77.214,30.879],[77.196,30.865],[77.189,30.864],[77.187,30.857],[77.187,30.851],[77.181,30.851],[77.179,30.847],[77.173,30.848],[77.167,30.843],[77.155,30.856],[77.149,30.857],[77.143,30.853],[77.135,30.854],[77.12,30.853],[77.116,30.843],[77.107,30.839],[77.105,30.833],[77.1,30.833],[77.094,30.83],[77.088,30.83],[77.087,30.822],[77.089,30.819],[77.086,30.814],[77.087,30.81],[77.083,30.802],[77.084,30.792],[77.079,30.787],[77.063,30.778],[77.055,30.776],[77.049,30.769],[77.031,30.761],[77.029,30.753],[77.024,30.748],[77.02,30.741],[77.018,30.743],[77.021,30.75],[77.019,30.755],[77.019,30.765],[77.003,30.769],[77.006,30.774],[77.016,30.777],[77.017,30.786],[77.012,30.788],[77.015,30.793],[77.013,30.797],[77.009,30.809],[77.003,30.806],[76.997,30.812],[76.987,30.814],[76.978,30.812],[76.978,30.817],[76.973,30.82],[76.972,30.823],[76.965,30.826],[76.958,30.823],[76.949,30.817],[76.943,30.819],[76.949,30.824],[76.944,30.838],[76.951,30.851],[76.944,30.853],[76.944,30.858],[76.937,30.869],[76.936,30.885],[76.921,30.885],[76.917,30.891],[76.917,30.901],[76.91,30.897],[76.907,30.893],[76.899,30.893],[76.895,30.887],[76.876,30.881],[76.878,30.876],[76.87,30.873],[76.856,30.884],[76.851,30.89],[76.845,30.889],[76.841,30.892],[76.834,30.904],[76.827,30.913],[76.829,30.917],[76.825,30.927],[76.811,30.924],[76.798,30.915],[76.787,30.913],[76.776,30.906],[76.767,30.917],[76.766,30.921],[76.76,30.926],[76.747,30.93],[76.739,30.934],[76.737,30.938],[76.736,30.946],[76.725,30.958],[76.722,30.962],[76.717,30.96],[76.712,30.965],[76.71,30.969],[76.703,30.971],[76.684,30.968],[76.674,30.969],[76.673,30.974],[76.663,30.982],[76.661,30.981],[76.652,30.988],[76.638,30.99],[76.634,30.996],[76.625,30.998],[76.627,31.025],[76.623,31.026],[76.617,31.031],[76.616,31.037],[76.611,31.046],[76.623,31.055],[76.619,31.061],[76.617,31.071],[76.617,31.078],[76.623,31.08],[76.627,31.093],[76.636,31.102],[76.639,31.108],[76.636,31.116],[76.617,31.116],[76.614,31.122],[76.602,31.124],[76.601,31.129],[76.611,31.141],[76.608,31.149],[76.602,31.154],[76.605,31.16],[76.603,31.165],[76.608,31.171],[76.597,31.178],[76.608,31.18],[76.613,31.184],[76.615,31.19],[76.625,31.197],[76.634,31.201],[76.645,31.209],[76.658,31.21],[76.664,31.213],[76.678,31.214],[76.686,31.213],[76.691,31.216],[76.699,31.217],[76.703,31.222],[76.712,31.223],[76.72,31.228],[76.733,31.241],[76.746,31.236],[76.752,31.23],[76.758,31.226],[76.766,31.227],[76.772,31.223],[76.774,31.217],[76.78,31.215],[76.786,31.222],[76.793,31.226],[76.8,31.222],[76.804,31.226],[76.816,31.227],[76.824,31.223],[76.829,31.225],[76.833,31.229],[76.84,31.231],[76.843,31.227],[76.848,31.228],[76.856,31.219],[76.874,31.219],[76.878,31.22],[76.874,31.228],[76.876,31.232],[76.868,31.238],[76.866,31.245],[76.871,31.252],[76.87,31.256],[76.873,31.262],[76.883,31.261],[76.886,31.265],[76.894,31.265],[76.896,31.267],[76.892,31.274],[76.9,31.281],[76.909,31.281],[76.916,31.286],[76.928,31.304],[76.919,31.305],[76.918,31.312],[76.913,31.316],[76.903,31.314],[76.894,31.317],[76.891,31.321],[76.877,31.328],[76.883,31.336],[76.88,31.34],[76.873,31.347],[76.875,31.351],[76.881,31.353],[76.887,31.359],[76.896,31.36],[76.899,31.364],[76.904,31.362],[76.913,31.363],[76.918,31.365],[76.923,31.364],[76.94,31.348],[76.944,31.343],[76.942,31.333],[76.948,31.333],[76.954,31.329],[76.965,31.324],[76.968,31.321],[76.969,31.315],[76.995,31.301],[77.01,31.291],[77.021,31.284],[77.023,31.278],[77.031,31.273]]]]}},{"type":"Feature","properties":{"district":"SIRMAUR","state":"HIMACHAL PRADESH"},"geometry":{"type":"MultiPolygon","coordinates":[[[[77.704,30.764],[77.709,30.752],[77.702,30.746],[77.707,30.74],[77.723,30.741],[77.728,30.734],[77.733,30.735],[77.737,30.73],[77.736,30.725],[77.746,30.72],[77.747,30.712],[77.756,30.707],[77.747,30.694],[77.748,30.687],[77.747,30.68],[77.758,30.676],[77.764,30.671],[77.773,30.669],[77.774,30.666],[77.781,30.66],[77.791,30.661],[77.792,30.657],[77.787,30.655],[77.781,30.647],[77.787,30.641],[77.786,30.637],[77.79,30.633],[77.786,30.63],[77.786,30.624],[77.793,30.621],[77.796,30.613],[77.787,30.614],[77.782,30.613],[77.769,30.614],[77.771,30.611],[77.771,30.603],[77.772,30.599],[77.764,30.596],[77.757,30.604],[77.743,30.596],[77.757,30.586],[77.761,30.578],[77.767,30.57],[77.768,30.565],[77.772,30.559],[77.777,30.558],[77.783,30.56],[77.791,30.554],[77.797,30.554],[77.801,30.558],[77.806,30.554],[77.817,30.561],[77.822,30.554],[77.82,30.548],[77.828,30.531],[77.826,30.526],[77.82,30.524],[77.819,30.508],[77.815,30.505],[77.808,30.505],[77.804,30.502],[77.794,30.501],[77.783,30.501],[77.776,30.494],[77.767,30.492],[77.749,30.482],[77.739,30.476],[77.732,30.473],[77.721,30.473],[77.708,30.462],[77.707,30.459],[77.698,30.456],[77.693,30.45],[77.688,30.447],[77.671,30.444],[77.663,30.447],[77.654,30.448],[77.65,30.447],[77.646,30.433],[77.637,30.433],[77.632,30.431],[77.626,30.435],[77.599,30.428],[77.586,30.422],[77.574,30.413],[77.573,30.407],[77.576,30.397],[77.585,30.385],[77.586,30.379],[77.581,30.378],[77.571,30.381],[77.553,30.39],[77.547,30.396],[77.548,30.4],[77.536,30.411],[77.529,30.422],[77.526,30.434],[77.526,30.441],[77.52,30.445],[77.516,30.444],[77.505,30.433],[77.502,30.427],[77.5,30.418],[77.502,30.409],[77.499,30.406],[77.493,30.412],[77.479,30.406],[77.471,30.401],[77.466,30.402],[77.454,30.401],[77.445,30.396],[77.438,30.404],[77.425,30.404],[77.424,30.411],[77.43,30.412],[77.434,30.417],[77.445,30.419],[77.446,30.423],[77.454,30.43],[77.455,30.435],[77.462,30.435],[77.461,30.444],[77.466,30.451],[77.461,30.457],[77.456,30.459],[77.452,30.448],[77.445,30.445],[77.442,30.439],[77.436,30.433],[77.422,30.425],[77.417,30.425],[77.415,30.418],[77.409,30.415],[77.407,30.41],[77.399,30.417],[77.406,30.426],[77.404,30.431],[77.391,30.432],[77.389,30.44],[77.386,30.442],[77.378,30.441],[77.363,30.443],[77.354,30.461],[77.347,30.458],[77.342,30.46],[77.328,30.456],[77.321,30.448],[77.309,30.449],[77.292,30.457],[77.273,30.46],[77.274,30.465],[77.27,30.472],[77.265,30.477],[77.251,30.477],[77.242,30.483],[77.238,30.483],[77.228,30.485],[77.221,30.48],[77.215,30.468],[77.211,30.472],[77.209,30.483],[77.212,30.497],[77.212,30.498],[77.211,30.498],[77.211,30.499],[77.21,30.5],[77.209,30.5],[77.209,30.501],[77.209,30.502],[77.209,30.503],[77.208,30.503],[77.208,30.504],[77.208,30.505],[77.207,30.506],[77.207,30.507],[77.206,30.507],[77.206,30.508],[77.205,30.509],[77.204,30.51],[77.204,30.511],[77.203,30.512],[77.203,30.513],[77.202,30.514],[77.201,30.515],[77.201,30.516],[77.2,30.516],[77.198,30.517],[77.197,30.517],[77.197,30.518],[77.197,30.519],[77.198,30.519],[77.198,30.52],[77.197,30.52],[77.197,30.521],[77.196,30.521],[77.196,30.522],[77.195,30.523],[77.194,30.523],[77.193,30.523],[77.192,30.523],[77.192,30.524],[77.191,30.524],[77.19,30.524],[77.189,30.524],[77.188,30.524],[77.187,30.524],[77.186,30.524],[77.186,30.525],[77.186,30.526],[77.185,30.526],[77.184,30.526],[77.184,30.527],[77.183,30.527],[77.182,30.527],[77.181,30.528],[77.18,30.528],[77.179,30.528],[77.178,30.528],[77.177,30.528],[77.176,30.529],[77.174,30.529],[77.174,30.53],[77.173,30.53],[77.173,30.531],[77.173,30.532],[77.172,30.532],[77.171,30.533],[77.17,30.533],[77.169,30.533],[77.167,30.533],[77.166,30.533],[77.164,30.534],[77.163,30.534],[77.161,30.534],[77.16,30.534],[77.158,30.534],[77.157,30.534],[77.156,30.534],[77.155,30.534],[77.154,30.534],[77.153,30.534],[77.152,30.534],[77.152,30.535],[77.151,30.535],[77.15,30.535],[77.148,30.536],[77.147,30.536],[77.146,30.536],[77.145,30.536],[77.145,30.537],[77.144,30.537],[77.143,30.538],[77.142,30.539],[77.141,30.54],[77.14,30.54],[77.139,30.54],[77.138,30.541],[77.137,30.542],[77.136,30.542],[77.136,30.543],[77.135,30.544],[77.134,30.545],[77.134,30.546],[77.133,30.548],[77.132,30.549],[77.131,30.55],[77.131,30.551],[77.13,30.552],[77.13,30.553],[77.13,30.554],[77.129,30.555],[77.128,30.557],[77.126,30.558],[77.126,30.559],[77.125,30.559],[77.124,30.559],[77.124,30.56],[77.123,30.561],[77.123,30.562],[77.122,30.562],[77.122,30.563],[77.136,30.57],[77.141,30.578],[77.147,30.577],[77.153,30.583],[77.157,30.584],[77.165,30.591],[77.164,30.594],[77.174,30.601],[77.171,30.604],[77.173,30.611],[77.171,30.628],[77.176,30.639],[77.171,30.64],[77.165,30.647],[77.163,30.655],[77.168,30.664],[77.167,30.675],[77.16,30.682],[77.165,30.684],[77.161,30.691],[77.155,30.693],[77.148,30.699],[77.142,30.699],[77.138,30.706],[77.129,30.711],[77.128,30.716],[77.123,30.721],[77.114,30.718],[77.115,30.726],[77.102,30.734],[77.095,30.742],[77.086,30.744],[77.078,30.744],[77.067,30.741],[77.063,30.746],[77.055,30.745],[77.048,30.753],[77.042,30.75],[77.044,30.741],[77.034,30.74],[77.027,30.737],[77.02,30.741],[77.024,30.748],[77.029,30.753],[77.031,30.761],[77.049,30.769],[77.055,30.776],[77.063,30.778],[77.079,30.787],[77.084,30.792],[77.083,30.802],[77.087,30.81],[77.086,30.814],[77.089,30.819],[77.087,30.822],[77.088,30.83],[77.094,30.83],[77.1,30.833],[77.105,30.833],[77.107,30.839],[77.116,30.843],[77.12,30.853],[77.135,30.854],[77.143,30.853],[77.149,30.857],[77.155,30.856],[77.167,30.843],[77.173,30.848],[77.179,30.847],[77.181,30.851],[77.187,30.851],[77.187,30.857],[77.189,30.864],[77.196,30.865],[77.214,30.879],[77.206,30.888],[77.214,30.896],[77.215,30.902],[77.222,30.903],[77.225,30.9],[77.231,30.901],[77.236,30.905],[77.24,30.914],[77.247,30.917],[77.255,30.922],[77.263,30.93],[77.267,30.938],[77.265,30.94],[77.281,30.951],[77.295,30.951],[77.303,30.959],[77.3,30.964],[77.301,30.968],[77.311,30.97],[77.314,30.975],[77.321,30.977],[77.329,30.989],[77.335,30.993],[77.335,30.997],[77.343,31.002],[77.347,30.999],[77.364,31.005],[77.371,31.006],[77.376,31.014],[77.378,31.021],[77.391,31.013],[77.394,31.014],[77.407,30.999],[77.412,30.997],[77.419,30.999],[77.425,30.993],[77.426,30.988],[77.436,30.985],[77.439,30.979],[77.443,30.966],[77.441,30.959],[77.445,30.951],[77.443,30.945],[77.419,30.928],[77.422,30.926],[77.423,30.919],[77.427,30.903],[77.433,30.899],[77.436,30.893],[77.439,30.885],[77.436,30.875],[77.443,30.872],[77.451,30.863],[77.461,30.867],[77.464,30.865],[77.479,30.865],[77.485,30.849],[77.491,30.843],[77.49,30.838],[77.491,30.832],[77.489,30.817],[77.494,30.815],[77.495,30.801],[77.492,30.795],[77.5,30.794],[77.507,30.791],[77.518,30.79],[77.521,30.786],[77.528,30.796],[77.536,30.801],[77.55,30.799],[77.55,30.787],[77.545,30.778],[77.547,30.774],[77.552,30.775],[77.555,30.778],[77.579,30.777],[77.598,30.78],[77.604,30.783],[77.608,30.79],[77.611,30.793],[77.62,30.794],[77.618,30.799],[77.622,30.809],[77.624,30.81],[77.637,30.809],[77.646,30.805],[77.661,30.805],[77.66,30.8],[77.667,30.8],[77.674,30.794],[77.676,30.791],[77.683,30.79],[77.687,30.785],[77.685,30.778],[77.693,30.771],[77.704,30.764]]]]}},{"type":"Feature","properties":{"district":"KULLU","state":"HIMACHAL PRADESH"},"geometry":{"type":"MultiPolygon","coordinates":[[[[77.868,31.783],[77.861,31.784],[77.857,31.78],[77.858,31.777],[77.856,31.771],[77.854,31.755],[77.833,31.759],[77.829,31.761],[77.807,31.761],[77.795,31.759],[77.788,31.753],[77.777,31.755],[77.764,31.762],[77.758,31.753],[77.752,31.751],[77.751,31.73],[77.754,31.724],[77.753,31.718],[77.748,31.713],[77.731,31.715],[77.721,31.708],[77.712,31.704],[77.696,31.705],[77.678,31.703],[77.675,31.696],[77.67,31.695],[77.67,31.686],[77.667,31.682],[77.658,31.68],[77.657,31.668],[77.646,31.663],[77.647,31.652],[77.65,31.652],[77.654,31.644],[77.661,31.638],[77.663,31.634],[77.65,31.628],[77.649,31.622],[77.646,31.615],[77.645,31.606],[77.649,31.596],[77.647,31.591],[77.649,31.583],[77.659,31.576],[77.666,31.569],[77.668,31.564],[77.675,31.562],[77.679,31.558],[77.68,31.551],[77.688,31.544],[77.693,31.545],[77.699,31.542],[77.702,31.535],[77.702,31.53],[77.699,31.522],[77.699,31.514],[77.707,31.502],[77.704,31.498],[77.691,31.49],[77.682,31.482],[77.68,31.477],[77.674,31.466],[77.669,31.463],[77.659,31.46],[77.653,31.456],[77.64,31.457],[77.635,31.453],[77.628,31.451],[77.628,31.444],[77.623,31.437],[77.621,31.427],[77.622,31.417],[77.633,31.402],[77.631,31.393],[77.623,31.388],[77.614,31.391],[77.607,31.397],[77.591,31.399],[77.577,31.396],[77.573,31.388],[77.553,31.39],[77.545,31.381],[77.544,31.375],[77.535,31.362],[77.527,31.353],[77.518,31.348],[77.511,31.349],[77.505,31.348],[77.499,31.356],[77.481,31.354],[77.473,31.349],[77.469,31.351],[77.455,31.35],[77.452,31.344],[77.442,31.345],[77.435,31.344],[77.433,31.341],[77.427,31.341],[77.421,31.348],[77.411,31.347],[77.408,31.354],[77.397,31.362],[77.393,31.355],[77.383,31.36],[77.385,31.368],[77.389,31.376],[77.387,31.38],[77.388,31.386],[77.385,31.392],[77.381,31.393],[77.38,31.405],[77.386,31.412],[77.371,31.42],[77.355,31.436],[77.347,31.442],[77.346,31.446],[77.338,31.448],[77.329,31.456],[77.322,31.476],[77.323,31.488],[77.319,31.493],[77.315,31.511],[77.314,31.517],[77.314,31.524],[77.317,31.53],[77.315,31.537],[77.305,31.543],[77.299,31.552],[77.303,31.565],[77.304,31.583],[77.303,31.588],[77.297,31.594],[77.302,31.6],[77.302,31.604],[77.306,31.618],[77.301,31.632],[77.301,31.644],[77.297,31.652],[77.3,31.657],[77.303,31.668],[77.298,31.673],[77.287,31.68],[77.284,31.687],[77.275,31.696],[77.261,31.703],[77.259,31.709],[77.252,31.711],[77.244,31.711],[77.239,31.717],[77.233,31.721],[77.22,31.725],[77.216,31.723],[77.208,31.74],[77.21,31.749],[77.206,31.754],[77.208,31.759],[77.202,31.766],[77.199,31.776],[77.194,31.776],[77.197,31.785],[77.192,31.793],[77.193,31.797],[77.186,31.812],[77.188,31.818],[77.185,31.821],[77.175,31.822],[77.173,31.826],[77.18,31.836],[77.178,31.842],[77.162,31.838],[77.155,31.84],[77.14,31.838],[77.12,31.837],[77.11,31.839],[77.103,31.836],[77.098,31.839],[77.092,31.837],[77.086,31.831],[77.08,31.832],[77.077,31.837],[77.067,31.835],[77.058,31.838],[77.055,31.848],[77.06,31.855],[77.059,31.859],[77.051,31.867],[77.047,31.874],[77.038,31.88],[77.025,31.902],[77.025,31.909],[77.022,31.922],[77.017,31.928],[77.011,31.933],[77.005,31.934],[76.999,31.946],[77,31.949],[76.997,31.958],[76.991,31.962],[76.987,31.97],[76.979,31.973],[76.975,31.981],[76.976,31.987],[76.974,31.996],[76.978,32],[76.978,32.012],[76.974,32.016],[76.971,32.024],[76.963,32.025],[76.955,32.029],[76.949,32.036],[76.939,32.042],[76.937,32.049],[76.939,32.053],[76.936,32.062],[76.942,32.067],[76.938,32.073],[76.939,32.079],[76.937,32.088],[76.935,32.093],[76.94,32.099],[76.943,32.11],[76.958,32.112],[76.975,32.11],[76.985,32.11],[76.987,32.115],[76.983,32.12],[76.983,32.126],[76.979,32.132],[76.984,32.137],[76.982,32.145],[76.984,32.153],[76.99,32.166],[76.989,32.169],[76.997,32.178],[76.993,32.182],[76.998,32.194],[77.003,32.199],[77.016,32.2],[77.021,32.206],[77.033,32.205],[77.04,32.208],[77.042,32.212],[77.049,32.217],[77.05,32.225],[77.047,32.227],[77.044,32.234],[77.033,32.24],[77.029,32.247],[77.033,32.25],[77.031,32.258],[77.027,32.259],[77.027,32.272],[77.034,32.282],[77.035,32.291],[77.04,32.301],[77.045,32.305],[77.055,32.309],[77.062,32.314],[77.063,32.322],[77.069,32.334],[77.056,32.342],[77.045,32.341],[77.041,32.343],[77.049,32.353],[77.047,32.362],[77.051,32.371],[77.064,32.382],[77.07,32.39],[77.073,32.399],[77.082,32.395],[77.086,32.396],[77.095,32.393],[77.102,32.396],[77.113,32.398],[77.124,32.403],[77.142,32.408],[77.146,32.413],[77.152,32.415],[77.17,32.407],[77.18,32.403],[77.185,32.397],[77.195,32.398],[77.2,32.386],[77.205,32.385],[77.221,32.376],[77.227,32.37],[77.232,32.375],[77.238,32.376],[77.244,32.374],[77.245,32.37],[77.251,32.369],[77.261,32.36],[77.276,32.355],[77.278,32.347],[77.285,32.34],[77.292,32.338],[77.301,32.331],[77.308,32.333],[77.31,32.328],[77.327,32.315],[77.326,32.309],[77.329,32.303],[77.334,32.304],[77.341,32.296],[77.34,32.288],[77.344,32.285],[77.346,32.278],[77.345,32.274],[77.35,32.269],[77.347,32.254],[77.345,32.251],[77.346,32.244],[77.354,32.232],[77.354,32.229],[77.365,32.224],[77.369,32.219],[77.373,32.219],[77.381,32.211],[77.388,32.209],[77.396,32.212],[77.404,32.21],[77.409,32.204],[77.416,32.202],[77.419,32.192],[77.428,32.188],[77.435,32.19],[77.441,32.188],[77.446,32.19],[77.457,32.191],[77.465,32.194],[77.461,32.202],[77.468,32.205],[77.464,32.21],[77.467,32.212],[77.469,32.223],[77.475,32.221],[77.485,32.221],[77.494,32.216],[77.503,32.215],[77.503,32.211],[77.515,32.203],[77.515,32.198],[77.532,32.194],[77.536,32.201],[77.533,32.208],[77.544,32.215],[77.547,32.219],[77.553,32.213],[77.559,32.21],[77.566,32.203],[77.566,32.194],[77.573,32.183],[77.578,32.183],[77.585,32.18],[77.584,32.174],[77.6,32.172],[77.602,32.166],[77.608,32.16],[77.619,32.155],[77.626,32.158],[77.632,32.149],[77.641,32.149],[77.643,32.146],[77.653,32.142],[77.66,32.136],[77.663,32.122],[77.67,32.121],[77.672,32.115],[77.678,32.113],[77.684,32.104],[77.691,32.099],[77.705,32.102],[77.718,32.092],[77.725,32.09],[77.743,32.09],[77.747,32.082],[77.753,32.078],[77.757,32.067],[77.765,32.059],[77.765,32.052],[77.762,32.046],[77.764,32.042],[77.776,32.036],[77.788,32.024],[77.791,32.018],[77.786,32.014],[77.778,32.012],[77.773,32.006],[77.782,32.001],[77.786,31.997],[77.794,31.993],[77.798,31.987],[77.794,31.981],[77.784,31.975],[77.781,31.97],[77.78,31.962],[77.773,31.955],[77.773,31.952],[77.767,31.948],[77.767,31.942],[77.773,31.936],[77.777,31.935],[77.782,31.93],[77.781,31.922],[77.789,31.915],[77.791,31.909],[77.803,31.902],[77.805,31.9],[77.825,31.896],[77.827,31.898],[77.851,31.891],[77.859,31.887],[77.865,31.887],[77.868,31.883],[77.858,31.877],[77.85,31.875],[77.846,31.865],[77.838,31.855],[77.844,31.844],[77.845,31.835],[77.849,31.833],[77.845,31.825],[77.848,31.818],[77.848,31.801],[77.858,31.795],[77.866,31.792],[77.868,31.783]]]]}},{"type":"Feature","properties":{"district":"CHAMBA","state":"HIMACHAL PRADESH"},"geometry":{"type":"MultiPolygon","coordinates":[[[[76.747,33.179],[76.749,33.176],[76.746,33.169],[76.743,33.157],[76.749,33.151],[76.749,33.14],[76.746,33.131],[76.742,33.129],[76.739,33.12],[76.74,33.114],[76.736,33.104],[76.738,33.091],[76.736,33.083],[76.739,33.077],[76.746,33.055],[76.754,33.047],[76.752,33.043],[76.756,33.035],[76.76,33.035],[76.762,33.027],[76.762,33.018],[76.767,33.017],[76.776,33.017],[76.774,33.013],[76.772,33.002],[76.767,32.999],[76.766,32.989],[76.77,32.984],[76.776,32.982],[76.776,32.978],[76.782,32.968],[76.779,32.963],[76.782,32.958],[76.781,32.951],[76.769,32.942],[76.769,32.935],[76.756,32.925],[76.734,32.93],[76.726,32.928],[76.721,32.92],[76.713,32.917],[76.71,32.909],[76.711,32.904],[76.707,32.895],[76.707,32.884],[76.7,32.881],[76.693,32.873],[76.691,32.865],[76.687,32.862],[76.681,32.851],[76.677,32.847],[76.665,32.846],[76.657,32.843],[76.65,32.852],[76.642,32.854],[76.629,32.85],[76.62,32.85],[76.616,32.848],[76.607,32.851],[76.596,32.842],[76.586,32.841],[76.581,32.832],[76.573,32.824],[76.567,32.823],[76.555,32.819],[76.55,32.816],[76.539,32.816],[76.529,32.812],[76.522,32.807],[76.515,32.807],[76.491,32.802],[76.47,32.806],[76.47,32.813],[76.474,32.821],[76.467,32.826],[76.454,32.848],[76.452,32.851],[76.44,32.856],[76.437,32.851],[76.43,32.845],[76.425,32.843],[76.416,32.844],[76.407,32.84],[76.392,32.825],[76.379,32.822],[76.373,32.815],[76.373,32.808],[76.376,32.803],[76.374,32.797],[76.383,32.793],[76.387,32.782],[76.385,32.774],[76.389,32.767],[76.39,32.759],[76.394,32.752],[76.394,32.743],[76.399,32.74],[76.398,32.734],[76.4,32.727],[76.412,32.722],[76.429,32.709],[76.428,32.701],[76.43,32.698],[76.423,32.688],[76.436,32.677],[76.444,32.674],[76.446,32.67],[76.44,32.659],[76.448,32.656],[76.467,32.652],[76.475,32.656],[76.49,32.659],[76.499,32.661],[76.509,32.667],[76.519,32.666],[76.528,32.656],[76.533,32.656],[76.549,32.656],[76.552,32.654],[76.565,32.645],[76.573,32.644],[76.582,32.639],[76.592,32.637],[76.592,32.634],[76.596,32.626],[76.603,32.622],[76.599,32.616],[76.603,32.604],[76.615,32.603],[76.623,32.606],[76.632,32.605],[76.626,32.598],[76.623,32.579],[76.627,32.575],[76.642,32.578],[76.65,32.583],[76.653,32.579],[76.668,32.572],[76.672,32.564],[76.683,32.563],[76.688,32.566],[76.696,32.56],[76.695,32.555],[76.699,32.551],[76.698,32.546],[76.706,32.544],[76.715,32.538],[76.728,32.545],[76.737,32.546],[76.745,32.555],[76.755,32.555],[76.761,32.551],[76.763,32.547],[76.769,32.545],[76.782,32.548],[76.792,32.547],[76.791,32.54],[76.797,32.532],[76.802,32.531],[76.818,32.537],[76.827,32.537],[76.827,32.531],[76.841,32.524],[76.85,32.526],[76.855,32.53],[76.865,32.534],[76.87,32.525],[76.872,32.519],[76.877,32.513],[76.872,32.508],[76.866,32.505],[76.86,32.498],[76.858,32.491],[76.857,32.479],[76.862,32.473],[76.863,32.466],[76.866,32.463],[76.853,32.452],[76.846,32.448],[76.842,32.444],[76.828,32.44],[76.813,32.424],[76.813,32.419],[76.81,32.414],[76.801,32.408],[76.793,32.407],[76.783,32.402],[76.782,32.398],[76.788,32.388],[76.784,32.376],[76.786,32.372],[76.781,32.369],[76.777,32.361],[76.769,32.358],[76.765,32.36],[76.752,32.358],[76.758,32.349],[76.768,32.343],[76.775,32.334],[76.778,32.322],[76.785,32.314],[76.771,32.309],[76.77,32.305],[76.777,32.298],[76.775,32.29],[76.77,32.282],[76.773,32.272],[76.778,32.264],[76.779,32.261],[76.774,32.256],[76.77,32.255],[76.767,32.249],[76.774,32.247],[76.77,32.242],[76.772,32.237],[76.768,32.226],[76.771,32.222],[76.763,32.208],[76.756,32.201],[76.746,32.198],[76.734,32.186],[76.721,32.19],[76.708,32.199],[76.695,32.194],[76.685,32.182],[76.679,32.176],[76.665,32.176],[76.655,32.184],[76.645,32.185],[76.642,32.187],[76.625,32.19],[76.621,32.194],[76.612,32.197],[76.61,32.203],[76.602,32.207],[76.597,32.215],[76.586,32.223],[76.579,32.221],[76.576,32.223],[76.559,32.224],[76.553,32.226],[76.539,32.229],[76.526,32.228],[76.524,32.232],[76.519,32.234],[76.511,32.23],[76.5,32.233],[76.497,32.238],[76.487,32.245],[76.485,32.25],[76.478,32.25],[76.474,32.248],[76.463,32.247],[76.459,32.25],[76.454,32.257],[76.447,32.263],[76.442,32.264],[76.428,32.26],[76.421,32.266],[76.422,32.273],[76.418,32.278],[76.405,32.282],[76.4,32.287],[76.391,32.287],[76.39,32.29],[76.382,32.297],[76.377,32.299],[76.365,32.31],[76.364,32.314],[76.36,32.318],[76.358,32.325],[76.354,32.327],[76.34,32.324],[76.327,32.332],[76.32,32.337],[76.309,32.34],[76.295,32.337],[76.292,32.34],[76.29,32.349],[76.282,32.371],[76.278,32.372],[76.272,32.376],[76.266,32.374],[76.259,32.379],[76.26,32.386],[76.257,32.394],[76.248,32.396],[76.245,32.394],[76.234,32.396],[76.222,32.395],[76.218,32.385],[76.213,32.379],[76.204,32.374],[76.199,32.368],[76.192,32.367],[76.184,32.361],[76.176,32.356],[76.167,32.354],[76.171,32.349],[76.176,32.34],[76.172,32.334],[76.168,32.323],[76.162,32.318],[76.164,32.304],[76.163,32.298],[76.17,32.29],[76.168,32.285],[76.176,32.281],[76.186,32.272],[76.189,32.268],[76.184,32.259],[76.185,32.253],[76.181,32.248],[76.182,32.235],[76.186,32.228],[76.179,32.223],[76.17,32.224],[76.171,32.232],[76.17,32.235],[76.164,32.235],[76.148,32.224],[76.139,32.227],[76.137,32.23],[76.126,32.231],[76.124,32.235],[76.126,32.239],[76.123,32.243],[76.126,32.248],[76.123,32.251],[76.124,32.256],[76.114,32.26],[76.105,32.26],[76.101,32.262],[76.092,32.271],[76.08,32.27],[76.07,32.268],[76.063,32.265],[76.053,32.266],[76.045,32.264],[76.044,32.269],[76.032,32.269],[76.028,32.272],[76.031,32.275],[76.019,32.285],[76.016,32.291],[76.017,32.296],[76.022,32.306],[76.022,32.312],[76.025,32.319],[76.017,32.318],[76.015,32.324],[76.022,32.333],[76.019,32.341],[76.013,32.349],[76.01,32.349],[76.002,32.359],[75.988,32.381],[75.98,32.384],[75.971,32.393],[75.955,32.392],[75.937,32.397],[75.922,32.41],[75.917,32.42],[75.92,32.423],[75.921,32.429],[75.906,32.437],[75.904,32.444],[75.901,32.449],[75.903,32.452],[75.886,32.464],[75.881,32.464],[75.861,32.482],[75.853,32.488],[75.844,32.5],[75.842,32.507],[75.838,32.511],[75.832,32.511],[75.833,32.514],[75.838,32.522],[75.853,32.527],[75.856,32.53],[75.855,32.537],[75.872,32.548],[75.874,32.552],[75.866,32.562],[75.87,32.566],[75.876,32.568],[75.88,32.579],[75.878,32.586],[75.884,32.59],[75.893,32.589],[75.899,32.592],[75.905,32.601],[75.907,32.609],[75.916,32.614],[75.918,32.621],[75.916,32.629],[75.919,32.633],[75.929,32.637],[75.934,32.643],[75.933,32.647],[75.923,32.643],[75.914,32.645],[75.916,32.652],[75.911,32.656],[75.903,32.657],[75.893,32.649],[75.886,32.653],[75.892,32.659],[75.893,32.667],[75.898,32.67],[75.897,32.686],[75.9,32.693],[75.897,32.698],[75.905,32.709],[75.907,32.716],[75.914,32.722],[75.919,32.728],[75.919,32.735],[75.923,32.743],[75.922,32.747],[75.905,32.765],[75.899,32.768],[75.897,32.775],[75.885,32.783],[75.886,32.793],[75.884,32.802],[75.879,32.812],[75.865,32.813],[75.866,32.82],[75.85,32.836],[75.842,32.838],[75.84,32.844],[75.83,32.846],[75.82,32.853],[75.817,32.859],[75.81,32.862],[75.809,32.869],[75.806,32.877],[75.796,32.884],[75.813,32.893],[75.817,32.899],[75.819,32.908],[75.823,32.91],[75.837,32.928],[75.845,32.928],[75.852,32.925],[75.859,32.925],[75.867,32.923],[75.873,32.924],[75.877,32.919],[75.883,32.919],[75.889,32.915],[75.899,32.912],[75.904,32.913],[75.92,32.905],[75.922,32.899],[75.928,32.89],[75.941,32.878],[75.949,32.873],[75.959,32.878],[75.973,32.887],[75.975,32.886],[75.981,32.895],[76.002,32.902],[76.009,32.909],[76.018,32.913],[76.027,32.916],[76.033,32.921],[76.032,32.927],[76.034,32.931],[76.041,32.937],[76.061,32.941],[76.068,32.952],[76.083,32.956],[76.082,32.962],[76.092,32.963],[76.098,32.972],[76.103,32.983],[76.106,32.987],[76.104,32.991],[76.108,33],[76.107,33.006],[76.117,33.008],[76.128,33.008],[76.135,33.01],[76.157,33.006],[76.168,33.009],[76.177,33.02],[76.183,33.02],[76.19,33.018],[76.204,33.016],[76.211,33.016],[76.222,33.023],[76.232,33.021],[76.243,33.021],[76.246,33.027],[76.255,33.034],[76.262,33.036],[76.271,33.036],[76.275,33.041],[76.276,33.05],[76.28,33.054],[76.29,33.057],[76.289,33.068],[76.284,33.072],[76.283,33.085],[76.288,33.099],[76.286,33.102],[76.302,33.114],[76.303,33.118],[76.313,33.123],[76.315,33.125],[76.326,33.127],[76.331,33.132],[76.344,33.143],[76.362,33.153],[76.368,33.153],[76.372,33.161],[76.378,33.166],[76.392,33.175],[76.398,33.182],[76.404,33.186],[76.414,33.185],[76.42,33.188],[76.428,33.182],[76.439,33.18],[76.443,33.181],[76.455,33.179],[76.468,33.182],[76.473,33.18],[76.482,33.179],[76.505,33.192],[76.51,33.196],[76.525,33.196],[76.533,33.2],[76.548,33.199],[76.561,33.21],[76.573,33.206],[76.595,33.206],[76.599,33.203],[76.597,33.197],[76.599,33.19],[76.608,33.19],[76.612,33.185],[76.613,33.173],[76.623,33.167],[76.633,33.165],[76.639,33.162],[76.648,33.164],[76.654,33.164],[76.665,33.171],[76.672,33.171],[76.684,33.173],[76.695,33.173],[76.702,33.174],[76.708,33.18],[76.721,33.181],[76.729,33.177],[76.747,33.179]]]]}},{"type":"Feature","properties":{"district":"MANDI","state":"HIMACHAL PRADESH"},"geometry":{"type":"MultiPolygon","coordinates":[[[[76.936,32.062],[76.939,32.053],[76.937,32.049],[76.939,32.042],[76.949,32.036],[76.955,32.029],[76.963,32.025],[76.971,32.024],[76.974,32.016],[76.978,32.012],[76.978,32],[76.974,31.996],[76.976,31.987],[76.975,31.981],[76.979,31.973],[76.987,31.97],[76.991,31.962],[76.997,31.958],[77,31.949],[76.999,31.946],[77.005,31.934],[77.011,31.933],[77.017,31.928],[77.022,31.922],[77.025,31.909],[77.025,31.902],[77.038,31.88],[77.047,31.874],[77.051,31.867],[77.059,31.859],[77.06,31.855],[77.055,31.848],[77.058,31.838],[77.067,31.835],[77.077,31.837],[77.08,31.832],[77.086,31.831],[77.092,31.837],[77.098,31.839],[77.103,31.836],[77.11,31.839],[77.12,31.837],[77.14,31.838],[77.155,31.84],[77.162,31.838],[77.178,31.842],[77.18,31.836],[77.173,31.826],[77.175,31.822],[77.185,31.821],[77.188,31.818],[77.186,31.812],[77.193,31.797],[77.192,31.793],[77.197,31.785],[77.194,31.776],[77.199,31.776],[77.202,31.766],[77.208,31.759],[77.206,31.754],[77.21,31.749],[77.208,31.74],[77.216,31.723],[77.22,31.725],[77.233,31.721],[77.239,31.717],[77.244,31.711],[77.252,31.711],[77.259,31.709],[77.261,31.703],[77.275,31.696],[77.284,31.687],[77.287,31.68],[77.298,31.673],[77.303,31.668],[77.3,31.657],[77.297,31.652],[77.301,31.644],[77.301,31.632],[77.306,31.618],[77.302,31.604],[77.302,31.6],[77.297,31.594],[77.303,31.588],[77.304,31.583],[77.303,31.565],[77.299,31.552],[77.305,31.543],[77.315,31.537],[77.317,31.53],[77.314,31.524],[77.314,31.517],[77.315,31.511],[77.319,31.493],[77.323,31.488],[77.322,31.476],[77.329,31.456],[77.338,31.448],[77.346,31.446],[77.347,31.442],[77.355,31.436],[77.371,31.42],[77.386,31.412],[77.38,31.405],[77.381,31.393],[77.385,31.392],[77.388,31.386],[77.387,31.38],[77.389,31.376],[77.385,31.368],[77.383,31.36],[77.379,31.357],[77.372,31.36],[77.357,31.353],[77.351,31.341],[77.345,31.337],[77.343,31.334],[77.345,31.327],[77.34,31.324],[77.337,31.315],[77.337,31.307],[77.334,31.296],[77.331,31.293],[77.322,31.292],[77.319,31.284],[77.308,31.279],[77.306,31.276],[77.307,31.269],[77.303,31.267],[77.288,31.269],[77.282,31.264],[77.275,31.268],[77.273,31.273],[77.269,31.273],[77.266,31.268],[77.258,31.264],[77.251,31.259],[77.247,31.252],[77.232,31.26],[77.22,31.261],[77.214,31.253],[77.203,31.244],[77.195,31.243],[77.19,31.254],[77.188,31.253],[77.182,31.244],[77.169,31.235],[77.157,31.232],[77.141,31.232],[77.136,31.23],[77.123,31.232],[77.12,31.235],[77.106,31.241],[77.085,31.245],[77.077,31.25],[77.074,31.258],[77.063,31.259],[77.054,31.268],[77.048,31.268],[77.031,31.273],[77.023,31.278],[77.021,31.284],[77.01,31.291],[76.995,31.301],[76.969,31.315],[76.968,31.321],[76.965,31.324],[76.954,31.329],[76.948,31.333],[76.942,31.333],[76.944,31.343],[76.94,31.348],[76.923,31.364],[76.918,31.365],[76.913,31.363],[76.904,31.362],[76.899,31.364],[76.896,31.36],[76.887,31.359],[76.881,31.353],[76.875,31.351],[76.872,31.356],[76.876,31.362],[76.874,31.37],[76.864,31.378],[76.868,31.385],[76.876,31.381],[76.88,31.383],[76.883,31.392],[76.882,31.401],[76.876,31.413],[76.863,31.411],[76.853,31.411],[76.843,31.416],[76.835,31.422],[76.829,31.422],[76.82,31.417],[76.809,31.423],[76.805,31.421],[76.801,31.424],[76.803,31.43],[76.8,31.435],[76.803,31.44],[76.797,31.441],[76.796,31.447],[76.802,31.452],[76.797,31.459],[76.795,31.472],[76.792,31.479],[76.782,31.48],[76.788,31.489],[76.787,31.498],[76.782,31.505],[76.776,31.508],[76.774,31.514],[76.766,31.518],[76.76,31.517],[76.751,31.518],[76.742,31.514],[76.731,31.517],[76.734,31.521],[76.739,31.521],[76.738,31.527],[76.729,31.538],[76.731,31.542],[76.728,31.552],[76.735,31.561],[76.727,31.565],[76.731,31.574],[76.729,31.582],[76.728,31.59],[76.725,31.595],[76.716,31.616],[76.715,31.63],[76.716,31.638],[76.725,31.657],[76.722,31.667],[76.713,31.67],[76.709,31.673],[76.697,31.674],[76.691,31.684],[76.687,31.687],[76.69,31.698],[76.686,31.699],[76.687,31.706],[76.679,31.712],[76.676,31.712],[76.671,31.72],[76.675,31.731],[76.672,31.735],[76.654,31.741],[76.65,31.741],[76.64,31.745],[76.634,31.753],[76.635,31.758],[76.633,31.767],[76.627,31.774],[76.627,31.782],[76.622,31.786],[76.623,31.791],[76.62,31.798],[76.624,31.803],[76.624,31.808],[76.627,31.814],[76.631,31.823],[76.628,31.83],[76.628,31.841],[76.632,31.849],[76.633,31.861],[76.639,31.874],[76.647,31.872],[76.656,31.868],[76.663,31.871],[76.678,31.87],[76.68,31.875],[76.674,31.88],[76.673,31.885],[76.677,31.891],[76.675,31.897],[76.681,31.897],[76.673,31.905],[76.68,31.909],[76.684,31.914],[76.685,31.921],[76.689,31.93],[76.696,31.934],[76.694,31.939],[76.688,31.943],[76.688,31.953],[76.686,31.959],[76.685,31.967],[76.688,31.968],[76.685,31.979],[76.68,31.987],[76.671,31.996],[76.663,32.012],[76.663,32.017],[76.66,32.028],[76.667,32.036],[76.675,32.04],[76.675,32.047],[76.687,32.052],[76.696,32.05],[76.7,32.046],[76.705,32.047],[76.706,32.036],[76.71,32.036],[76.72,32.031],[76.727,32.032],[76.732,32.027],[76.736,32.029],[76.74,32.036],[76.746,32.039],[76.748,32.043],[76.76,32.051],[76.765,32.061],[76.776,32.067],[76.779,32.065],[76.787,32.073],[76.799,32.07],[76.803,32.065],[76.816,32.056],[76.825,32.048],[76.832,32.048],[76.843,32.04],[76.857,32.051],[76.869,32.049],[76.879,32.056],[76.893,32.058],[76.899,32.06],[76.907,32.059],[76.91,32.061],[76.922,32.059],[76.936,32.062]]]]}},{"type":"Feature","properties":{"district":"K>NGRA","state":"HIMACHAL PRADESH"},"geometry":{"type":"MultiPolygon","coordinates":[[[[77.073,32.399],[77.07,32.39],[77.064,32.382],[77.051,32.371],[77.047,32.362],[77.049,32.353],[77.041,32.343],[77.045,32.341],[77.056,32.342],[77.069,32.334],[77.063,32.322],[77.062,32.314],[77.055,32.309],[77.045,32.305],[77.04,32.301],[77.035,32.291],[77.034,32.282],[77.027,32.272],[77.027,32.259],[77.031,32.258],[77.033,32.25],[77.029,32.247],[77.033,32.24],[77.044,32.234],[77.047,32.227],[77.05,32.225],[77.049,32.217],[77.042,32.212],[77.04,32.208],[77.033,32.205],[77.021,32.206],[77.016,32.2],[77.003,32.199],[76.998,32.194],[76.993,32.182],[76.997,32.178],[76.989,32.169],[76.99,32.166],[76.984,32.153],[76.982,32.145],[76.984,32.137],[76.979,32.132],[76.983,32.126],[76.983,32.12],[76.987,32.115],[76.985,32.11],[76.975,32.11],[76.958,32.112],[76.943,32.11],[76.94,32.099],[76.935,32.093],[76.937,32.088],[76.939,32.079],[76.938,32.073],[76.942,32.067],[76.936,32.062],[76.922,32.059],[76.91,32.061],[76.907,32.059],[76.899,32.06],[76.893,32.058],[76.879,32.056],[76.869,32.049],[76.857,32.051],[76.843,32.04],[76.832,32.048],[76.825,32.048],[76.816,32.056],[76.803,32.065],[76.799,32.07],[76.787,32.073],[76.779,32.065],[76.776,32.067],[76.765,32.061],[76.76,32.051],[76.748,32.043],[76.746,32.039],[76.74,32.036],[76.736,32.029],[76.732,32.027],[76.727,32.032],[76.72,32.031],[76.71,32.036],[76.706,32.036],[76.705,32.047],[76.7,32.046],[76.696,32.05],[76.687,32.052],[76.675,32.047],[76.675,32.04],[76.667,32.036],[76.66,32.028],[76.663,32.017],[76.663,32.012],[76.671,31.996],[76.68,31.987],[76.685,31.979],[76.688,31.968],[76.685,31.967],[76.686,31.959],[76.688,31.953],[76.688,31.943],[76.694,31.939],[76.696,31.934],[76.689,31.93],[76.685,31.921],[76.684,31.914],[76.68,31.909],[76.673,31.905],[76.681,31.897],[76.675,31.897],[76.677,31.891],[76.673,31.885],[76.674,31.88],[76.68,31.875],[76.678,31.87],[76.663,31.871],[76.656,31.868],[76.647,31.872],[76.639,31.874],[76.63,31.877],[76.625,31.886],[76.601,31.893],[76.591,31.893],[76.581,31.888],[76.556,31.886],[76.546,31.879],[76.526,31.859],[76.524,31.849],[76.52,31.843],[76.512,31.84],[76.501,31.841],[76.496,31.835],[76.481,31.83],[76.478,31.827],[76.469,31.829],[76.465,31.826],[76.467,31.82],[76.474,31.816],[76.476,31.81],[76.47,31.808],[76.466,31.81],[76.46,31.817],[76.455,31.816],[76.454,31.81],[76.464,31.806],[76.457,31.804],[76.453,31.804],[76.443,31.8],[76.439,31.808],[76.437,31.797],[76.433,31.793],[76.424,31.795],[76.416,31.795],[76.411,31.791],[76.414,31.785],[76.41,31.783],[76.402,31.794],[76.396,31.795],[76.385,31.782],[76.377,31.776],[76.368,31.773],[76.363,31.776],[76.365,31.781],[76.362,31.783],[76.355,31.792],[76.349,31.791],[76.334,31.782],[76.327,31.779],[76.308,31.776],[76.31,31.767],[76.305,31.764],[76.305,31.757],[76.309,31.749],[76.31,31.742],[76.319,31.731],[76.317,31.727],[76.311,31.725],[76.306,31.719],[76.305,31.705],[76.296,31.694],[76.297,31.691],[76.291,31.687],[76.284,31.685],[76.281,31.693],[76.277,31.696],[76.273,31.703],[76.264,31.709],[76.264,31.713],[76.253,31.715],[76.234,31.733],[76.233,31.735],[76.223,31.742],[76.215,31.75],[76.213,31.756],[76.204,31.763],[76.206,31.767],[76.2,31.77],[76.189,31.767],[76.183,31.769],[76.185,31.774],[76.18,31.782],[76.167,31.785],[76.159,31.795],[76.154,31.795],[76.148,31.8],[76.131,31.8],[76.124,31.801],[76.113,31.8],[76.104,31.808],[76.107,31.81],[76.106,31.817],[76.101,31.822],[76.094,31.822],[76.09,31.819],[76.085,31.829],[76.08,31.83],[76.084,31.836],[76.083,31.841],[76.075,31.841],[76.068,31.84],[76.064,31.846],[76.06,31.847],[76.05,31.856],[76.045,31.857],[76.043,31.861],[76.031,31.865],[76.024,31.864],[76.019,31.867],[76.011,31.865],[76.005,31.859],[76.001,31.852],[75.992,31.85],[75.98,31.851],[75.966,31.856],[75.96,31.857],[75.945,31.884],[75.939,31.891],[75.939,31.894],[75.924,31.92],[75.917,31.929],[75.912,31.94],[75.911,31.949],[75.904,31.953],[75.892,31.962],[75.883,31.966],[75.883,31.969],[75.874,31.969],[75.857,31.974],[75.851,31.982],[75.846,31.982],[75.824,31.983],[75.811,31.988],[75.8,31.994],[75.791,32],[75.78,32.005],[75.765,32.019],[75.751,32.038],[75.743,32.039],[75.724,32.033],[75.712,32.04],[75.704,32.054],[75.697,32.059],[75.678,32.063],[75.671,32.072],[75.663,32.074],[75.657,32.078],[75.646,32.073],[75.634,32.071],[75.631,32.074],[75.622,32.072],[75.612,32.068],[75.602,32.066],[75.595,32.069],[75.595,32.078],[75.596,32.086],[75.601,32.093],[75.61,32.093],[75.619,32.097],[75.626,32.107],[75.627,32.118],[75.63,32.122],[75.644,32.128],[75.656,32.134],[75.662,32.139],[75.673,32.159],[75.666,32.165],[75.667,32.178],[75.659,32.178],[75.66,32.188],[75.663,32.191],[75.655,32.197],[75.645,32.192],[75.638,32.192],[75.632,32.19],[75.624,32.19],[75.627,32.208],[75.626,32.216],[75.637,32.22],[75.636,32.232],[75.626,32.233],[75.618,32.238],[75.629,32.242],[75.641,32.252],[75.658,32.251],[75.669,32.255],[75.683,32.261],[75.706,32.269],[75.713,32.272],[75.74,32.276],[75.747,32.277],[75.761,32.283],[75.772,32.289],[75.777,32.302],[75.782,32.31],[75.8,32.327],[75.803,32.329],[75.815,32.33],[75.812,32.336],[75.808,32.341],[75.812,32.349],[75.827,32.35],[75.834,32.357],[75.844,32.355],[75.845,32.365],[75.85,32.375],[75.857,32.385],[75.864,32.388],[75.874,32.396],[75.887,32.396],[75.891,32.394],[75.909,32.393],[75.915,32.396],[75.928,32.395],[75.933,32.392],[75.937,32.397],[75.955,32.392],[75.971,32.393],[75.98,32.384],[75.988,32.381],[76.002,32.359],[76.01,32.349],[76.013,32.349],[76.019,32.341],[76.022,32.333],[76.015,32.324],[76.017,32.318],[76.025,32.319],[76.022,32.312],[76.022,32.306],[76.017,32.296],[76.016,32.291],[76.019,32.285],[76.031,32.275],[76.028,32.272],[76.032,32.269],[76.044,32.269],[76.045,32.264],[76.053,32.266],[76.063,32.265],[76.07,32.268],[76.08,32.27],[76.092,32.271],[76.101,32.262],[76.105,32.26],[76.114,32.26],[76.124,32.256],[76.123,32.251],[76.126,32.248],[76.123,32.243],[76.126,32.239],[76.124,32.235],[76.126,32.231],[76.137,32.23],[76.139,32.227],[76.148,32.224],[76.164,32.235],[76.17,32.235],[76.171,32.232],[76.17,32.224],[76.179,32.223],[76.186,32.228],[76.182,32.235],[76.181,32.248],[76.185,32.253],[76.184,32.259],[76.189,32.268],[76.186,32.272],[76.176,32.281],[76.168,32.285],[76.17,32.29],[76.163,32.298],[76.164,32.304],[76.162,32.318],[76.168,32.323],[76.172,32.334],[76.176,32.34],[76.171,32.349],[76.167,32.354],[76.176,32.356],[76.184,32.361],[76.192,32.367],[76.199,32.368],[76.204,32.374],[76.213,32.379],[76.218,32.385],[76.222,32.395],[76.234,32.396],[76.245,32.394],[76.248,32.396],[76.257,32.394],[76.26,32.386],[76.259,32.379],[76.266,32.374],[76.272,32.376],[76.278,32.372],[76.282,32.371],[76.29,32.349],[76.292,32.34],[76.295,32.337],[76.309,32.34],[76.32,32.337],[76.327,32.332],[76.34,32.324],[76.354,32.327],[76.358,32.325],[76.36,32.318],[76.364,32.314],[76.365,32.31],[76.377,32.299],[76.382,32.297],[76.39,32.29],[76.391,32.287],[76.4,32.287],[76.405,32.282],[76.418,32.278],[76.422,32.273],[76.421,32.266],[76.428,32.26],[76.442,32.264],[76.447,32.263],[76.454,32.257],[76.459,32.25],[76.463,32.247],[76.474,32.248],[76.478,32.25],[76.485,32.25],[76.487,32.245],[76.497,32.238],[76.5,32.233],[76.511,32.23],[76.519,32.234],[76.524,32.232],[76.526,32.228],[76.539,32.229],[76.553,32.226],[76.559,32.224],[76.576,32.223],[76.579,32.221],[76.586,32.223],[76.597,32.215],[76.602,32.207],[76.61,32.203],[76.612,32.197],[76.621,32.194],[76.625,32.19],[76.642,32.187],[76.645,32.185],[76.655,32.184],[76.665,32.176],[76.679,32.176],[76.685,32.182],[76.695,32.194],[76.708,32.199],[76.721,32.19],[76.734,32.186],[76.746,32.198],[76.756,32.201],[76.763,32.208],[76.771,32.222],[76.768,32.226],[76.772,32.237],[76.77,32.242],[76.774,32.247],[76.767,32.249],[76.77,32.255],[76.774,32.256],[76.779,32.261],[76.778,32.264],[76.773,32.272],[76.77,32.282],[76.775,32.29],[76.777,32.298],[76.77,32.305],[76.771,32.309],[76.785,32.314],[76.778,32.322],[76.775,32.334],[76.768,32.343],[76.758,32.349],[76.752,32.358],[76.765,32.36],[76.769,32.358],[76.777,32.361],[76.781,32.369],[76.786,32.372],[76.784,32.376],[76.788,32.388],[76.782,32.398],[76.783,32.402],[76.793,32.407],[76.801,32.408],[76.81,32.414],[76.813,32.419],[76.813,32.424],[76.828,32.44],[76.842,32.444],[76.846,32.448],[76.853,32.452],[76.866,32.463],[76.883,32.466],[76.897,32.466],[76.904,32.467],[76.912,32.464],[76.902,32.456],[76.899,32.448],[76.908,32.44],[76.916,32.436],[76.912,32.423],[76.909,32.417],[76.921,32.416],[76.93,32.417],[76.942,32.425],[76.947,32.426],[76.949,32.422],[76.944,32.413],[76.944,32.407],[76.947,32.403],[76.969,32.401],[76.98,32.403],[76.999,32.412],[77.001,32.414],[77.015,32.418],[77.032,32.425],[77.041,32.425],[77.054,32.432],[77.062,32.426],[77.065,32.418],[77.078,32.418],[77.078,32.408],[77.073,32.399]]]]}},{"type":"Feature","properties":{"district":"HAM|RPUR","state":"HIMACHAL PRADESH"},"geometry":{"type":"MultiPolygon","coordinates":[[[[76.639,31.874],[76.633,31.861],[76.632,31.849],[76.628,31.841],[76.628,31.83],[76.631,31.823],[76.627,31.814],[76.624,31.808],[76.624,31.803],[76.62,31.798],[76.623,31.791],[76.622,31.786],[76.627,31.782],[76.627,31.774],[76.633,31.767],[76.635,31.758],[76.634,31.753],[76.64,31.745],[76.65,31.741],[76.654,31.741],[76.672,31.735],[76.675,31.731],[76.671,31.72],[76.676,31.712],[76.679,31.712],[76.687,31.706],[76.686,31.699],[76.69,31.698],[76.687,31.687],[76.691,31.684],[76.697,31.674],[76.709,31.673],[76.713,31.67],[76.722,31.667],[76.725,31.657],[76.716,31.638],[76.715,31.63],[76.716,31.616],[76.725,31.595],[76.728,31.59],[76.729,31.582],[76.721,31.587],[76.713,31.595],[76.705,31.596],[76.681,31.591],[76.681,31.583],[76.676,31.584],[76.662,31.578],[76.656,31.577],[76.653,31.583],[76.639,31.583],[76.633,31.574],[76.628,31.577],[76.62,31.575],[76.619,31.569],[76.615,31.565],[76.617,31.553],[76.614,31.547],[76.616,31.542],[76.614,31.535],[76.617,31.527],[76.618,31.516],[76.612,31.507],[76.611,31.492],[76.607,31.483],[76.608,31.476],[76.617,31.456],[76.624,31.449],[76.626,31.441],[76.622,31.437],[76.616,31.436],[76.612,31.43],[76.618,31.419],[76.61,31.416],[76.607,31.421],[76.598,31.42],[76.591,31.423],[76.583,31.42],[76.58,31.421],[76.573,31.431],[76.562,31.429],[76.557,31.433],[76.557,31.44],[76.546,31.446],[76.544,31.449],[76.536,31.452],[76.532,31.463],[76.522,31.464],[76.516,31.47],[76.513,31.461],[76.51,31.46],[76.499,31.468],[76.487,31.471],[76.481,31.469],[76.475,31.473],[76.462,31.486],[76.463,31.488],[76.455,31.494],[76.445,31.509],[76.441,31.514],[76.436,31.528],[76.439,31.534],[76.432,31.545],[76.428,31.557],[76.42,31.565],[76.419,31.572],[76.415,31.581],[76.406,31.594],[76.401,31.608],[76.396,31.613],[76.396,31.618],[76.392,31.62],[76.388,31.627],[76.385,31.627],[76.373,31.637],[76.365,31.641],[76.359,31.653],[76.352,31.659],[76.352,31.664],[76.34,31.682],[76.334,31.687],[76.328,31.697],[76.321,31.705],[76.311,31.725],[76.317,31.727],[76.319,31.731],[76.31,31.742],[76.309,31.749],[76.305,31.757],[76.305,31.764],[76.31,31.767],[76.308,31.776],[76.327,31.779],[76.334,31.782],[76.349,31.791],[76.355,31.792],[76.362,31.783],[76.365,31.781],[76.363,31.776],[76.368,31.773],[76.377,31.776],[76.385,31.782],[76.396,31.795],[76.402,31.794],[76.41,31.783],[76.414,31.785],[76.411,31.791],[76.416,31.795],[76.424,31.795],[76.433,31.793],[76.437,31.797],[76.439,31.808],[76.443,31.8],[76.453,31.804],[76.457,31.804],[76.464,31.806],[76.454,31.81],[76.455,31.816],[76.46,31.817],[76.466,31.81],[76.47,31.808],[76.476,31.81],[76.474,31.816],[76.467,31.82],[76.465,31.826],[76.469,31.829],[76.478,31.827],[76.481,31.83],[76.496,31.835],[76.501,31.841],[76.512,31.84],[76.52,31.843],[76.524,31.849],[76.526,31.859],[76.546,31.879],[76.556,31.886],[76.581,31.888],[76.591,31.893],[76.601,31.893],[76.625,31.886],[76.63,31.877],[76.639,31.874]]]]}},{"type":"Feature","properties":{"district":"UNA","state":"HIMACHAL PRADESH"},"geometry":{"type":"MultiPolygon","coordinates":[[[[76.311,31.725],[76.321,31.705],[76.328,31.697],[76.334,31.687],[76.34,31.682],[76.352,31.664],[76.352,31.659],[76.359,31.653],[76.365,31.641],[76.373,31.637],[76.385,31.627],[76.388,31.627],[76.392,31.62],[76.396,31.618],[76.396,31.613],[76.401,31.608],[76.406,31.594],[76.415,31.581],[76.419,31.572],[76.42,31.565],[76.428,31.557],[76.432,31.545],[76.439,31.534],[76.436,31.528],[76.441,31.514],[76.445,31.509],[76.455,31.494],[76.463,31.488],[76.462,31.486],[76.455,31.485],[76.451,31.482],[76.461,31.469],[76.461,31.466],[76.47,31.457],[76.471,31.454],[76.466,31.45],[76.466,31.443],[76.476,31.428],[76.473,31.425],[76.462,31.422],[76.456,31.417],[76.437,31.414],[76.426,31.408],[76.418,31.412],[76.402,31.425],[76.397,31.427],[76.393,31.42],[76.396,31.414],[76.395,31.408],[76.388,31.409],[76.39,31.417],[76.379,31.431],[76.377,31.437],[76.37,31.43],[76.372,31.425],[76.37,31.417],[76.371,31.408],[76.367,31.404],[76.358,31.404],[76.352,31.398],[76.347,31.398],[76.342,31.401],[76.331,31.402],[76.33,31.379],[76.342,31.379],[76.341,31.365],[76.343,31.363],[76.342,31.355],[76.346,31.355],[76.348,31.347],[76.344,31.34],[76.337,31.34],[76.336,31.349],[76.331,31.346],[76.308,31.342],[76.314,31.329],[76.322,31.322],[76.311,31.319],[76.304,31.314],[76.29,31.308],[76.289,31.306],[76.287,31.307],[76.276,31.301],[76.271,31.302],[76.268,31.31],[76.257,31.31],[76.251,31.308],[76.239,31.309],[76.214,31.299],[76.191,31.3],[76.186,31.302],[76.181,31.31],[76.18,31.322],[76.181,31.334],[76.176,31.342],[76.159,31.344],[76.157,31.348],[76.149,31.353],[76.147,31.365],[76.147,31.38],[76.154,31.383],[76.16,31.387],[76.17,31.399],[76.167,31.406],[76.167,31.412],[76.161,31.416],[76.162,31.422],[76.152,31.434],[76.147,31.433],[76.14,31.442],[76.139,31.449],[76.134,31.451],[76.135,31.459],[76.131,31.464],[76.131,31.47],[76.128,31.475],[76.121,31.478],[76.117,31.483],[76.121,31.489],[76.121,31.498],[76.114,31.5],[76.102,31.522],[76.103,31.525],[76.098,31.534],[76.099,31.537],[76.093,31.54],[76.089,31.548],[76.085,31.549],[76.073,31.564],[76.073,31.569],[76.067,31.573],[76.065,31.579],[76.057,31.585],[76.058,31.589],[76.058,31.6],[76.056,31.605],[76.05,31.603],[76.046,31.604],[76.041,31.611],[76.029,31.619],[76.018,31.633],[76.021,31.638],[76.017,31.647],[76.019,31.649],[76.01,31.653],[76.007,31.662],[76.006,31.676],[76.003,31.68],[76.001,31.689],[75.995,31.694],[75.989,31.708],[75.989,31.713],[75.983,31.719],[75.979,31.726],[75.978,31.734],[75.972,31.739],[75.975,31.743],[75.96,31.781],[75.953,31.784],[75.953,31.788],[75.947,31.799],[75.937,31.814],[75.948,31.813],[75.957,31.816],[75.965,31.823],[75.969,31.824],[75.979,31.813],[75.987,31.813],[75.986,31.819],[75.979,31.823],[75.966,31.838],[75.96,31.857],[75.966,31.856],[75.98,31.851],[75.992,31.85],[76.001,31.852],[76.005,31.859],[76.011,31.865],[76.019,31.867],[76.024,31.864],[76.031,31.865],[76.043,31.861],[76.045,31.857],[76.05,31.856],[76.06,31.847],[76.064,31.846],[76.068,31.84],[76.075,31.841],[76.083,31.841],[76.084,31.836],[76.08,31.83],[76.085,31.829],[76.09,31.819],[76.094,31.822],[76.101,31.822],[76.106,31.817],[76.107,31.81],[76.104,31.808],[76.113,31.8],[76.124,31.801],[76.131,31.8],[76.148,31.8],[76.154,31.795],[76.159,31.795],[76.167,31.785],[76.18,31.782],[76.185,31.774],[76.183,31.769],[76.189,31.767],[76.2,31.77],[76.206,31.767],[76.204,31.763],[76.213,31.756],[76.215,31.75],[76.223,31.742],[76.233,31.735],[76.234,31.733],[76.253,31.715],[76.264,31.713],[76.264,31.709],[76.273,31.703],[76.277,31.696],[76.281,31.693],[76.284,31.685],[76.291,31.687],[76.297,31.691],[76.296,31.694],[76.305,31.705],[76.306,31.719],[76.311,31.725]]]]}},{"type":"Feature","properties":{"district":"LAHUL & SPITI","state":"HIMACHAL PRADESH"},"geometry":{"type":"MultiPolygon","coordinates":[[[[77.274,32.874],[77.286,32.864],[77.29,32.857],[77.304,32.85],[77.32,32.852],[77.329,32.843],[77.325,32.836],[77.332,32.826],[77.336,32.825],[77.339,32.817],[77.35,32.816],[77.36,32.818],[77.373,32.823],[77.379,32.839],[77.38,32.845],[77.374,32.854],[77.381,32.862],[77.387,32.863],[77.394,32.871],[77.397,32.878],[77.407,32.884],[77.413,32.884],[77.428,32.876],[77.445,32.88],[77.447,32.872],[77.452,32.864],[77.461,32.86],[77.469,32.859],[77.475,32.862],[77.481,32.871],[77.486,32.874],[77.491,32.88],[77.497,32.88],[77.501,32.886],[77.513,32.877],[77.526,32.881],[77.538,32.886],[77.545,32.892],[77.55,32.9],[77.559,32.906],[77.564,32.912],[77.575,32.914],[77.589,32.922],[77.596,32.928],[77.603,32.943],[77.62,32.944],[77.633,32.945],[77.647,32.95],[77.656,32.959],[77.664,32.958],[77.675,32.962],[77.674,32.967],[77.679,32.97],[77.682,32.975],[77.681,32.984],[77.682,32.989],[77.69,32.988],[77.697,32.98],[77.713,32.982],[77.714,32.976],[77.72,32.969],[77.733,32.972],[77.741,32.969],[77.746,32.96],[77.751,32.955],[77.764,32.949],[77.766,32.942],[77.772,32.938],[77.777,32.932],[77.794,32.921],[77.798,32.914],[77.811,32.907],[77.81,32.9],[77.805,32.894],[77.794,32.893],[77.79,32.891],[77.784,32.883],[77.781,32.872],[77.781,32.866],[77.791,32.856],[77.799,32.856],[77.804,32.85],[77.813,32.85],[77.817,32.847],[77.826,32.836],[77.832,32.836],[77.839,32.842],[77.847,32.839],[77.855,32.832],[77.869,32.827],[77.871,32.822],[77.877,32.82],[77.882,32.81],[77.881,32.804],[77.888,32.799],[77.884,32.788],[77.892,32.782],[77.894,32.779],[77.904,32.772],[77.916,32.774],[77.926,32.772],[77.929,32.763],[77.934,32.76],[77.933,32.747],[77.929,32.743],[77.931,32.732],[77.934,32.726],[77.927,32.721],[77.922,32.709],[77.922,32.699],[77.918,32.696],[77.919,32.691],[77.934,32.681],[77.941,32.673],[77.942,32.666],[77.946,32.662],[77.955,32.658],[77.966,32.658],[77.972,32.654],[77.97,32.647],[77.985,32.641],[77.992,32.631],[77.996,32.627],[78.004,32.625],[78.009,32.626],[78.018,32.62],[78.029,32.624],[78.025,32.627],[78.033,32.634],[78.035,32.637],[78.043,32.64],[78.047,32.645],[78.056,32.635],[78.06,32.627],[78.066,32.626],[78.075,32.631],[78.087,32.624],[78.093,32.629],[78.099,32.63],[78.099,32.636],[78.096,32.644],[78.093,32.648],[78.11,32.663],[78.121,32.661],[78.127,32.652],[78.138,32.654],[78.147,32.654],[78.148,32.666],[78.148,32.672],[78.142,32.682],[78.15,32.682],[78.158,32.684],[78.176,32.681],[78.187,32.675],[78.19,32.675],[78.204,32.667],[78.219,32.665],[78.226,32.669],[78.233,32.672],[78.246,32.672],[78.251,32.683],[78.254,32.689],[78.256,32.697],[78.261,32.703],[78.268,32.701],[78.273,32.703],[78.281,32.701],[78.294,32.701],[78.295,32.704],[78.302,32.704],[78.315,32.718],[78.306,32.733],[78.313,32.74],[78.333,32.75],[78.357,32.758],[78.362,32.754],[78.376,32.754],[78.388,32.757],[78.386,32.75],[78.389,32.74],[78.384,32.729],[78.386,32.719],[78.391,32.711],[78.397,32.708],[78.397,32.698],[78.401,32.695],[78.392,32.685],[78.387,32.678],[78.387,32.667],[78.382,32.654],[78.388,32.645],[78.388,32.641],[78.392,32.633],[78.4,32.629],[78.409,32.626],[78.41,32.623],[78.39,32.614],[78.389,32.61],[78.385,32.609],[78.379,32.603],[78.379,32.599],[78.364,32.59],[78.353,32.59],[78.349,32.587],[78.343,32.578],[78.331,32.577],[78.321,32.572],[78.314,32.566],[78.314,32.56],[78.313,32.551],[78.314,32.546],[78.308,32.542],[78.307,32.538],[78.309,32.526],[78.305,32.517],[78.306,32.511],[78.301,32.504],[78.293,32.499],[78.293,32.49],[78.287,32.482],[78.291,32.476],[78.285,32.469],[78.289,32.464],[78.298,32.462],[78.302,32.454],[78.309,32.451],[78.311,32.446],[78.321,32.444],[78.33,32.444],[78.334,32.451],[78.329,32.453],[78.326,32.46],[78.328,32.465],[78.339,32.463],[78.349,32.464],[78.353,32.47],[78.349,32.477],[78.364,32.482],[78.367,32.487],[78.367,32.494],[78.365,32.499],[78.379,32.507],[78.386,32.513],[78.394,32.515],[78.4,32.524],[78.407,32.523],[78.411,32.518],[78.416,32.517],[78.428,32.504],[78.425,32.499],[78.43,32.491],[78.437,32.485],[78.439,32.479],[78.444,32.476],[78.451,32.474],[78.453,32.468],[78.449,32.461],[78.454,32.457],[78.46,32.455],[78.46,32.45],[78.465,32.445],[78.471,32.444],[78.47,32.433],[78.468,32.417],[78.471,32.412],[78.468,32.402],[78.469,32.397],[78.453,32.39],[78.456,32.381],[78.464,32.374],[78.467,32.366],[78.473,32.365],[78.479,32.367],[78.484,32.36],[78.484,32.355],[78.481,32.348],[78.483,32.344],[78.474,32.334],[78.481,32.324],[78.492,32.323],[78.496,32.325],[78.502,32.32],[78.504,32.31],[78.511,32.303],[78.504,32.297],[78.497,32.295],[78.496,32.286],[78.487,32.277],[78.491,32.274],[78.499,32.275],[78.512,32.266],[78.519,32.264],[78.526,32.246],[78.533,32.245],[78.539,32.237],[78.544,32.228],[78.544,32.223],[78.554,32.215],[78.561,32.203],[78.572,32.202],[78.581,32.203],[78.592,32.201],[78.598,32.198],[78.6,32.193],[78.602,32.183],[78.601,32.175],[78.592,32.169],[78.597,32.159],[78.615,32.148],[78.627,32.139],[78.631,32.133],[78.633,32.126],[78.643,32.124],[78.649,32.12],[78.66,32.116],[78.674,32.118],[78.679,32.114],[78.684,32.115],[78.694,32.096],[78.684,32.088],[78.675,32.088],[78.676,32.076],[78.668,32.07],[78.656,32.074],[78.652,32.071],[78.649,32.062],[78.64,32.06],[78.629,32.067],[78.625,32.063],[78.624,32.058],[78.615,32.049],[78.605,32.051],[78.607,32.057],[78.603,32.063],[78.597,32.067],[78.591,32.067],[78.588,32.063],[78.58,32.064],[78.57,32.06],[78.553,32.06],[78.549,32.062],[78.536,32.056],[78.53,32.057],[78.522,32.05],[78.509,32.047],[78.503,32.048],[78.497,32.053],[78.488,32.051],[78.476,32.053],[78.473,32.058],[78.455,32.062],[78.45,32.06],[78.45,32.053],[78.447,32.05],[78.445,32.043],[78.446,32.038],[78.438,32.019],[78.438,32.012],[78.442,32],[78.44,31.983],[78.433,31.978],[78.437,31.97],[78.444,31.969],[78.454,31.963],[78.46,31.958],[78.453,31.949],[78.458,31.942],[78.456,31.938],[78.446,31.935],[78.44,31.936],[78.435,31.935],[78.428,31.937],[78.421,31.934],[78.41,31.944],[78.409,31.947],[78.398,31.954],[78.394,31.953],[78.381,31.955],[78.372,31.959],[78.366,31.959],[78.366,31.951],[78.353,31.938],[78.346,31.937],[78.342,31.931],[78.339,31.933],[78.323,31.934],[78.31,31.937],[78.303,31.933],[78.302,31.926],[78.29,31.926],[78.275,31.933],[78.269,31.934],[78.264,31.932],[78.249,31.934],[78.225,31.931],[78.216,31.933],[78.202,31.932],[78.195,31.926],[78.194,31.917],[78.182,31.915],[78.186,31.903],[78.183,31.896],[78.183,31.889],[78.187,31.882],[78.186,31.878],[78.19,31.872],[78.182,31.865],[78.174,31.865],[78.172,31.86],[78.163,31.859],[78.154,31.861],[78.148,31.867],[78.142,31.865],[78.122,31.866],[78.116,31.861],[78.108,31.857],[78.099,31.858],[78.091,31.855],[78.094,31.851],[78.088,31.849],[78.084,31.845],[78.087,31.841],[78.093,31.84],[78.098,31.835],[78.092,31.83],[78.096,31.824],[78.093,31.816],[78.086,31.808],[78.083,31.797],[78.085,31.788],[78.075,31.782],[78.058,31.782],[78.054,31.777],[78.044,31.769],[78.04,31.761],[78.032,31.758],[78.027,31.758],[78.022,31.764],[78.017,31.765],[78.015,31.771],[78.011,31.774],[78.003,31.771],[77.999,31.779],[77.99,31.779],[77.989,31.781],[77.971,31.78],[77.961,31.783],[77.953,31.787],[77.947,31.783],[77.946,31.768],[77.947,31.762],[77.94,31.757],[77.942,31.753],[77.936,31.748],[77.922,31.749],[77.917,31.752],[77.909,31.75],[77.9,31.753],[77.899,31.76],[77.873,31.776],[77.868,31.783],[77.866,31.792],[77.858,31.795],[77.848,31.801],[77.848,31.818],[77.845,31.825],[77.849,31.833],[77.845,31.835],[77.844,31.844],[77.838,31.855],[77.846,31.865],[77.85,31.875],[77.858,31.877],[77.868,31.883],[77.865,31.887],[77.859,31.887],[77.851,31.891],[77.827,31.898],[77.825,31.896],[77.805,31.9],[77.803,31.902],[77.791,31.909],[77.789,31.915],[77.781,31.922],[77.782,31.93],[77.777,31.935],[77.773,31.936],[77.767,31.942],[77.767,31.948],[77.773,31.952],[77.773,31.955],[77.78,31.962],[77.781,31.97],[77.784,31.975],[77.794,31.981],[77.798,31.987],[77.794,31.993],[77.786,31.997],[77.782,32.001],[77.773,32.006],[77.778,32.012],[77.786,32.014],[77.791,32.018],[77.788,32.024],[77.776,32.036],[77.764,32.042],[77.762,32.046],[77.765,32.052],[77.765,32.059],[77.757,32.067],[77.753,32.078],[77.747,32.082],[77.743,32.09],[77.725,32.09],[77.718,32.092],[77.705,32.102],[77.691,32.099],[77.684,32.104],[77.678,32.113],[77.672,32.115],[77.67,32.121],[77.663,32.122],[77.66,32.136],[77.653,32.142],[77.643,32.146],[77.641,32.149],[77.632,32.149],[77.626,32.158],[77.619,32.155],[77.608,32.16],[77.602,32.166],[77.6,32.172],[77.584,32.174],[77.585,32.18],[77.578,32.183],[77.573,32.183],[77.566,32.194],[77.566,32.203],[77.559,32.21],[77.553,32.213],[77.547,32.219],[77.544,32.215],[77.533,32.208],[77.536,32.201],[77.532,32.194],[77.515,32.198],[77.515,32.203],[77.503,32.211],[77.503,32.215],[77.494,32.216],[77.485,32.221],[77.475,32.221],[77.469,32.223],[77.467,32.212],[77.464,32.21],[77.468,32.205],[77.461,32.202],[77.465,32.194],[77.457,32.191],[77.446,32.19],[77.441,32.188],[77.435,32.19],[77.428,32.188],[77.419,32.192],[77.416,32.202],[77.409,32.204],[77.404,32.21],[77.396,32.212],[77.388,32.209],[77.381,32.211],[77.373,32.219],[77.369,32.219],[77.365,32.224],[77.354,32.229],[77.354,32.232],[77.346,32.244],[77.345,32.251],[77.347,32.254],[77.35,32.269],[77.345,32.274],[77.346,32.278],[77.344,32.285],[77.34,32.288],[77.341,32.296],[77.334,32.304],[77.329,32.303],[77.326,32.309],[77.327,32.315],[77.31,32.328],[77.308,32.333],[77.301,32.331],[77.292,32.338],[77.285,32.34],[77.278,32.347],[77.276,32.355],[77.261,32.36],[77.251,32.369],[77.245,32.37],[77.244,32.374],[77.238,32.376],[77.232,32.375],[77.227,32.37],[77.221,32.376],[77.205,32.385],[77.2,32.386],[77.195,32.398],[77.185,32.397],[77.18,32.403],[77.17,32.407],[77.152,32.415],[77.146,32.413],[77.142,32.408],[77.124,32.403],[77.113,32.398],[77.102,32.396],[77.095,32.393],[77.086,32.396],[77.082,32.395],[77.073,32.399],[77.078,32.408],[77.078,32.418],[77.065,32.418],[77.062,32.426],[77.054,32.432],[77.041,32.425],[77.032,32.425],[77.015,32.418],[77.001,32.414],[76.999,32.412],[76.98,32.403],[76.969,32.401],[76.947,32.403],[76.944,32.407],[76.944,32.413],[76.949,32.422],[76.947,32.426],[76.942,32.425],[76.93,32.417],[76.921,32.416],[76.909,32.417],[76.912,32.423],[76.916,32.436],[76.908,32.44],[76.899,32.448],[76.902,32.456],[76.912,32.464],[76.904,32.467],[76.897,32.466],[76.883,32.466],[76.866,32.463],[76.863,32.466],[76.862,32.473],[76.857,32.479],[76.858,32.491],[76.86,32.498],[76.866,32.505],[76.872,32.508],[76.877,32.513],[76.872,32.519],[76.87,32.525],[76.865,32.534],[76.855,32.53],[76.85,32.526],[76.841,32.524],[76.827,32.531],[76.827,32.537],[76.818,32.537],[76.802,32.531],[76.797,32.532],[76.791,32.54],[76.792,32.547],[76.782,32.548],[76.769,32.545],[76.763,32.547],[76.761,32.551],[76.755,32.555],[76.745,32.555],[76.737,32.546],[76.728,32.545],[76.715,32.538],[76.706,32.544],[76.698,32.546],[76.699,32.551],[76.695,32.555],[76.696,32.56],[76.688,32.566],[76.683,32.563],[76.672,32.564],[76.668,32.572],[76.653,32.579],[76.65,32.583],[76.642,32.578],[76.627,32.575],[76.623,32.579],[76.626,32.598],[76.632,32.605],[76.623,32.606],[76.615,32.603],[76.603,32.604],[76.599,32.616],[76.603,32.622],[76.596,32.626],[76.592,32.634],[76.592,32.637],[76.582,32.639],[76.573,32.644],[76.565,32.645],[76.552,32.654],[76.549,32.656],[76.533,32.656],[76.528,32.656],[76.519,32.666],[76.509,32.667],[76.499,32.661],[76.49,32.659],[76.475,32.656],[76.467,32.652],[76.448,32.656],[76.44,32.659],[76.446,32.67],[76.444,32.674],[76.436,32.677],[76.423,32.688],[76.43,32.698],[76.428,32.701],[76.429,32.709],[76.412,32.722],[76.4,32.727],[76.398,32.734],[76.399,32.74],[76.394,32.743],[76.394,32.752],[76.39,32.759],[76.389,32.767],[76.385,32.774],[76.387,32.782],[76.383,32.793],[76.374,32.797],[76.376,32.803],[76.373,32.808],[76.373,32.815],[76.379,32.822],[76.392,32.825],[76.407,32.84],[76.416,32.844],[76.425,32.843],[76.43,32.845],[76.437,32.851],[76.44,32.856],[76.452,32.851],[76.454,32.848],[76.467,32.826],[76.474,32.821],[76.47,32.813],[76.47,32.806],[76.491,32.802],[76.515,32.807],[76.522,32.807],[76.529,32.812],[76.539,32.816],[76.55,32.816],[76.555,32.819],[76.567,32.823],[76.573,32.824],[76.581,32.832],[76.586,32.841],[76.596,32.842],[76.607,32.851],[76.616,32.848],[76.62,32.85],[76.629,32.85],[76.642,32.854],[76.65,32.852],[76.657,32.843],[76.665,32.846],[76.677,32.847],[76.681,32.851],[76.687,32.862],[76.691,32.865],[76.693,32.873],[76.7,32.881],[76.707,32.884],[76.707,32.895],[76.711,32.904],[76.71,32.909],[76.713,32.917],[76.721,32.92],[76.726,32.928],[76.734,32.93],[76.756,32.925],[76.769,32.935],[76.769,32.942],[76.781,32.951],[76.782,32.958],[76.779,32.963],[76.782,32.968],[76.776,32.978],[76.776,32.982],[76.77,32.984],[76.766,32.989],[76.767,32.999],[76.772,33.002],[76.774,33.013],[76.776,33.017],[76.767,33.017],[76.762,33.018],[76.762,33.027],[76.76,33.035],[76.756,33.035],[76.752,33.043],[76.754,33.047],[76.746,33.055],[76.739,33.077],[76.736,33.083],[76.738,33.091],[76.736,33.104],[76.74,33.114],[76.739,33.12],[76.742,33.129],[76.746,33.131],[76.749,33.14],[76.749,33.151],[76.743,33.157],[76.746,33.169],[76.749,33.176],[76.747,33.179],[76.75,33.191],[76.758,33.196],[76.767,33.211],[76.776,33.22],[76.779,33.24],[76.773,33.242],[76.771,33.249],[76.773,33.252],[76.785,33.253],[76.793,33.256],[76.799,33.256],[76.804,33.251],[76.807,33.245],[76.82,33.236],[76.825,33.245],[76.831,33.249],[76.843,33.247],[76.838,33.234],[76.833,33.23],[76.828,33.223],[76.826,33.215],[76.832,33.212],[76.834,33.205],[76.829,33.203],[76.824,33.198],[76.818,33.195],[76.822,33.184],[76.814,33.178],[76.813,33.172],[76.817,33.167],[76.817,33.16],[76.821,33.153],[76.83,33.143],[76.839,33.141],[76.844,33.138],[76.843,33.13],[76.852,33.127],[76.85,33.119],[76.855,33.114],[76.862,33.113],[76.871,33.113],[76.877,33.119],[76.885,33.121],[76.892,33.114],[76.893,33.105],[76.898,33.099],[76.909,33.094],[76.91,33.09],[76.906,33.085],[76.906,33.078],[76.911,33.075],[76.914,33.063],[76.925,33.047],[76.926,33.038],[76.933,33.028],[76.941,33.028],[76.951,33.018],[76.96,33.015],[76.961,33.009],[76.965,33.004],[76.972,33],[76.981,33],[76.992,33.002],[76.997,32.997],[77.009,32.989],[77.024,32.991],[77.032,32.99],[77.039,32.998],[77.047,32.999],[77.056,32.992],[77.069,32.987],[77.08,32.983],[77.082,32.976],[77.087,32.972],[77.095,32.971],[77.111,32.975],[77.116,32.985],[77.134,32.98],[77.143,32.981],[77.151,32.978],[77.147,32.965],[77.149,32.956],[77.161,32.953],[77.16,32.939],[77.164,32.937],[77.162,32.931],[77.164,32.92],[77.16,32.913],[77.169,32.91],[77.174,32.913],[77.178,32.923],[77.188,32.929],[77.193,32.923],[77.193,32.917],[77.203,32.906],[77.219,32.904],[77.234,32.894],[77.243,32.892],[77.238,32.88],[77.244,32.873],[77.25,32.872],[77.255,32.868],[77.255,32.864],[77.263,32.864],[77.266,32.869],[77.274,32.874]]]]}}]}