{"type":"FeatureCollection","features":[{"type":"Feature","properties":{"district":"Palakkad","state":"KERALA"},"geometry":{"type":"MultiPolygon","coordinates":[[[[76.838,10.338],[76.828,10.337],[76.816,10.349],[76.806,10.344],[76.805,10.337],[76.799,10.338],[76.792,10.336],[76.785,10.337],[76.776,10.342],[76.772,10.334],[76.76,10.337],[76.755,10.336],[76.752,10.338],[76.754,10.344],[76.753,10.348],[76.759,10.349],[76.765,10.356],[76.764,10.362],[76.756,10.361],[76.75,10.366],[76.734,10.369],[76.731,10.368],[76.722,10.372],[76.713,10.373],[76.704,10.368],[76.703,10.363],[76.695,10.362],[76.687,10.363],[76.684,10.367],[76.679,10.368],[76.669,10.374],[76.668,10.378],[76.661,10.386],[76.652,10.38],[76.647,10.383],[76.636,10.38],[76.633,10.376],[76.622,10.38],[76.615,10.391],[76.609,10.399],[76.601,10.418],[76.595,10.422],[76.595,10.424],[76.588,10.435],[76.585,10.437],[76.57,10.436],[76.567,10.437],[76.559,10.434],[76.556,10.437],[76.557,10.443],[76.553,10.446],[76.536,10.448],[76.532,10.459],[76.527,10.462],[76.525,10.467],[76.515,10.472],[76.506,10.473],[76.499,10.479],[76.489,10.479],[76.487,10.486],[76.48,10.486],[76.474,10.487],[76.472,10.497],[76.467,10.499],[76.467,10.503],[76.459,10.508],[76.46,10.511],[76.451,10.522],[76.441,10.523],[76.44,10.53],[76.433,10.534],[76.432,10.537],[76.435,10.548],[76.438,10.554],[76.432,10.558],[76.429,10.565],[76.426,10.566],[76.425,10.572],[76.421,10.572],[76.42,10.579],[76.413,10.578],[76.408,10.58],[76.408,10.584],[76.402,10.591],[76.401,10.596],[76.405,10.602],[76.413,10.595],[76.415,10.6],[76.413,10.606],[76.422,10.606],[76.428,10.613],[76.426,10.628],[76.417,10.63],[76.42,10.638],[76.424,10.644],[76.425,10.649],[76.434,10.65],[76.436,10.656],[76.442,10.663],[76.447,10.661],[76.451,10.666],[76.451,10.676],[76.448,10.686],[76.44,10.697],[76.452,10.702],[76.457,10.701],[76.462,10.708],[76.464,10.721],[76.468,10.725],[76.478,10.73],[76.48,10.734],[76.471,10.74],[76.473,10.749],[76.469,10.752],[76.449,10.751],[76.443,10.75],[76.433,10.751],[76.421,10.749],[76.409,10.749],[76.403,10.746],[76.397,10.746],[76.394,10.749],[76.389,10.763],[76.385,10.768],[76.379,10.768],[76.365,10.763],[76.362,10.758],[76.359,10.748],[76.357,10.744],[76.352,10.743],[76.342,10.748],[76.335,10.749],[76.329,10.745],[76.319,10.747],[76.311,10.75],[76.288,10.755],[76.281,10.752],[76.27,10.754],[76.265,10.753],[76.253,10.747],[76.246,10.749],[76.245,10.757],[76.247,10.761],[76.244,10.771],[76.242,10.774],[76.229,10.773],[76.224,10.78],[76.219,10.782],[76.21,10.778],[76.205,10.778],[76.197,10.782],[76.188,10.783],[76.191,10.777],[76.198,10.775],[76.205,10.768],[76.203,10.762],[76.203,10.752],[76.2,10.753],[76.192,10.75],[76.191,10.745],[76.181,10.733],[76.177,10.724],[76.175,10.723],[76.172,10.713],[76.165,10.711],[76.161,10.707],[76.157,10.718],[76.152,10.714],[76.145,10.72],[76.136,10.72],[76.133,10.722],[76.13,10.716],[76.123,10.71],[76.095,10.728],[76.09,10.727],[76.075,10.728],[76.069,10.73],[76.069,10.738],[76.064,10.744],[76.054,10.74],[76.046,10.745],[76.047,10.752],[76.04,10.755],[76.041,10.763],[76.04,10.77],[76.043,10.796],[76.049,10.797],[76.049,10.8],[76.042,10.805],[76.038,10.805],[76.036,10.809],[76.037,10.816],[76.033,10.817],[76.027,10.822],[76.032,10.832],[76.038,10.838],[76.04,10.846],[76.045,10.849],[76.054,10.846],[76.06,10.84],[76.069,10.838],[76.082,10.84],[76.09,10.84],[76.1,10.843],[76.103,10.847],[76.102,10.868],[76.104,10.872],[76.111,10.867],[76.113,10.869],[76.114,10.877],[76.117,10.882],[76.13,10.878],[76.131,10.897],[76.138,10.895],[76.144,10.89],[76.152,10.891],[76.158,10.9],[76.159,10.908],[76.162,10.912],[76.171,10.914],[76.173,10.908],[76.178,10.906],[76.183,10.91],[76.189,10.909],[76.187,10.901],[76.193,10.897],[76.206,10.899],[76.207,10.903],[76.215,10.915],[76.218,10.908],[76.227,10.895],[76.23,10.888],[76.233,10.886],[76.244,10.888],[76.251,10.886],[76.257,10.896],[76.265,10.908],[76.266,10.914],[76.279,10.916],[76.286,10.914],[76.294,10.92],[76.299,10.918],[76.307,10.911],[76.314,10.913],[76.321,10.911],[76.321,10.908],[76.328,10.904],[76.336,10.906],[76.335,10.911],[76.332,10.914],[76.334,10.923],[76.322,10.933],[76.32,10.942],[76.321,10.954],[76.328,10.965],[76.326,10.967],[76.329,10.973],[76.328,10.979],[76.335,10.981],[76.337,10.976],[76.346,10.975],[76.359,10.976],[76.363,10.975],[76.368,10.993],[76.371,10.997],[76.365,10.999],[76.352,11],[76.351,10.996],[76.342,10.999],[76.335,10.999],[76.325,11.004],[76.324,11.013],[76.328,11.02],[76.325,11.024],[76.317,11.029],[76.305,11.027],[76.298,11.028],[76.292,11.025],[76.288,11.021],[76.284,11.024],[76.286,11.03],[76.285,11.034],[76.289,11.04],[76.293,11.041],[76.295,11.05],[76.309,11.047],[76.312,11.051],[76.32,11.052],[76.325,11.05],[76.331,11.055],[76.334,11.06],[76.331,11.073],[76.339,11.078],[76.344,11.088],[76.351,11.092],[76.358,11.093],[76.36,11.098],[76.369,11.099],[76.375,11.097],[76.382,11.1],[76.388,11.099],[76.389,11.103],[76.385,11.109],[76.386,11.112],[76.399,11.114],[76.409,11.119],[76.408,11.13],[76.411,11.139],[76.414,11.142],[76.407,11.151],[76.407,11.156],[76.411,11.162],[76.414,11.171],[76.407,11.179],[76.403,11.186],[76.406,11.193],[76.404,11.201],[76.405,11.21],[76.408,11.208],[76.414,11.211],[76.418,11.209],[76.425,11.209],[76.428,11.208],[76.431,11.203],[76.439,11.203],[76.439,11.199],[76.452,11.199],[76.458,11.188],[76.467,11.193],[76.473,11.195],[76.472,11.209],[76.483,11.211],[76.51,11.212],[76.516,11.204],[76.534,11.197],[76.601,11.207],[76.625,11.196],[76.63,11.194],[76.653,11.21],[76.656,11.21],[76.672,11.219],[76.678,11.221],[76.685,11.228],[76.684,11.234],[76.698,11.24],[76.707,11.238],[76.71,11.233],[76.715,11.231],[76.721,11.225],[76.726,11.225],[76.726,11.219],[76.731,11.216],[76.722,11.204],[76.728,11.191],[76.722,11.192],[76.72,11.187],[76.71,11.187],[76.707,11.179],[76.7,11.181],[76.7,11.176],[76.693,11.172],[76.692,11.164],[76.69,11.16],[76.695,11.156],[76.695,11.152],[76.707,11.142],[76.711,11.142],[76.71,11.148],[76.716,11.149],[76.72,11.141],[76.723,11.14],[76.731,11.131],[76.735,11.136],[76.745,11.131],[76.748,11.123],[76.747,11.111],[76.739,11.104],[76.743,11.1],[76.746,11.093],[76.751,11.094],[76.755,11.084],[76.755,11.079],[76.75,11.079],[76.745,11.075],[76.741,11.07],[76.746,11.055],[76.751,11.055],[76.761,11.052],[76.762,11.048],[76.769,11.043],[76.778,11.042],[76.788,11.045],[76.793,11.053],[76.798,11.057],[76.801,11.054],[76.797,11.047],[76.793,11.043],[76.792,11.037],[76.782,11.034],[76.774,11.034],[76.767,11.029],[76.754,11.032],[76.738,11.04],[76.732,11.038],[76.726,11.041],[76.714,11.041],[76.71,11.034],[76.694,11.022],[76.691,11.013],[76.688,11.001],[76.685,10.994],[76.686,10.989],[76.667,10.968],[76.667,10.959],[76.664,10.951],[76.665,10.943],[76.656,10.939],[76.659,10.93],[76.662,10.93],[76.669,10.923],[76.677,10.918],[76.695,10.91],[76.708,10.91],[76.724,10.903],[76.732,10.898],[76.739,10.895],[76.741,10.891],[76.76,10.894],[76.768,10.887],[76.775,10.89],[76.78,10.891],[76.787,10.888],[76.792,10.881],[76.801,10.88],[76.808,10.877],[76.831,10.87],[76.832,10.86],[76.839,10.856],[76.841,10.853],[76.848,10.849],[76.854,10.835],[76.851,10.83],[76.845,10.825],[76.848,10.819],[76.864,10.817],[76.865,10.813],[76.87,10.808],[76.886,10.808],[76.889,10.81],[76.901,10.807],[76.901,10.8],[76.907,10.783],[76.908,10.778],[76.903,10.772],[76.904,10.762],[76.902,10.758],[76.897,10.752],[76.896,10.745],[76.891,10.738],[76.889,10.728],[76.893,10.721],[76.89,10.717],[76.882,10.717],[76.871,10.699],[76.871,10.693],[76.866,10.685],[76.87,10.677],[76.877,10.677],[76.878,10.668],[76.882,10.66],[76.881,10.656],[76.884,10.648],[76.882,10.64],[76.873,10.638],[76.868,10.633],[76.859,10.632],[76.853,10.635],[76.844,10.636],[76.839,10.634],[76.831,10.638],[76.821,10.634],[76.814,10.636],[76.815,10.63],[76.812,10.625],[76.812,10.62],[76.816,10.616],[76.818,10.611],[76.816,10.609],[76.817,10.603],[76.826,10.596],[76.832,10.599],[76.838,10.596],[76.834,10.571],[76.839,10.565],[76.836,10.558],[76.835,10.545],[76.842,10.541],[76.842,10.536],[76.831,10.5],[76.828,10.45],[76.816,10.424],[76.823,10.417],[76.826,10.41],[76.83,10.411],[76.834,10.403],[76.824,10.395],[76.831,10.39],[76.834,10.383],[76.844,10.378],[76.849,10.368],[76.845,10.364],[76.846,10.358],[76.836,10.346],[76.838,10.338]]]]}},{"type":"Feature","properties":{"district":"Alappuzha","state":"KERALA"},"geometry":{"type":"MultiPolygon","coordinates":[[[[76.373,9.837],[76.378,9.832],[76.381,9.822],[76.381,9.817],[76.367,9.8],[76.365,9.792],[76.366,9.787],[76.371,9.777],[76.372,9.77],[76.377,9.762],[76.381,9.751],[76.38,9.728],[76.377,9.712],[76.376,9.697],[76.396,9.688],[76.403,9.686],[76.401,9.678],[76.399,9.672],[76.396,9.653],[76.4,9.64],[76.393,9.563],[76.392,9.548],[76.405,9.554],[76.404,9.559],[76.414,9.563],[76.415,9.558],[76.423,9.556],[76.427,9.55],[76.438,9.553],[76.449,9.558],[76.466,9.562],[76.465,9.542],[76.479,9.538],[76.48,9.507],[76.482,9.509],[76.495,9.507],[76.498,9.504],[76.508,9.504],[76.509,9.499],[76.507,9.49],[76.509,9.478],[76.506,9.476],[76.506,9.467],[76.497,9.453],[76.495,9.445],[76.498,9.44],[76.511,9.437],[76.507,9.432],[76.505,9.425],[76.51,9.418],[76.506,9.412],[76.506,9.405],[76.513,9.401],[76.511,9.392],[76.514,9.391],[76.51,9.382],[76.51,9.376],[76.518,9.366],[76.514,9.362],[76.513,9.355],[76.509,9.355],[76.506,9.352],[76.496,9.347],[76.489,9.348],[76.482,9.346],[76.473,9.332],[76.474,9.328],[76.488,9.329],[76.498,9.323],[76.518,9.327],[76.527,9.326],[76.531,9.33],[76.537,9.322],[76.546,9.325],[76.55,9.325],[76.553,9.328],[76.553,9.335],[76.56,9.343],[76.554,9.346],[76.55,9.35],[76.552,9.352],[76.559,9.351],[76.567,9.356],[76.573,9.356],[76.585,9.348],[76.587,9.352],[76.596,9.352],[76.598,9.346],[76.606,9.345],[76.61,9.342],[76.614,9.343],[76.62,9.339],[76.628,9.337],[76.63,9.343],[76.642,9.341],[76.642,9.333],[76.64,9.33],[76.642,9.317],[76.646,9.31],[76.651,9.308],[76.651,9.29],[76.662,9.287],[76.664,9.289],[76.676,9.289],[76.677,9.283],[76.671,9.277],[76.666,9.275],[76.668,9.27],[76.664,9.266],[76.657,9.264],[76.658,9.258],[76.658,9.244],[76.654,9.238],[76.647,9.238],[76.639,9.234],[76.645,9.224],[76.647,9.208],[76.652,9.204],[76.657,9.205],[76.661,9.201],[76.668,9.2],[76.671,9.195],[76.677,9.194],[76.676,9.189],[76.677,9.183],[76.681,9.182],[76.691,9.177],[76.688,9.169],[76.681,9.172],[76.675,9.17],[76.672,9.164],[76.674,9.154],[76.661,9.149],[76.649,9.15],[76.646,9.147],[76.638,9.148],[76.635,9.141],[76.633,9.138],[76.623,9.139],[76.615,9.131],[76.602,9.13],[76.599,9.132],[76.591,9.132],[76.588,9.123],[76.58,9.115],[76.572,9.116],[76.569,9.112],[76.558,9.11],[76.551,9.111],[76.546,9.126],[76.541,9.128],[76.542,9.135],[76.529,9.135],[76.515,9.138],[76.503,9.135],[76.506,9.126],[76.494,9.125],[76.485,9.126],[76.479,9.128],[76.473,9.127],[76.47,9.131],[76.466,9.13],[76.463,9.135],[76.438,9.19],[76.432,9.202],[76.407,9.256],[76.396,9.282],[76.385,9.303],[76.381,9.315],[76.371,9.335],[76.367,9.345],[76.352,9.378],[76.342,9.403],[76.328,9.449],[76.313,9.51],[76.305,9.551],[76.3,9.59],[76.297,9.618],[76.294,9.64],[76.287,9.707],[76.283,9.751],[76.283,9.754],[76.277,9.789],[76.284,9.791],[76.283,9.805],[76.291,9.807],[76.287,9.819],[76.284,9.817],[76.279,9.827],[76.28,9.831],[76.284,9.837],[76.286,9.85],[76.296,9.851],[76.297,9.855],[76.293,9.884],[76.293,9.891],[76.303,9.89],[76.311,9.884],[76.322,9.881],[76.33,9.877],[76.336,9.877],[76.35,9.882],[76.353,9.884],[76.357,9.88],[76.362,9.871],[76.366,9.868],[76.372,9.856],[76.37,9.853],[76.372,9.839],[76.373,9.837]]]]}},{"type":"Feature","properties":{"district":"Kottayam","state":"KERALA"},"geometry":{"type":"MultiPolygon","coordinates":[[[[76.373,9.837],[76.38,9.843],[76.389,9.844],[76.394,9.831],[76.396,9.83],[76.406,9.83],[76.411,9.828],[76.414,9.822],[76.429,9.825],[76.448,9.836],[76.45,9.841],[76.454,9.841],[76.457,9.847],[76.46,9.847],[76.474,9.842],[76.478,9.844],[76.483,9.843],[76.486,9.846],[76.498,9.851],[76.51,9.851],[76.514,9.849],[76.514,9.844],[76.519,9.835],[76.517,9.833],[76.52,9.824],[76.524,9.827],[76.539,9.823],[76.539,9.815],[76.545,9.813],[76.543,9.809],[76.544,9.801],[76.554,9.802],[76.557,9.805],[76.559,9.815],[76.564,9.82],[76.567,9.825],[76.575,9.82],[76.581,9.822],[76.582,9.827],[76.58,9.843],[76.591,9.842],[76.594,9.846],[76.604,9.845],[76.605,9.841],[76.616,9.839],[76.609,9.849],[76.616,9.852],[76.619,9.856],[76.625,9.857],[76.629,9.856],[76.627,9.851],[76.634,9.846],[76.639,9.845],[76.646,9.841],[76.661,9.84],[76.668,9.844],[76.675,9.843],[76.676,9.839],[76.682,9.839],[76.685,9.833],[76.696,9.834],[76.699,9.826],[76.71,9.822],[76.721,9.814],[76.739,9.807],[76.742,9.804],[76.751,9.806],[76.75,9.815],[76.754,9.818],[76.77,9.81],[76.779,9.808],[76.808,9.79],[76.815,9.78],[76.828,9.77],[76.827,9.764],[76.839,9.756],[76.843,9.752],[76.849,9.74],[76.86,9.73],[76.867,9.736],[76.868,9.73],[76.874,9.725],[76.882,9.72],[76.885,9.72],[76.89,9.716],[76.891,9.71],[76.897,9.701],[76.897,9.697],[76.904,9.683],[76.903,9.676],[76.912,9.67],[76.915,9.664],[76.925,9.656],[76.925,9.65],[76.919,9.647],[76.918,9.643],[76.922,9.636],[76.932,9.628],[76.935,9.62],[76.928,9.615],[76.926,9.618],[76.917,9.621],[76.91,9.627],[76.903,9.634],[76.895,9.633],[76.891,9.63],[76.892,9.622],[76.887,9.621],[76.891,9.615],[76.888,9.611],[76.892,9.605],[76.892,9.6],[76.895,9.589],[76.884,9.583],[76.886,9.577],[76.885,9.563],[76.891,9.546],[76.888,9.538],[76.903,9.537],[76.903,9.527],[76.905,9.522],[76.912,9.516],[76.928,9.505],[76.93,9.502],[76.936,9.504],[76.95,9.49],[76.955,9.492],[76.957,9.503],[76.965,9.509],[76.978,9.498],[76.983,9.49],[76.982,9.483],[76.984,9.48],[76.985,9.471],[76.982,9.467],[76.972,9.467],[76.969,9.465],[76.964,9.465],[76.958,9.461],[76.952,9.45],[76.94,9.445],[76.945,9.435],[76.941,9.433],[76.944,9.429],[76.948,9.434],[76.955,9.434],[76.954,9.43],[76.964,9.427],[76.966,9.433],[76.971,9.431],[76.968,9.425],[76.96,9.423],[76.959,9.421],[76.951,9.421],[76.944,9.419],[76.936,9.421],[76.927,9.416],[76.923,9.416],[76.924,9.422],[76.92,9.426],[76.91,9.427],[76.905,9.432],[76.899,9.434],[76.885,9.443],[76.869,9.448],[76.861,9.453],[76.857,9.454],[76.848,9.446],[76.845,9.45],[76.835,9.45],[76.829,9.452],[76.826,9.447],[76.823,9.446],[76.819,9.455],[76.816,9.456],[76.804,9.455],[76.798,9.452],[76.794,9.454],[76.788,9.449],[76.783,9.449],[76.768,9.442],[76.765,9.437],[76.762,9.445],[76.754,9.454],[76.749,9.463],[76.749,9.469],[76.746,9.475],[76.735,9.476],[76.732,9.474],[76.73,9.466],[76.722,9.465],[76.713,9.457],[76.709,9.455],[76.701,9.473],[76.7,9.477],[76.695,9.478],[76.689,9.477],[76.682,9.481],[76.675,9.48],[76.667,9.483],[76.651,9.481],[76.648,9.478],[76.643,9.479],[76.642,9.476],[76.641,9.468],[76.636,9.463],[76.631,9.472],[76.627,9.471],[76.626,9.462],[76.62,9.46],[76.617,9.461],[76.603,9.458],[76.604,9.45],[76.597,9.451],[76.591,9.444],[76.593,9.439],[76.592,9.424],[76.591,9.418],[76.579,9.422],[76.575,9.418],[76.565,9.411],[76.555,9.413],[76.554,9.425],[76.548,9.423],[76.543,9.423],[76.54,9.418],[76.531,9.417],[76.526,9.413],[76.526,9.409],[76.516,9.408],[76.513,9.401],[76.506,9.405],[76.506,9.412],[76.51,9.418],[76.505,9.425],[76.507,9.432],[76.511,9.437],[76.498,9.44],[76.495,9.445],[76.497,9.453],[76.506,9.467],[76.506,9.476],[76.509,9.478],[76.507,9.49],[76.509,9.499],[76.508,9.504],[76.498,9.504],[76.495,9.507],[76.482,9.509],[76.48,9.507],[76.479,9.538],[76.465,9.542],[76.466,9.562],[76.449,9.558],[76.438,9.553],[76.427,9.55],[76.423,9.556],[76.415,9.558],[76.414,9.563],[76.404,9.559],[76.405,9.554],[76.392,9.548],[76.393,9.563],[76.4,9.64],[76.396,9.653],[76.399,9.672],[76.401,9.678],[76.403,9.686],[76.396,9.688],[76.376,9.697],[76.377,9.712],[76.38,9.728],[76.381,9.751],[76.377,9.762],[76.372,9.77],[76.371,9.777],[76.366,9.787],[76.365,9.792],[76.367,9.8],[76.381,9.817],[76.381,9.822],[76.378,9.832],[76.373,9.837]]]]}},{"type":"Feature","properties":{"district":"Kollam","state":"KERALA"},"geometry":{"type":"MultiPolygon","coordinates":[[[[77.208,9.073],[77.206,9.066],[77.197,9.057],[77.193,9.044],[77.188,9.043],[77.184,9.047],[77.174,9.047],[77.167,9.045],[77.163,9.038],[77.16,9.036],[77.161,9.03],[77.155,9.023],[77.147,9.022],[77.151,9.014],[77.149,9.01],[77.156,9.004],[77.162,8.995],[77.173,8.991],[77.176,8.977],[77.178,8.969],[77.186,8.97],[77.191,8.966],[77.192,8.959],[77.195,8.957],[77.197,8.952],[77.194,8.944],[77.197,8.936],[77.192,8.929],[77.195,8.924],[77.201,8.925],[77.21,8.919],[77.218,8.919],[77.221,8.904],[77.228,8.904],[77.239,8.898],[77.238,8.886],[77.246,8.88],[77.256,8.879],[77.258,8.865],[77.256,8.861],[77.262,8.857],[77.258,8.85],[77.263,8.843],[77.258,8.835],[77.253,8.832],[77.251,8.827],[77.247,8.822],[77.248,8.817],[77.243,8.81],[77.232,8.808],[77.233,8.8],[77.231,8.798],[77.231,8.791],[77.23,8.785],[77.224,8.784],[77.22,8.779],[77.215,8.78],[77.215,8.775],[77.218,8.771],[77.21,8.765],[77.206,8.768],[77.2,8.77],[77.192,8.773],[77.184,8.778],[77.177,8.781],[77.169,8.788],[77.159,8.793],[77.156,8.797],[77.151,8.799],[77.141,8.807],[77.137,8.806],[77.128,8.811],[77.123,8.818],[77.119,8.822],[77.113,8.823],[77.108,8.827],[77.107,8.83],[77.1,8.83],[77.088,8.834],[77.083,8.84],[77.069,8.841],[77.056,8.844],[77.051,8.846],[77.043,8.846],[77.033,8.843],[77.029,8.834],[77.025,8.834],[77.02,8.828],[77.02,8.822],[77.009,8.813],[77.011,8.806],[77.011,8.797],[77.016,8.792],[77.025,8.775],[77.015,8.772],[77.003,8.771],[77.001,8.772],[76.998,8.783],[76.991,8.788],[76.983,8.79],[76.979,8.789],[76.974,8.783],[76.973,8.775],[76.964,8.771],[76.95,8.772],[76.946,8.771],[76.942,8.766],[76.935,8.762],[76.915,8.777],[76.915,8.782],[76.921,8.787],[76.915,8.794],[76.913,8.799],[76.907,8.801],[76.907,8.805],[76.898,8.812],[76.89,8.811],[76.883,8.806],[76.876,8.81],[76.87,8.811],[76.863,8.814],[76.852,8.822],[76.846,8.828],[76.848,8.834],[76.84,8.838],[76.839,8.841],[76.829,8.845],[76.824,8.845],[76.824,8.851],[76.815,8.856],[76.808,8.857],[76.802,8.849],[76.796,8.855],[76.79,8.853],[76.784,8.859],[76.782,8.852],[76.775,8.844],[76.782,8.843],[76.785,8.836],[76.789,8.835],[76.794,8.828],[76.79,8.818],[76.788,8.812],[76.777,8.81],[76.771,8.811],[76.772,8.806],[76.768,8.804],[76.769,8.799],[76.761,8.8],[76.758,8.795],[76.741,8.796],[76.739,8.798],[76.728,8.8],[76.721,8.804],[76.714,8.796],[76.709,8.795],[76.71,8.791],[76.692,8.791],[76.69,8.779],[76.68,8.781],[76.678,8.786],[76.673,8.782],[76.664,8.793],[76.661,8.796],[76.641,8.824],[76.631,8.837],[76.61,8.859],[76.595,8.873],[76.579,8.881],[76.572,8.883],[76.565,8.88],[76.56,8.889],[76.553,8.895],[76.548,8.902],[76.542,8.913],[76.541,8.926],[76.539,8.931],[76.541,8.934],[76.537,8.938],[76.534,8.951],[76.529,8.962],[76.523,8.989],[76.521,8.999],[76.515,9.017],[76.502,9.05],[76.499,9.058],[76.488,9.082],[76.472,9.115],[76.463,9.135],[76.466,9.13],[76.47,9.131],[76.473,9.127],[76.479,9.128],[76.485,9.126],[76.494,9.125],[76.506,9.126],[76.503,9.135],[76.515,9.138],[76.529,9.135],[76.542,9.135],[76.541,9.128],[76.546,9.126],[76.551,9.111],[76.558,9.11],[76.569,9.112],[76.572,9.116],[76.58,9.115],[76.588,9.123],[76.591,9.132],[76.599,9.132],[76.602,9.13],[76.615,9.131],[76.623,9.139],[76.633,9.138],[76.635,9.141],[76.636,9.129],[76.633,9.123],[76.645,9.122],[76.648,9.118],[76.654,9.115],[76.665,9.114],[76.67,9.117],[76.672,9.114],[76.675,9.105],[76.674,9.101],[76.677,9.09],[76.672,9.082],[76.674,9.079],[76.679,9.082],[76.684,9.081],[76.686,9.089],[76.69,9.092],[76.7,9.089],[76.705,9.087],[76.711,9.087],[76.722,9.082],[76.727,9.084],[76.733,9.081],[76.736,9.086],[76.739,9.085],[76.745,9.08],[76.75,9.084],[76.753,9.088],[76.758,9.086],[76.758,9.074],[76.771,9.075],[76.771,9.082],[76.766,9.095],[76.77,9.101],[76.774,9.102],[76.777,9.109],[76.782,9.113],[76.787,9.114],[76.793,9.109],[76.809,9.108],[76.814,9.105],[76.823,9.093],[76.828,9.092],[76.833,9.094],[76.842,9.092],[76.852,9.105],[76.851,9.11],[76.859,9.117],[76.866,9.116],[76.868,9.122],[76.876,9.131],[76.884,9.126],[76.884,9.122],[76.893,9.123],[76.897,9.127],[76.91,9.126],[76.924,9.123],[76.925,9.119],[76.938,9.117],[76.944,9.119],[76.948,9.117],[76.956,9.124],[76.96,9.13],[76.948,9.131],[76.946,9.135],[76.94,9.139],[76.936,9.136],[76.926,9.139],[76.927,9.146],[76.926,9.154],[76.93,9.174],[76.939,9.169],[76.945,9.164],[76.96,9.154],[76.972,9.15],[76.979,9.149],[76.989,9.145],[76.994,9.14],[77.005,9.138],[77.009,9.14],[77.016,9.136],[77.018,9.131],[77.045,9.123],[77.052,9.128],[77.055,9.126],[77.056,9.12],[77.065,9.119],[77.067,9.115],[77.071,9.113],[77.078,9.113],[77.081,9.11],[77.09,9.106],[77.098,9.1],[77.105,9.098],[77.111,9.093],[77.121,9.095],[77.131,9.088],[77.143,9.085],[77.146,9.083],[77.155,9.086],[77.156,9.082],[77.17,9.078],[77.172,9.079],[77.179,9.076],[77.191,9.076],[77.205,9.072],[77.208,9.073]]]]}},{"type":"Feature","properties":{"district":"Kozhikode","state":"KERALA"},"geometry":{"type":"MultiPolygon","coordinates":[[[[75.75,11.31],[75.745,11.322],[75.737,11.324],[75.736,11.331],[75.735,11.346],[75.732,11.356],[75.714,11.394],[75.711,11.397],[75.698,11.425],[75.684,11.446],[75.679,11.451],[75.675,11.452],[75.664,11.462],[75.66,11.462],[75.652,11.467],[75.645,11.468],[75.633,11.461],[75.63,11.47],[75.626,11.473],[75.621,11.473],[75.617,11.476],[75.619,11.481],[75.617,11.489],[75.613,11.503],[75.611,11.506],[75.601,11.532],[75.594,11.552],[75.59,11.562],[75.588,11.571],[75.576,11.604],[75.563,11.635],[75.561,11.641],[75.542,11.683],[75.536,11.694],[75.541,11.696],[75.541,11.697],[75.541,11.698],[75.542,11.698],[75.542,11.7],[75.542,11.702],[75.543,11.703],[75.544,11.705],[75.553,11.703],[75.557,11.698],[75.564,11.694],[75.562,11.683],[75.57,11.675],[75.579,11.68],[75.587,11.687],[75.594,11.688],[75.601,11.687],[75.604,11.69],[75.601,11.696],[75.595,11.696],[75.592,11.7],[75.593,11.708],[75.589,11.713],[75.596,11.714],[75.599,11.719],[75.603,11.719],[75.611,11.725],[75.615,11.724],[75.624,11.732],[75.627,11.738],[75.634,11.736],[75.638,11.739],[75.641,11.744],[75.649,11.747],[75.648,11.75],[75.658,11.755],[75.659,11.758],[75.665,11.758],[75.669,11.77],[75.683,11.775],[75.686,11.779],[75.688,11.789],[75.691,11.794],[75.691,11.8],[75.699,11.799],[75.713,11.796],[75.717,11.797],[75.723,11.792],[75.727,11.787],[75.729,11.78],[75.737,11.781],[75.737,11.787],[75.746,11.787],[75.75,11.782],[75.758,11.789],[75.753,11.795],[75.747,11.798],[75.75,11.804],[75.757,11.806],[75.772,11.803],[75.777,11.802],[75.782,11.798],[75.784,11.797],[75.785,11.796],[75.786,11.795],[75.789,11.794],[75.791,11.793],[75.791,11.792],[75.793,11.791],[75.793,11.786],[75.794,11.785],[75.794,11.784],[75.793,11.783],[75.792,11.779],[75.791,11.778],[75.788,11.774],[75.788,11.773],[75.789,11.773],[75.788,11.765],[75.783,11.761],[75.783,11.76],[75.785,11.759],[75.787,11.758],[75.789,11.757],[75.79,11.756],[75.799,11.753],[75.797,11.746],[75.791,11.743],[75.792,11.743],[75.795,11.743],[75.8,11.743],[75.802,11.744],[75.807,11.743],[75.81,11.743],[75.811,11.74],[75.814,11.74],[75.817,11.737],[75.819,11.734],[75.82,11.734],[75.822,11.733],[75.823,11.731],[75.823,11.729],[75.824,11.727],[75.825,11.727],[75.827,11.727],[75.828,11.726],[75.83,11.723],[75.837,11.719],[75.846,11.714],[75.846,11.713],[75.845,11.709],[75.845,11.707],[75.846,11.707],[75.849,11.705],[75.85,11.704],[75.851,11.703],[75.855,11.703],[75.856,11.703],[75.858,11.703],[75.86,11.704],[75.869,11.702],[75.872,11.702],[75.875,11.704],[75.877,11.703],[75.878,11.702],[75.882,11.699],[75.884,11.699],[75.886,11.699],[75.89,11.699],[75.892,11.7],[75.894,11.699],[75.896,11.699],[75.9,11.699],[75.904,11.696],[75.914,11.691],[75.915,11.688],[75.91,11.684],[75.907,11.683],[75.906,11.681],[75.902,11.678],[75.902,11.673],[75.905,11.661],[75.904,11.658],[75.903,11.657],[75.903,11.652],[75.9,11.646],[75.898,11.643],[75.9,11.637],[75.9,11.634],[75.898,11.624],[75.898,11.622],[75.901,11.617],[75.904,11.613],[75.906,11.612],[75.906,11.609],[75.911,11.601],[75.914,11.601],[75.918,11.596],[75.922,11.595],[75.925,11.594],[75.927,11.593],[75.928,11.591],[75.932,11.591],[75.934,11.591],[75.937,11.59],[75.938,11.587],[75.939,11.584],[75.946,11.581],[75.95,11.582],[75.952,11.581],[75.956,11.577],[75.957,11.575],[75.956,11.573],[75.957,11.57],[75.958,11.562],[75.966,11.554],[75.972,11.549],[75.974,11.546],[75.976,11.544],[75.98,11.542],[75.983,11.539],[75.99,11.537],[75.996,11.534],[76,11.527],[76.014,11.519],[76.016,11.518],[76.018,11.516],[76.018,11.515],[76.022,11.514],[76.024,11.514],[76.026,11.514],[76.034,11.51],[76.035,11.509],[76.037,11.505],[76.037,11.504],[76.038,11.503],[76.039,11.503],[76.043,11.505],[76.05,11.504],[76.051,11.504],[76.056,11.506],[76.057,11.507],[76.06,11.51],[76.063,11.51],[76.063,11.511],[76.065,11.514],[76.068,11.518],[76.069,11.519],[76.072,11.52],[76.072,11.521],[76.073,11.522],[76.075,11.523],[76.076,11.523],[76.079,11.521],[76.08,11.519],[76.082,11.517],[76.082,11.516],[76.083,11.514],[76.086,11.513],[76.089,11.508],[76.089,11.504],[76.091,11.498],[76.092,11.496],[76.093,11.493],[76.09,11.492],[76.089,11.487],[76.091,11.484],[76.092,11.483],[76.094,11.482],[76.106,11.482],[76.108,11.479],[76.112,11.476],[76.113,11.476],[76.123,11.474],[76.124,11.471],[76.124,11.468],[76.128,11.465],[76.129,11.465],[76.131,11.465],[76.143,11.452],[76.142,11.449],[76.14,11.444],[76.14,11.438],[76.146,11.43],[76.146,11.428],[76.143,11.426],[76.14,11.42],[76.139,11.42],[76.135,11.425],[76.132,11.426],[76.129,11.421],[76.122,11.414],[76.122,11.411],[76.121,11.411],[76.119,11.41],[76.117,11.408],[76.115,11.409],[76.109,11.411],[76.105,11.41],[76.106,11.407],[76.106,11.403],[76.106,11.402],[76.099,11.396],[76.1,11.39],[76.1,11.389],[76.098,11.386],[76.098,11.383],[76.099,11.373],[76.102,11.368],[76.096,11.363],[76.094,11.36],[76.093,11.357],[76.094,11.355],[76.092,11.353],[76.094,11.349],[76.094,11.347],[76.097,11.344],[76.106,11.339],[76.111,11.337],[76.116,11.338],[76.118,11.337],[76.116,11.333],[76.118,11.327],[76.118,11.319],[76.113,11.314],[76.109,11.314],[76.109,11.315],[76.105,11.313],[76.104,11.312],[76.103,11.311],[76.1,11.311],[76.096,11.311],[76.094,11.31],[76.092,11.311],[76.084,11.307],[76.084,11.305],[76.08,11.301],[76.075,11.297],[76.071,11.295],[76.069,11.294],[76.071,11.292],[76.072,11.29],[76.072,11.289],[76.072,11.287],[76.072,11.286],[76.07,11.286],[76.068,11.285],[76.067,11.285],[76.066,11.285],[76.063,11.283],[76.061,11.282],[76.06,11.28],[76.059,11.278],[76.056,11.275],[76.053,11.273],[76.051,11.271],[76.05,11.27],[76.049,11.267],[76.041,11.267],[76.038,11.268],[76.034,11.267],[76.032,11.267],[76.031,11.267],[76.03,11.267],[76.027,11.268],[76.024,11.269],[76.019,11.269],[76.017,11.268],[76.015,11.268],[76.012,11.265],[76.009,11.26],[76.003,11.258],[76,11.259],[75.995,11.254],[75.995,11.255],[75.99,11.259],[75.985,11.262],[75.984,11.263],[75.978,11.267],[75.974,11.269],[75.963,11.259],[75.961,11.256],[75.96,11.254],[75.952,11.25],[75.947,11.25],[75.942,11.249],[75.933,11.247],[75.927,11.246],[75.926,11.246],[75.922,11.242],[75.921,11.239],[75.919,11.237],[75.917,11.236],[75.915,11.236],[75.908,11.24],[75.901,11.243],[75.899,11.241],[75.899,11.237],[75.899,11.232],[75.896,11.229],[75.892,11.23],[75.882,11.225],[75.878,11.223],[75.877,11.223],[75.877,11.22],[75.875,11.215],[75.868,11.206],[75.86,11.205],[75.858,11.208],[75.856,11.202],[75.858,11.201],[75.86,11.196],[75.858,11.195],[75.858,11.193],[75.86,11.193],[75.862,11.19],[75.87,11.188],[75.871,11.188],[75.872,11.188],[75.875,11.186],[75.879,11.182],[75.881,11.183],[75.883,11.185],[75.885,11.185],[75.885,11.183],[75.886,11.179],[75.887,11.179],[75.887,11.177],[75.886,11.177],[75.886,11.175],[75.888,11.172],[75.887,11.171],[75.882,11.172],[75.88,11.171],[75.88,11.169],[75.875,11.168],[75.871,11.169],[75.87,11.173],[75.867,11.171],[75.865,11.171],[75.864,11.169],[75.863,11.168],[75.861,11.167],[75.861,11.166],[75.861,11.165],[75.86,11.163],[75.861,11.161],[75.86,11.159],[75.858,11.157],[75.857,11.157],[75.857,11.156],[75.856,11.156],[75.854,11.156],[75.853,11.154],[75.852,11.153],[75.854,11.152],[75.855,11.148],[75.856,11.148],[75.856,11.147],[75.857,11.147],[75.858,11.144],[75.858,11.143],[75.857,11.142],[75.858,11.14],[75.858,11.139],[75.857,11.138],[75.849,11.143],[75.847,11.143],[75.846,11.143],[75.841,11.139],[75.839,11.137],[75.838,11.135],[75.837,11.135],[75.833,11.132],[75.832,11.129],[75.832,11.128],[75.832,11.127],[75.831,11.127],[75.83,11.125],[75.828,11.125],[75.827,11.124],[75.826,11.124],[75.824,11.125],[75.817,11.143],[75.813,11.15],[75.81,11.151],[75.803,11.16],[75.793,11.189],[75.787,11.202],[75.786,11.209],[75.78,11.224],[75.779,11.228],[75.775,11.238],[75.772,11.248],[75.77,11.251],[75.764,11.272],[75.758,11.29],[75.75,11.31]]]]}},{"type":"Feature","properties":{"district":"Kasaragod","state":"KERALA"},"geometry":{"type":"MultiPolygon","coordinates":[[[[75.416,12.5],[75.417,12.493],[75.421,12.489],[75.42,12.48],[75.425,12.475],[75.423,12.467],[75.416,12.466],[75.413,12.459],[75.404,12.455],[75.393,12.455],[75.387,12.458],[75.381,12.457],[75.375,12.46],[75.371,12.457],[75.366,12.457],[75.37,12.449],[75.369,12.443],[75.371,12.439],[75.369,12.429],[75.37,12.426],[75.367,12.417],[75.367,12.413],[75.371,12.409],[75.372,12.401],[75.377,12.399],[75.38,12.394],[75.392,12.39],[75.399,12.381],[75.402,12.383],[75.406,12.379],[75.413,12.38],[75.422,12.374],[75.422,12.368],[75.42,12.357],[75.415,12.35],[75.411,12.346],[75.415,12.34],[75.416,12.33],[75.419,12.329],[75.42,12.319],[75.427,12.311],[75.428,12.304],[75.42,12.296],[75.414,12.292],[75.409,12.295],[75.406,12.294],[75.404,12.294],[75.401,12.293],[75.397,12.294],[75.396,12.293],[75.394,12.291],[75.393,12.29],[75.392,12.29],[75.391,12.292],[75.39,12.297],[75.386,12.293],[75.387,12.288],[75.385,12.288],[75.382,12.286],[75.379,12.285],[75.374,12.284],[75.372,12.286],[75.37,12.286],[75.368,12.282],[75.366,12.279],[75.366,12.278],[75.365,12.278],[75.361,12.277],[75.359,12.276],[75.354,12.272],[75.348,12.269],[75.346,12.267],[75.341,12.269],[75.333,12.267],[75.328,12.269],[75.325,12.272],[75.322,12.273],[75.316,12.273],[75.314,12.271],[75.308,12.272],[75.304,12.27],[75.296,12.267],[75.292,12.264],[75.289,12.262],[75.288,12.262],[75.287,12.261],[75.287,12.257],[75.287,12.256],[75.288,12.255],[75.288,12.254],[75.289,12.25],[75.289,12.249],[75.29,12.246],[75.29,12.245],[75.291,12.241],[75.291,12.24],[75.291,12.236],[75.283,12.233],[75.282,12.233],[75.276,12.232],[75.27,12.227],[75.261,12.225],[75.253,12.221],[75.252,12.219],[75.248,12.22],[75.247,12.219],[75.244,12.219],[75.241,12.219],[75.24,12.219],[75.239,12.218],[75.232,12.222],[75.231,12.221],[75.229,12.219],[75.228,12.218],[75.228,12.217],[75.222,12.21],[75.22,12.207],[75.219,12.206],[75.215,12.203],[75.215,12.202],[75.213,12.202],[75.21,12.2],[75.209,12.199],[75.208,12.198],[75.207,12.197],[75.207,12.195],[75.205,12.194],[75.205,12.193],[75.201,12.191],[75.2,12.191],[75.198,12.192],[75.197,12.192],[75.196,12.192],[75.195,12.193],[75.193,12.193],[75.19,12.193],[75.182,12.191],[75.177,12.19],[75.176,12.19],[75.173,12.189],[75.174,12.188],[75.175,12.186],[75.176,12.185],[75.176,12.184],[75.178,12.181],[75.179,12.18],[75.179,12.179],[75.179,12.178],[75.18,12.176],[75.182,12.177],[75.182,12.175],[75.186,12.169],[75.187,12.166],[75.188,12.166],[75.188,12.165],[75.188,12.162],[75.189,12.16],[75.189,12.159],[75.19,12.158],[75.19,12.156],[75.19,12.154],[75.19,12.153],[75.191,12.152],[75.191,12.151],[75.191,12.15],[75.191,12.149],[75.191,12.147],[75.193,12.147],[75.194,12.146],[75.195,12.142],[75.196,12.14],[75.195,12.139],[75.195,12.137],[75.193,12.135],[75.192,12.135],[75.19,12.134],[75.188,12.13],[75.192,12.123],[75.193,12.12],[75.192,12.117],[75.191,12.112],[75.192,12.11],[75.192,12.107],[75.193,12.105],[75.192,12.102],[75.191,12.1],[75.19,12.098],[75.19,12.097],[75.187,12.096],[75.185,12.095],[75.183,12.096],[75.178,12.1],[75.176,12.101],[75.175,12.1],[75.174,12.099],[75.168,12.092],[75.168,12.091],[75.17,12.087],[75.176,12.078],[75.176,12.072],[75.176,12.07],[75.178,12.066],[75.182,12.058],[75.185,12.048],[75.186,12.046],[75.184,12.044],[75.17,12.08],[75.159,12.103],[75.141,12.149],[75.122,12.196],[75.123,12.204],[75.119,12.204],[75.099,12.254],[75.097,12.262],[75.078,12.305],[75.074,12.313],[75.069,12.327],[75.066,12.331],[75.059,12.35],[75.048,12.372],[75.044,12.383],[75.039,12.39],[75.032,12.39],[75.027,12.399],[75.019,12.416],[75.014,12.417],[75.004,12.441],[74.998,12.45],[74.992,12.465],[74.984,12.48],[74.977,12.495],[74.974,12.5],[74.945,12.573],[74.932,12.601],[74.928,12.607],[74.928,12.611],[74.916,12.642],[74.905,12.665],[74.887,12.707],[74.884,12.708],[74.871,12.741],[74.865,12.758],[74.869,12.761],[74.874,12.755],[74.882,12.754],[74.893,12.762],[74.9,12.763],[74.903,12.766],[74.913,12.771],[74.916,12.772],[74.928,12.779],[74.935,12.781],[74.942,12.78],[74.951,12.784],[74.958,12.785],[74.96,12.779],[74.966,12.781],[74.968,12.776],[74.976,12.779],[74.982,12.78],[74.992,12.788],[74.987,12.794],[74.991,12.796],[74.996,12.79],[75.003,12.792],[75.003,12.778],[75.006,12.771],[75.005,12.762],[74.999,12.757],[74.993,12.747],[74.983,12.737],[74.99,12.736],[74.992,12.74],[75,12.732],[75.013,12.728],[75.001,12.716],[75.015,12.714],[75.019,12.721],[75.027,12.719],[75.034,12.724],[75.039,12.724],[75.043,12.721],[75.052,12.72],[75.051,12.715],[75.054,12.711],[75.05,12.703],[75.056,12.693],[75.049,12.694],[75.043,12.692],[75.04,12.685],[75.043,12.672],[75.049,12.669],[75.058,12.67],[75.065,12.665],[75.07,12.666],[75.073,12.672],[75.086,12.676],[75.085,12.695],[75.081,12.699],[75.086,12.704],[75.092,12.7],[75.1,12.7],[75.106,12.697],[75.111,12.691],[75.111,12.682],[75.125,12.681],[75.128,12.677],[75.138,12.677],[75.144,12.679],[75.146,12.682],[75.152,12.683],[75.149,12.676],[75.15,12.673],[75.162,12.672],[75.155,12.659],[75.152,12.656],[75.15,12.65],[75.139,12.643],[75.144,12.64],[75.154,12.625],[75.161,12.622],[75.164,12.624],[75.17,12.622],[75.18,12.631],[75.188,12.633],[75.194,12.63],[75.202,12.63],[75.203,12.628],[75.199,12.614],[75.201,12.61],[75.207,12.608],[75.21,12.6],[75.208,12.596],[75.202,12.593],[75.201,12.588],[75.208,12.591],[75.213,12.578],[75.218,12.576],[75.22,12.569],[75.224,12.57],[75.23,12.569],[75.237,12.57],[75.239,12.581],[75.242,12.58],[75.25,12.585],[75.254,12.591],[75.257,12.597],[75.261,12.598],[75.266,12.607],[75.265,12.611],[75.276,12.619],[75.282,12.616],[75.286,12.611],[75.29,12.61],[75.292,12.602],[75.299,12.606],[75.306,12.601],[75.307,12.596],[75.314,12.591],[75.328,12.591],[75.326,12.581],[75.319,12.577],[75.316,12.573],[75.312,12.577],[75.3,12.581],[75.291,12.583],[75.285,12.57],[75.279,12.572],[75.273,12.569],[75.27,12.558],[75.272,12.555],[75.271,12.548],[75.274,12.54],[75.274,12.536],[75.279,12.531],[75.28,12.526],[75.291,12.527],[75.297,12.523],[75.304,12.523],[75.303,12.514],[75.307,12.503],[75.314,12.503],[75.315,12.497],[75.325,12.497],[75.332,12.499],[75.334,12.492],[75.337,12.489],[75.336,12.478],[75.342,12.469],[75.337,12.464],[75.346,12.463],[75.352,12.465],[75.358,12.464],[75.367,12.473],[75.371,12.475],[75.373,12.48],[75.372,12.487],[75.369,12.492],[75.378,12.495],[75.382,12.501],[75.387,12.502],[75.392,12.499],[75.398,12.504],[75.403,12.498],[75.408,12.499],[75.412,12.502],[75.416,12.5]]]]}},{"type":"Feature","properties":{"district":"Malappuram","state":"KERALA"},"geometry":{"type":"MultiPolygon","coordinates":[[[[76.439,11.203],[76.431,11.203],[76.428,11.208],[76.425,11.209],[76.418,11.209],[76.414,11.211],[76.408,11.208],[76.405,11.21],[76.404,11.201],[76.406,11.193],[76.403,11.186],[76.407,11.179],[76.414,11.171],[76.411,11.162],[76.407,11.156],[76.407,11.151],[76.414,11.142],[76.411,11.139],[76.408,11.13],[76.409,11.119],[76.399,11.114],[76.386,11.112],[76.385,11.109],[76.389,11.103],[76.388,11.099],[76.382,11.1],[76.375,11.097],[76.369,11.099],[76.36,11.098],[76.358,11.093],[76.351,11.092],[76.344,11.088],[76.339,11.078],[76.331,11.073],[76.334,11.06],[76.331,11.055],[76.325,11.05],[76.32,11.052],[76.312,11.051],[76.309,11.047],[76.295,11.05],[76.293,11.041],[76.289,11.04],[76.285,11.034],[76.286,11.03],[76.284,11.024],[76.288,11.021],[76.292,11.025],[76.298,11.028],[76.305,11.027],[76.317,11.029],[76.325,11.024],[76.328,11.02],[76.324,11.013],[76.325,11.004],[76.335,10.999],[76.342,10.999],[76.351,10.996],[76.352,11],[76.365,10.999],[76.371,10.997],[76.368,10.993],[76.363,10.975],[76.359,10.976],[76.346,10.975],[76.337,10.976],[76.335,10.981],[76.328,10.979],[76.329,10.973],[76.326,10.967],[76.328,10.965],[76.321,10.954],[76.32,10.942],[76.322,10.933],[76.334,10.923],[76.332,10.914],[76.335,10.911],[76.336,10.906],[76.328,10.904],[76.321,10.908],[76.321,10.911],[76.314,10.913],[76.307,10.911],[76.299,10.918],[76.294,10.92],[76.286,10.914],[76.279,10.916],[76.266,10.914],[76.265,10.908],[76.257,10.896],[76.251,10.886],[76.244,10.888],[76.233,10.886],[76.23,10.888],[76.227,10.895],[76.218,10.908],[76.215,10.915],[76.207,10.903],[76.206,10.899],[76.193,10.897],[76.187,10.901],[76.189,10.909],[76.183,10.91],[76.178,10.906],[76.173,10.908],[76.171,10.914],[76.162,10.912],[76.159,10.908],[76.158,10.9],[76.152,10.891],[76.144,10.89],[76.138,10.895],[76.131,10.897],[76.13,10.878],[76.117,10.882],[76.114,10.877],[76.113,10.869],[76.111,10.867],[76.104,10.872],[76.102,10.868],[76.103,10.847],[76.1,10.843],[76.09,10.84],[76.082,10.84],[76.069,10.838],[76.06,10.84],[76.054,10.846],[76.045,10.849],[76.04,10.846],[76.038,10.838],[76.032,10.832],[76.027,10.822],[76.033,10.817],[76.037,10.816],[76.036,10.809],[76.038,10.805],[76.042,10.805],[76.049,10.8],[76.049,10.797],[76.043,10.796],[76.04,10.77],[76.041,10.763],[76.04,10.755],[76.047,10.752],[76.046,10.745],[76.054,10.74],[76.064,10.744],[76.069,10.738],[76.069,10.73],[76.061,10.724],[76.061,10.72],[76.056,10.716],[76.049,10.706],[76.037,10.707],[76.034,10.701],[76.02,10.697],[76.012,10.691],[76.007,10.69],[76,10.694],[75.986,10.691],[75.983,10.688],[75.98,10.695],[75.977,10.695],[75.97,10.691],[75.968,10.694],[75.964,10.689],[75.956,10.685],[75.94,10.721],[75.934,10.733],[75.921,10.763],[75.917,10.774],[75.913,10.781],[75.913,10.785],[75.91,10.79],[75.903,10.818],[75.896,10.85],[75.891,10.879],[75.876,10.942],[75.875,10.945],[75.872,10.957],[75.863,10.995],[75.862,11.001],[75.858,11.019],[75.851,11.038],[75.848,11.057],[75.835,11.097],[75.83,11.115],[75.826,11.124],[75.827,11.124],[75.828,11.125],[75.83,11.125],[75.831,11.127],[75.832,11.127],[75.832,11.128],[75.832,11.129],[75.833,11.132],[75.837,11.135],[75.838,11.135],[75.839,11.137],[75.841,11.139],[75.846,11.143],[75.847,11.143],[75.849,11.143],[75.857,11.138],[75.858,11.139],[75.858,11.14],[75.857,11.142],[75.858,11.143],[75.858,11.144],[75.857,11.147],[75.856,11.147],[75.856,11.148],[75.855,11.148],[75.854,11.152],[75.852,11.153],[75.853,11.154],[75.854,11.156],[75.856,11.156],[75.857,11.156],[75.857,11.157],[75.858,11.157],[75.86,11.159],[75.861,11.161],[75.86,11.163],[75.861,11.165],[75.861,11.166],[75.861,11.167],[75.863,11.168],[75.864,11.169],[75.865,11.171],[75.867,11.171],[75.87,11.173],[75.871,11.169],[75.875,11.168],[75.88,11.169],[75.88,11.171],[75.882,11.172],[75.887,11.171],[75.888,11.172],[75.886,11.175],[75.886,11.177],[75.887,11.177],[75.887,11.179],[75.886,11.179],[75.885,11.183],[75.885,11.185],[75.883,11.185],[75.881,11.183],[75.879,11.182],[75.875,11.186],[75.872,11.188],[75.871,11.188],[75.87,11.188],[75.862,11.19],[75.86,11.193],[75.858,11.193],[75.858,11.195],[75.86,11.196],[75.858,11.201],[75.856,11.202],[75.858,11.208],[75.86,11.205],[75.868,11.206],[75.875,11.215],[75.877,11.22],[75.877,11.223],[75.878,11.223],[75.882,11.225],[75.892,11.23],[75.896,11.229],[75.899,11.232],[75.899,11.237],[75.899,11.241],[75.901,11.243],[75.908,11.24],[75.915,11.236],[75.917,11.236],[75.919,11.237],[75.921,11.239],[75.922,11.242],[75.926,11.246],[75.927,11.246],[75.933,11.247],[75.942,11.249],[75.947,11.25],[75.952,11.25],[75.96,11.254],[75.961,11.256],[75.963,11.259],[75.974,11.269],[75.978,11.267],[75.984,11.263],[75.985,11.262],[75.99,11.259],[75.995,11.255],[75.995,11.254],[76,11.259],[76.003,11.258],[76.009,11.26],[76.012,11.265],[76.015,11.268],[76.017,11.268],[76.019,11.269],[76.024,11.269],[76.027,11.268],[76.03,11.267],[76.031,11.267],[76.032,11.267],[76.034,11.267],[76.038,11.268],[76.041,11.267],[76.049,11.267],[76.05,11.27],[76.051,11.271],[76.053,11.273],[76.056,11.275],[76.059,11.278],[76.06,11.28],[76.061,11.282],[76.063,11.283],[76.066,11.285],[76.067,11.285],[76.068,11.285],[76.07,11.286],[76.072,11.286],[76.072,11.287],[76.072,11.289],[76.072,11.29],[76.071,11.292],[76.069,11.294],[76.071,11.295],[76.075,11.297],[76.08,11.301],[76.084,11.305],[76.084,11.307],[76.092,11.311],[76.094,11.31],[76.096,11.311],[76.1,11.311],[76.103,11.311],[76.104,11.312],[76.105,11.313],[76.109,11.315],[76.109,11.314],[76.113,11.314],[76.118,11.319],[76.118,11.327],[76.116,11.333],[76.118,11.337],[76.116,11.338],[76.111,11.337],[76.106,11.339],[76.097,11.344],[76.094,11.347],[76.094,11.349],[76.092,11.353],[76.094,11.355],[76.093,11.357],[76.094,11.36],[76.096,11.363],[76.102,11.368],[76.099,11.373],[76.098,11.383],[76.098,11.386],[76.1,11.389],[76.1,11.39],[76.099,11.396],[76.106,11.402],[76.106,11.403],[76.106,11.407],[76.105,11.41],[76.109,11.411],[76.115,11.409],[76.117,11.408],[76.119,11.41],[76.121,11.411],[76.122,11.411],[76.122,11.414],[76.129,11.421],[76.132,11.426],[76.135,11.425],[76.139,11.42],[76.14,11.42],[76.143,11.426],[76.146,11.428],[76.146,11.43],[76.14,11.438],[76.14,11.444],[76.142,11.449],[76.143,11.452],[76.148,11.454],[76.153,11.453],[76.159,11.457],[76.165,11.459],[76.168,11.465],[76.178,11.469],[76.187,11.477],[76.183,11.482],[76.185,11.488],[76.188,11.49],[76.192,11.498],[76.199,11.506],[76.217,11.51],[76.226,11.513],[76.228,11.521],[76.234,11.528],[76.239,11.527],[76.245,11.517],[76.248,11.516],[76.249,11.506],[76.252,11.5],[76.25,11.498],[76.248,11.469],[76.264,11.481],[76.27,11.477],[76.276,11.477],[76.282,11.479],[76.284,11.483],[76.294,11.473],[76.29,11.47],[76.294,11.466],[76.305,11.468],[76.325,11.453],[76.339,11.464],[76.342,11.468],[76.346,11.464],[76.371,11.455],[76.373,11.451],[76.379,11.449],[76.393,11.438],[76.398,11.435],[76.419,11.442],[76.415,11.423],[76.462,11.387],[76.475,11.384],[76.499,11.377],[76.518,11.372],[76.515,11.36],[76.508,11.354],[76.548,11.359],[76.547,11.345],[76.55,11.331],[76.537,11.314],[76.539,11.305],[76.546,11.3],[76.538,11.295],[76.526,11.288],[76.522,11.271],[76.508,11.267],[76.487,11.258],[76.466,11.245],[76.453,11.239],[76.449,11.205],[76.439,11.203]]]]}},{"type":"Feature","properties":{"district":"Wayanad","state":"KERALA"},"geometry":{"type":"MultiPolygon","coordinates":[[[[76.414,11.759],[76.412,11.752],[76.413,11.74],[76.418,11.743],[76.422,11.738],[76.427,11.726],[76.425,11.721],[76.408,11.715],[76.403,11.708],[76.409,11.706],[76.412,11.695],[76.408,11.69],[76.413,11.686],[76.413,11.683],[76.417,11.672],[76.425,11.671],[76.431,11.666],[76.436,11.653],[76.443,11.65],[76.443,11.644],[76.435,11.636],[76.432,11.631],[76.426,11.634],[76.407,11.634],[76.388,11.63],[76.383,11.624],[76.384,11.612],[76.378,11.609],[76.378,11.602],[76.367,11.598],[76.355,11.589],[76.346,11.589],[76.34,11.587],[76.34,11.593],[76.336,11.596],[76.322,11.587],[76.316,11.577],[76.311,11.577],[76.302,11.571],[76.3,11.576],[76.299,11.584],[76.296,11.59],[76.286,11.59],[76.279,11.601],[76.274,11.594],[76.265,11.594],[76.265,11.591],[76.256,11.587],[76.249,11.58],[76.244,11.578],[76.234,11.571],[76.239,11.559],[76.244,11.554],[76.243,11.549],[76.245,11.543],[76.25,11.537],[76.25,11.528],[76.239,11.527],[76.234,11.528],[76.228,11.521],[76.226,11.513],[76.217,11.51],[76.199,11.506],[76.192,11.498],[76.188,11.49],[76.185,11.488],[76.183,11.482],[76.187,11.477],[76.178,11.469],[76.168,11.465],[76.165,11.459],[76.159,11.457],[76.153,11.453],[76.148,11.454],[76.143,11.452],[76.131,11.465],[76.129,11.465],[76.128,11.465],[76.124,11.468],[76.124,11.471],[76.123,11.474],[76.113,11.476],[76.112,11.476],[76.108,11.479],[76.106,11.482],[76.094,11.482],[76.092,11.483],[76.091,11.484],[76.089,11.487],[76.09,11.492],[76.093,11.493],[76.092,11.496],[76.091,11.498],[76.089,11.504],[76.089,11.508],[76.086,11.513],[76.083,11.514],[76.082,11.516],[76.082,11.517],[76.08,11.519],[76.079,11.521],[76.076,11.523],[76.075,11.523],[76.073,11.522],[76.072,11.521],[76.072,11.52],[76.069,11.519],[76.068,11.518],[76.065,11.514],[76.063,11.511],[76.063,11.51],[76.06,11.51],[76.057,11.507],[76.056,11.506],[76.051,11.504],[76.05,11.504],[76.043,11.505],[76.039,11.503],[76.038,11.503],[76.037,11.504],[76.037,11.505],[76.035,11.509],[76.034,11.51],[76.026,11.514],[76.024,11.514],[76.022,11.514],[76.018,11.515],[76.018,11.516],[76.016,11.518],[76.014,11.519],[76,11.527],[75.996,11.534],[75.99,11.537],[75.983,11.539],[75.98,11.542],[75.976,11.544],[75.974,11.546],[75.972,11.549],[75.966,11.554],[75.958,11.562],[75.957,11.57],[75.956,11.573],[75.957,11.575],[75.956,11.577],[75.952,11.581],[75.95,11.582],[75.946,11.581],[75.939,11.584],[75.938,11.587],[75.937,11.59],[75.934,11.591],[75.932,11.591],[75.928,11.591],[75.927,11.593],[75.925,11.594],[75.922,11.595],[75.918,11.596],[75.914,11.601],[75.911,11.601],[75.906,11.609],[75.906,11.612],[75.904,11.613],[75.901,11.617],[75.898,11.622],[75.898,11.624],[75.9,11.634],[75.9,11.637],[75.898,11.643],[75.9,11.646],[75.903,11.652],[75.903,11.657],[75.904,11.658],[75.905,11.661],[75.902,11.673],[75.902,11.678],[75.906,11.681],[75.907,11.683],[75.91,11.684],[75.915,11.688],[75.914,11.691],[75.904,11.696],[75.9,11.699],[75.896,11.699],[75.894,11.699],[75.892,11.7],[75.89,11.699],[75.886,11.699],[75.884,11.699],[75.882,11.699],[75.878,11.702],[75.877,11.703],[75.875,11.704],[75.872,11.702],[75.869,11.702],[75.86,11.704],[75.858,11.703],[75.856,11.703],[75.855,11.703],[75.851,11.703],[75.85,11.704],[75.849,11.705],[75.846,11.707],[75.845,11.707],[75.845,11.709],[75.846,11.713],[75.846,11.714],[75.837,11.719],[75.83,11.723],[75.828,11.726],[75.827,11.727],[75.825,11.727],[75.824,11.727],[75.823,11.729],[75.823,11.731],[75.822,11.733],[75.82,11.734],[75.819,11.734],[75.817,11.737],[75.814,11.74],[75.811,11.74],[75.81,11.743],[75.807,11.743],[75.802,11.744],[75.8,11.743],[75.795,11.743],[75.792,11.743],[75.791,11.743],[75.797,11.746],[75.799,11.753],[75.79,11.756],[75.789,11.757],[75.787,11.758],[75.785,11.759],[75.783,11.76],[75.783,11.761],[75.788,11.765],[75.789,11.773],[75.788,11.773],[75.788,11.774],[75.791,11.778],[75.792,11.779],[75.793,11.783],[75.794,11.784],[75.794,11.785],[75.793,11.786],[75.793,11.791],[75.791,11.792],[75.791,11.793],[75.789,11.794],[75.786,11.795],[75.785,11.796],[75.784,11.797],[75.782,11.798],[75.777,11.802],[75.772,11.803],[75.773,11.803],[75.774,11.803],[75.776,11.804],[75.777,11.804],[75.782,11.81],[75.786,11.812],[75.788,11.813],[75.793,11.815],[75.794,11.816],[75.797,11.818],[75.798,11.819],[75.798,11.825],[75.798,11.826],[75.797,11.829],[75.791,11.834],[75.791,11.835],[75.79,11.836],[75.79,11.841],[75.791,11.843],[75.795,11.846],[75.798,11.845],[75.805,11.848],[75.805,11.851],[75.805,11.852],[75.805,11.854],[75.806,11.854],[75.806,11.855],[75.808,11.856],[75.81,11.857],[75.814,11.857],[75.816,11.856],[75.817,11.856],[75.818,11.858],[75.819,11.859],[75.82,11.859],[75.822,11.855],[75.822,11.854],[75.823,11.853],[75.825,11.853],[75.827,11.852],[75.828,11.851],[75.831,11.851],[75.834,11.852],[75.839,11.854],[75.845,11.856],[75.847,11.855],[75.847,11.854],[75.849,11.851],[75.852,11.848],[75.856,11.848],[75.859,11.848],[75.861,11.85],[75.865,11.849],[75.873,11.848],[75.877,11.847],[75.884,11.845],[75.886,11.846],[75.892,11.843],[75.895,11.843],[75.9,11.843],[75.907,11.844],[75.909,11.844],[75.912,11.846],[75.916,11.845],[75.918,11.845],[75.919,11.845],[75.922,11.847],[75.923,11.847],[75.925,11.847],[75.926,11.847],[75.927,11.845],[75.927,11.846],[75.926,11.849],[75.927,11.852],[75.927,11.854],[75.929,11.855],[75.931,11.858],[75.924,11.866],[75.922,11.869],[75.918,11.87],[75.916,11.872],[75.915,11.872],[75.913,11.873],[75.913,11.876],[75.919,11.88],[75.927,11.882],[75.933,11.885],[75.935,11.889],[75.936,11.896],[75.936,11.898],[75.939,11.903],[75.936,11.909],[75.936,11.911],[75.93,11.917],[75.929,11.918],[75.926,11.923],[75.926,11.925],[75.925,11.929],[75.926,11.932],[75.929,11.935],[75.937,11.936],[75.94,11.941],[75.956,11.942],[75.976,11.934],[75.983,11.933],[75.99,11.935],[75.994,11.932],[76.003,11.931],[76.007,11.939],[76.022,11.944],[76.028,11.941],[76.034,11.94],[76.042,11.946],[76.045,11.951],[76.052,11.952],[76.058,11.958],[76.068,11.964],[76.07,11.967],[76.08,11.969],[76.089,11.967],[76.095,11.969],[76.105,11.976],[76.112,11.977],[76.113,11.931],[76.113,11.918],[76.113,11.895],[76.112,11.888],[76.115,11.867],[76.113,11.859],[76.12,11.85],[76.131,11.853],[76.139,11.86],[76.146,11.867],[76.149,11.866],[76.158,11.87],[76.165,11.868],[76.173,11.871],[76.18,11.87],[76.19,11.871],[76.198,11.867],[76.202,11.862],[76.207,11.862],[76.212,11.84],[76.211,11.828],[76.218,11.819],[76.219,11.814],[76.227,11.806],[76.238,11.803],[76.25,11.803],[76.257,11.808],[76.275,11.811],[76.281,11.811],[76.286,11.798],[76.29,11.793],[76.294,11.792],[76.302,11.786],[76.308,11.784],[76.311,11.767],[76.314,11.764],[76.314,11.757],[76.319,11.751],[76.329,11.748],[76.335,11.744],[76.34,11.739],[76.35,11.74],[76.353,11.738],[76.362,11.748],[76.368,11.748],[76.377,11.745],[76.384,11.747],[76.39,11.754],[76.393,11.755],[76.399,11.751],[76.405,11.756],[76.414,11.759]]]]}},{"type":"Feature","properties":{"district":"Pathanamthitta","state":"KERALA"},"geometry":{"type":"MultiPolygon","coordinates":[[[[76.969,9.465],[76.974,9.46],[76.98,9.457],[76.994,9.447],[77,9.447],[77.016,9.443],[77.019,9.432],[77.018,9.43],[77.009,9.43],[77.01,9.414],[77.012,9.409],[77.021,9.406],[77.035,9.409],[77.037,9.412],[77.047,9.414],[77.053,9.418],[77.06,9.416],[77.066,9.417],[77.061,9.427],[77.059,9.435],[77.058,9.442],[77.061,9.448],[77.069,9.454],[77.081,9.457],[77.095,9.464],[77.1,9.465],[77.104,9.469],[77.112,9.468],[77.118,9.464],[77.126,9.462],[77.134,9.459],[77.143,9.461],[77.155,9.471],[77.163,9.469],[77.166,9.465],[77.172,9.463],[77.177,9.469],[77.182,9.473],[77.182,9.466],[77.184,9.463],[77.182,9.457],[77.188,9.456],[77.192,9.45],[77.197,9.452],[77.203,9.451],[77.209,9.448],[77.215,9.438],[77.224,9.433],[77.221,9.422],[77.229,9.42],[77.228,9.411],[77.232,9.404],[77.239,9.399],[77.243,9.391],[77.245,9.389],[77.247,9.379],[77.241,9.368],[77.241,9.361],[77.235,9.35],[77.238,9.34],[77.232,9.334],[77.231,9.329],[77.235,9.324],[77.228,9.318],[77.225,9.312],[77.226,9.305],[77.225,9.296],[77.229,9.297],[77.235,9.293],[77.237,9.285],[77.243,9.284],[77.245,9.29],[77.249,9.29],[77.258,9.285],[77.261,9.281],[77.273,9.279],[77.276,9.275],[77.282,9.273],[77.284,9.267],[77.282,9.263],[77.283,9.256],[77.277,9.247],[77.28,9.244],[77.278,9.238],[77.274,9.236],[77.276,9.229],[77.28,9.222],[77.28,9.216],[77.27,9.205],[77.27,9.2],[77.264,9.198],[77.256,9.199],[77.256,9.196],[77.252,9.189],[77.261,9.183],[77.264,9.184],[77.267,9.174],[77.265,9.163],[77.266,9.152],[77.261,9.148],[77.26,9.144],[77.253,9.139],[77.247,9.125],[77.242,9.125],[77.231,9.117],[77.228,9.117],[77.225,9.107],[77.22,9.105],[77.219,9.102],[77.212,9.1],[77.209,9.09],[77.206,9.085],[77.208,9.073],[77.205,9.072],[77.191,9.076],[77.179,9.076],[77.172,9.079],[77.17,9.078],[77.156,9.082],[77.155,9.086],[77.146,9.083],[77.143,9.085],[77.131,9.088],[77.121,9.095],[77.111,9.093],[77.105,9.098],[77.098,9.1],[77.09,9.106],[77.081,9.11],[77.078,9.113],[77.071,9.113],[77.067,9.115],[77.065,9.119],[77.056,9.12],[77.055,9.126],[77.052,9.128],[77.045,9.123],[77.018,9.131],[77.016,9.136],[77.009,9.14],[77.005,9.138],[76.994,9.14],[76.989,9.145],[76.979,9.149],[76.972,9.15],[76.96,9.154],[76.945,9.164],[76.939,9.169],[76.93,9.174],[76.926,9.154],[76.927,9.146],[76.926,9.139],[76.936,9.136],[76.94,9.139],[76.946,9.135],[76.948,9.131],[76.96,9.13],[76.956,9.124],[76.948,9.117],[76.944,9.119],[76.938,9.117],[76.925,9.119],[76.924,9.123],[76.91,9.126],[76.897,9.127],[76.893,9.123],[76.884,9.122],[76.884,9.126],[76.876,9.131],[76.868,9.122],[76.866,9.116],[76.859,9.117],[76.851,9.11],[76.852,9.105],[76.842,9.092],[76.833,9.094],[76.828,9.092],[76.823,9.093],[76.814,9.105],[76.809,9.108],[76.793,9.109],[76.787,9.114],[76.782,9.113],[76.777,9.109],[76.774,9.102],[76.77,9.101],[76.766,9.095],[76.771,9.082],[76.771,9.075],[76.758,9.074],[76.758,9.086],[76.753,9.088],[76.75,9.084],[76.745,9.08],[76.739,9.085],[76.736,9.086],[76.733,9.081],[76.727,9.084],[76.722,9.082],[76.711,9.087],[76.705,9.087],[76.7,9.089],[76.69,9.092],[76.686,9.089],[76.684,9.081],[76.679,9.082],[76.674,9.079],[76.672,9.082],[76.677,9.09],[76.674,9.101],[76.675,9.105],[76.672,9.114],[76.67,9.117],[76.665,9.114],[76.654,9.115],[76.648,9.118],[76.645,9.122],[76.633,9.123],[76.636,9.129],[76.635,9.141],[76.638,9.148],[76.646,9.147],[76.649,9.15],[76.661,9.149],[76.674,9.154],[76.672,9.164],[76.675,9.17],[76.681,9.172],[76.688,9.169],[76.691,9.177],[76.681,9.182],[76.677,9.183],[76.676,9.189],[76.677,9.194],[76.671,9.195],[76.668,9.2],[76.661,9.201],[76.657,9.205],[76.652,9.204],[76.647,9.208],[76.645,9.224],[76.639,9.234],[76.647,9.238],[76.654,9.238],[76.658,9.244],[76.658,9.258],[76.657,9.264],[76.664,9.266],[76.668,9.27],[76.666,9.275],[76.671,9.277],[76.677,9.283],[76.676,9.289],[76.664,9.289],[76.662,9.287],[76.651,9.29],[76.651,9.308],[76.646,9.31],[76.642,9.317],[76.64,9.33],[76.642,9.333],[76.642,9.341],[76.63,9.343],[76.628,9.337],[76.62,9.339],[76.614,9.343],[76.61,9.342],[76.606,9.345],[76.598,9.346],[76.596,9.352],[76.587,9.352],[76.585,9.348],[76.573,9.356],[76.567,9.356],[76.559,9.351],[76.552,9.352],[76.55,9.35],[76.554,9.346],[76.56,9.343],[76.553,9.335],[76.553,9.328],[76.55,9.325],[76.546,9.325],[76.537,9.322],[76.531,9.33],[76.527,9.326],[76.518,9.327],[76.498,9.323],[76.488,9.329],[76.474,9.328],[76.473,9.332],[76.482,9.346],[76.489,9.348],[76.496,9.347],[76.506,9.352],[76.509,9.355],[76.513,9.355],[76.514,9.362],[76.518,9.366],[76.51,9.376],[76.51,9.382],[76.514,9.391],[76.511,9.392],[76.513,9.401],[76.516,9.408],[76.526,9.409],[76.526,9.413],[76.531,9.417],[76.54,9.418],[76.543,9.423],[76.548,9.423],[76.554,9.425],[76.555,9.413],[76.565,9.411],[76.575,9.418],[76.579,9.422],[76.591,9.418],[76.592,9.424],[76.593,9.439],[76.591,9.444],[76.597,9.451],[76.604,9.45],[76.603,9.458],[76.617,9.461],[76.62,9.46],[76.626,9.462],[76.627,9.471],[76.631,9.472],[76.636,9.463],[76.641,9.468],[76.642,9.476],[76.643,9.479],[76.648,9.478],[76.651,9.481],[76.667,9.483],[76.675,9.48],[76.682,9.481],[76.689,9.477],[76.695,9.478],[76.7,9.477],[76.701,9.473],[76.709,9.455],[76.713,9.457],[76.722,9.465],[76.73,9.466],[76.732,9.474],[76.735,9.476],[76.746,9.475],[76.749,9.469],[76.749,9.463],[76.754,9.454],[76.762,9.445],[76.765,9.437],[76.768,9.442],[76.783,9.449],[76.788,9.449],[76.794,9.454],[76.798,9.452],[76.804,9.455],[76.816,9.456],[76.819,9.455],[76.823,9.446],[76.826,9.447],[76.829,9.452],[76.835,9.45],[76.845,9.45],[76.848,9.446],[76.857,9.454],[76.861,9.453],[76.869,9.448],[76.885,9.443],[76.899,9.434],[76.905,9.432],[76.91,9.427],[76.92,9.426],[76.924,9.422],[76.923,9.416],[76.927,9.416],[76.936,9.421],[76.944,9.419],[76.951,9.421],[76.959,9.421],[76.96,9.423],[76.968,9.425],[76.971,9.431],[76.966,9.433],[76.964,9.427],[76.954,9.43],[76.955,9.434],[76.948,9.434],[76.944,9.429],[76.941,9.433],[76.945,9.435],[76.94,9.445],[76.952,9.45],[76.958,9.461],[76.964,9.465],[76.969,9.465]]]]}},{"type":"Feature","properties":{"district":"Idukki","state":"KERALA"},"geometry":{"type":"MultiPolygon","coordinates":[[[[77.288,10.232],[77.295,10.218],[77.29,10.215],[77.283,10.197],[77.279,10.195],[77.275,10.184],[77.275,10.178],[77.273,10.165],[77.274,10.158],[77.272,10.142],[77.275,10.14],[77.274,10.13],[77.268,10.127],[77.267,10.122],[77.249,10.127],[77.247,10.13],[77.238,10.13],[77.233,10.124],[77.223,10.118],[77.216,10.116],[77.208,10.118],[77.201,10.106],[77.204,10.097],[77.203,10.089],[77.214,10.08],[77.22,10.077],[77.224,10.069],[77.231,10.066],[77.238,10.056],[77.245,10.052],[77.255,10.036],[77.262,10.03],[77.262,10.024],[77.257,10.019],[77.255,10.01],[77.266,10.001],[77.261,9.996],[77.262,9.991],[77.269,9.979],[77.273,9.976],[77.273,9.964],[77.267,9.96],[77.261,9.952],[77.253,9.953],[77.247,9.951],[77.248,9.947],[77.238,9.937],[77.234,9.931],[77.236,9.926],[77.232,9.924],[77.23,9.912],[77.224,9.91],[77.218,9.904],[77.218,9.896],[77.221,9.884],[77.218,9.884],[77.215,9.877],[77.212,9.878],[77.22,9.865],[77.226,9.861],[77.233,9.862],[77.236,9.86],[77.237,9.851],[77.228,9.849],[77.223,9.845],[77.228,9.838],[77.224,9.829],[77.224,9.824],[77.227,9.821],[77.233,9.821],[77.233,9.817],[77.24,9.816],[77.247,9.808],[77.247,9.798],[77.239,9.796],[77.236,9.79],[77.223,9.788],[77.224,9.778],[77.228,9.771],[77.232,9.769],[77.226,9.761],[77.227,9.757],[77.22,9.745],[77.223,9.73],[77.218,9.726],[77.205,9.724],[77.205,9.713],[77.202,9.704],[77.204,9.702],[77.207,9.694],[77.203,9.69],[77.195,9.674],[77.194,9.671],[77.187,9.667],[77.187,9.661],[77.183,9.661],[77.18,9.656],[77.179,9.645],[77.174,9.637],[77.176,9.629],[77.168,9.622],[77.168,9.615],[77.17,9.61],[77.173,9.611],[77.182,9.609],[77.189,9.606],[77.19,9.609],[77.197,9.611],[77.198,9.614],[77.204,9.614],[77.21,9.611],[77.21,9.605],[77.214,9.601],[77.217,9.602],[77.222,9.598],[77.222,9.593],[77.229,9.587],[77.237,9.581],[77.243,9.585],[77.253,9.583],[77.264,9.574],[77.27,9.573],[77.272,9.576],[77.277,9.576],[77.28,9.58],[77.29,9.585],[77.304,9.599],[77.315,9.601],[77.318,9.603],[77.322,9.598],[77.326,9.589],[77.324,9.585],[77.325,9.58],[77.333,9.579],[77.339,9.573],[77.345,9.588],[77.355,9.604],[77.366,9.6],[77.366,9.596],[77.357,9.594],[77.356,9.588],[77.36,9.579],[77.358,9.574],[77.353,9.573],[77.35,9.567],[77.353,9.56],[77.362,9.558],[77.366,9.551],[77.365,9.547],[77.366,9.535],[77.369,9.535],[77.373,9.527],[77.381,9.525],[77.385,9.519],[77.397,9.524],[77.402,9.525],[77.4,9.518],[77.408,9.515],[77.412,9.509],[77.401,9.499],[77.399,9.495],[77.399,9.48],[77.402,9.479],[77.398,9.472],[77.391,9.469],[77.393,9.459],[77.387,9.456],[77.377,9.453],[77.366,9.46],[77.359,9.454],[77.356,9.448],[77.349,9.441],[77.349,9.435],[77.344,9.423],[77.339,9.42],[77.336,9.413],[77.338,9.408],[77.344,9.402],[77.34,9.394],[77.341,9.39],[77.336,9.386],[77.335,9.378],[77.338,9.368],[77.336,9.361],[77.325,9.343],[77.325,9.337],[77.32,9.338],[77.316,9.335],[77.304,9.338],[77.3,9.337],[77.303,9.32],[77.3,9.311],[77.294,9.305],[77.289,9.302],[77.283,9.301],[77.283,9.291],[77.288,9.28],[77.289,9.274],[77.282,9.273],[77.276,9.275],[77.273,9.279],[77.261,9.281],[77.258,9.285],[77.249,9.29],[77.245,9.29],[77.243,9.284],[77.237,9.285],[77.235,9.293],[77.229,9.297],[77.225,9.296],[77.226,9.305],[77.225,9.312],[77.228,9.318],[77.235,9.324],[77.231,9.329],[77.232,9.334],[77.238,9.34],[77.235,9.35],[77.241,9.361],[77.241,9.368],[77.247,9.379],[77.245,9.389],[77.243,9.391],[77.239,9.399],[77.232,9.404],[77.228,9.411],[77.229,9.42],[77.221,9.422],[77.224,9.433],[77.215,9.438],[77.209,9.448],[77.203,9.451],[77.197,9.452],[77.192,9.45],[77.188,9.456],[77.182,9.457],[77.184,9.463],[77.182,9.466],[77.182,9.473],[77.177,9.469],[77.172,9.463],[77.166,9.465],[77.163,9.469],[77.155,9.471],[77.143,9.461],[77.134,9.459],[77.126,9.462],[77.118,9.464],[77.112,9.468],[77.104,9.469],[77.1,9.465],[77.095,9.464],[77.081,9.457],[77.069,9.454],[77.061,9.448],[77.058,9.442],[77.059,9.435],[77.061,9.427],[77.066,9.417],[77.06,9.416],[77.053,9.418],[77.047,9.414],[77.037,9.412],[77.035,9.409],[77.021,9.406],[77.012,9.409],[77.01,9.414],[77.009,9.43],[77.018,9.43],[77.019,9.432],[77.016,9.443],[77,9.447],[76.994,9.447],[76.98,9.457],[76.974,9.46],[76.969,9.465],[76.972,9.467],[76.982,9.467],[76.985,9.471],[76.984,9.48],[76.982,9.483],[76.983,9.49],[76.978,9.498],[76.965,9.509],[76.957,9.503],[76.955,9.492],[76.95,9.49],[76.936,9.504],[76.93,9.502],[76.928,9.505],[76.912,9.516],[76.905,9.522],[76.903,9.527],[76.903,9.537],[76.888,9.538],[76.891,9.546],[76.885,9.563],[76.886,9.577],[76.884,9.583],[76.895,9.589],[76.892,9.6],[76.892,9.605],[76.888,9.611],[76.891,9.615],[76.887,9.621],[76.892,9.622],[76.891,9.63],[76.895,9.633],[76.903,9.634],[76.91,9.627],[76.917,9.621],[76.926,9.618],[76.928,9.615],[76.935,9.62],[76.932,9.628],[76.922,9.636],[76.918,9.643],[76.919,9.647],[76.925,9.65],[76.925,9.656],[76.915,9.664],[76.912,9.67],[76.903,9.676],[76.904,9.683],[76.897,9.697],[76.897,9.701],[76.891,9.71],[76.89,9.716],[76.885,9.72],[76.882,9.72],[76.874,9.725],[76.868,9.73],[76.867,9.736],[76.86,9.73],[76.849,9.74],[76.843,9.752],[76.839,9.756],[76.827,9.764],[76.828,9.77],[76.815,9.78],[76.808,9.79],[76.779,9.808],[76.77,9.81],[76.754,9.818],[76.75,9.815],[76.751,9.806],[76.742,9.804],[76.739,9.807],[76.721,9.814],[76.71,9.822],[76.699,9.826],[76.696,9.834],[76.685,9.833],[76.682,9.839],[76.676,9.839],[76.675,9.843],[76.668,9.844],[76.661,9.84],[76.646,9.841],[76.639,9.845],[76.634,9.846],[76.627,9.851],[76.629,9.856],[76.633,9.859],[76.632,9.871],[76.637,9.873],[76.636,9.884],[76.63,9.889],[76.631,9.895],[76.629,9.899],[76.632,9.906],[76.629,9.913],[76.634,9.917],[76.642,9.918],[76.649,9.922],[76.653,9.918],[76.658,9.92],[76.664,9.916],[76.672,9.919],[76.678,9.917],[76.682,9.912],[76.691,9.907],[76.697,9.91],[76.696,9.915],[76.69,9.923],[76.683,9.924],[76.69,9.929],[76.7,9.931],[76.704,9.939],[76.714,9.947],[76.713,9.953],[76.722,9.952],[76.724,9.957],[76.719,9.96],[76.716,9.964],[76.715,9.97],[76.711,9.973],[76.712,9.982],[76.716,9.987],[76.723,9.981],[76.731,9.985],[76.736,9.985],[76.745,9.991],[76.754,9.988],[76.764,9.981],[76.763,9.992],[76.768,9.995],[76.769,10.001],[76.765,10.011],[76.767,10.02],[76.779,10.024],[76.778,10.031],[76.781,10.035],[76.792,10.033],[76.794,10.029],[76.805,10.027],[76.811,10.021],[76.826,10.013],[76.838,10.012],[76.837,10.025],[76.832,10.025],[76.817,10.035],[76.81,10.035],[76.805,10.04],[76.796,10.042],[76.789,10.046],[76.781,10.059],[76.776,10.06],[76.775,10.064],[76.779,10.066],[76.793,10.064],[76.8,10.063],[76.804,10.058],[76.81,10.058],[76.81,10.063],[76.817,10.062],[76.823,10.064],[76.816,10.069],[76.817,10.072],[76.814,10.08],[76.824,10.09],[76.838,10.084],[76.845,10.079],[76.865,10.074],[76.863,10.081],[76.864,10.091],[76.871,10.099],[76.881,10.113],[76.892,10.131],[76.904,10.141],[76.903,10.147],[76.912,10.162],[76.913,10.165],[76.918,10.168],[76.921,10.176],[76.928,10.179],[76.941,10.171],[76.949,10.17],[76.955,10.166],[76.962,10.164],[76.967,10.16],[76.976,10.161],[76.98,10.165],[76.986,10.165],[76.989,10.161],[77.001,10.165],[77.005,10.17],[77.016,10.176],[77.023,10.178],[77.028,10.172],[77.036,10.173],[77.043,10.177],[77.048,10.176],[77.057,10.178],[77.061,10.17],[77.068,10.174],[77.077,10.176],[77.081,10.171],[77.085,10.175],[77.089,10.183],[77.084,10.187],[77.08,10.193],[77.066,10.199],[77.068,10.207],[77.062,10.21],[77.055,10.212],[77.049,10.206],[77.043,10.207],[77.04,10.203],[77.033,10.205],[77.024,10.212],[77.022,10.217],[77.017,10.219],[77.014,10.224],[77.024,10.23],[77.031,10.229],[77.045,10.234],[77.048,10.231],[77.06,10.236],[77.063,10.243],[77.061,10.25],[77.056,10.253],[77.051,10.262],[77.053,10.272],[77.05,10.278],[77.043,10.284],[77.056,10.287],[77.063,10.291],[77.066,10.298],[77.073,10.299],[77.087,10.309],[77.091,10.314],[77.097,10.309],[77.102,10.316],[77.11,10.316],[77.12,10.318],[77.128,10.326],[77.152,10.338],[77.157,10.344],[77.169,10.354],[77.177,10.358],[77.187,10.355],[77.196,10.355],[77.198,10.357],[77.209,10.353],[77.226,10.353],[77.235,10.351],[77.236,10.339],[77.233,10.338],[77.228,10.327],[77.229,10.322],[77.228,10.315],[77.231,10.309],[77.235,10.307],[77.239,10.296],[77.247,10.285],[77.263,10.263],[77.257,10.259],[77.26,10.23],[77.269,10.235],[77.278,10.235],[77.281,10.237],[77.288,10.232]]]]}},{"type":"Feature","properties":{"district":"Thrissur","state":"KERALA"},"geometry":{"type":"MultiPolygon","coordinates":[[[[76.838,10.338],[76.836,10.332],[76.833,10.317],[76.831,10.315],[76.83,10.304],[76.837,10.302],[76.845,10.294],[76.845,10.289],[76.852,10.285],[76.851,10.29],[76.856,10.293],[76.863,10.293],[76.871,10.299],[76.875,10.294],[76.873,10.276],[76.884,10.271],[76.891,10.263],[76.897,10.263],[76.901,10.252],[76.896,10.254],[76.896,10.259],[76.889,10.258],[76.878,10.26],[76.879,10.269],[76.865,10.273],[76.861,10.273],[76.848,10.281],[76.842,10.28],[76.836,10.284],[76.832,10.276],[76.829,10.275],[76.826,10.281],[76.81,10.286],[76.804,10.285],[76.799,10.278],[76.793,10.28],[76.789,10.278],[76.776,10.277],[76.774,10.271],[76.769,10.269],[76.76,10.269],[76.753,10.274],[76.751,10.278],[76.739,10.274],[76.735,10.272],[76.718,10.269],[76.706,10.27],[76.705,10.267],[76.696,10.264],[76.684,10.268],[76.67,10.271],[76.662,10.277],[76.662,10.28],[76.646,10.28],[76.641,10.275],[76.636,10.273],[76.621,10.274],[76.619,10.28],[76.603,10.28],[76.6,10.285],[76.59,10.292],[76.59,10.299],[76.586,10.298],[76.577,10.303],[76.566,10.293],[76.573,10.287],[76.553,10.283],[76.547,10.289],[76.542,10.289],[76.533,10.288],[76.525,10.285],[76.517,10.288],[76.506,10.289],[76.497,10.288],[76.494,10.292],[76.488,10.294],[76.483,10.292],[76.478,10.293],[76.472,10.292],[76.459,10.297],[76.448,10.297],[76.443,10.293],[76.437,10.294],[76.428,10.29],[76.415,10.294],[76.417,10.289],[76.412,10.288],[76.413,10.281],[76.401,10.276],[76.397,10.268],[76.39,10.264],[76.391,10.255],[76.378,10.255],[76.379,10.245],[76.372,10.241],[76.346,10.233],[76.341,10.231],[76.338,10.226],[76.335,10.213],[76.331,10.209],[76.325,10.208],[76.314,10.207],[76.311,10.205],[76.312,10.182],[76.302,10.185],[76.298,10.177],[76.295,10.176],[76.286,10.178],[76.28,10.175],[76.275,10.176],[76.271,10.185],[76.267,10.186],[76.261,10.19],[76.264,10.199],[76.26,10.202],[76.254,10.203],[76.25,10.201],[76.237,10.204],[76.233,10.204],[76.22,10.207],[76.213,10.201],[76.214,10.194],[76.204,10.195],[76.198,10.193],[76.185,10.191],[76.177,10.187],[76.169,10.185],[76.165,10.18],[76.162,10.184],[76.154,10.205],[76.143,10.241],[76.136,10.261],[76.127,10.293],[76.124,10.306],[76.113,10.343],[76.11,10.35],[76.1,10.377],[76.082,10.422],[76.069,10.45],[76.046,10.495],[76.04,10.505],[76.032,10.516],[76.02,10.541],[76,10.59],[75.99,10.613],[75.983,10.626],[75.97,10.657],[75.956,10.685],[75.964,10.689],[75.968,10.694],[75.97,10.691],[75.977,10.695],[75.98,10.695],[75.983,10.688],[75.986,10.691],[76,10.694],[76.007,10.69],[76.012,10.691],[76.02,10.697],[76.034,10.701],[76.037,10.707],[76.049,10.706],[76.056,10.716],[76.061,10.72],[76.061,10.724],[76.069,10.73],[76.075,10.728],[76.09,10.727],[76.095,10.728],[76.123,10.71],[76.13,10.716],[76.133,10.722],[76.136,10.72],[76.145,10.72],[76.152,10.714],[76.157,10.718],[76.161,10.707],[76.165,10.711],[76.172,10.713],[76.175,10.723],[76.177,10.724],[76.181,10.733],[76.191,10.745],[76.192,10.75],[76.2,10.753],[76.203,10.752],[76.203,10.762],[76.205,10.768],[76.198,10.775],[76.191,10.777],[76.188,10.783],[76.197,10.782],[76.205,10.778],[76.21,10.778],[76.219,10.782],[76.224,10.78],[76.229,10.773],[76.242,10.774],[76.244,10.771],[76.247,10.761],[76.245,10.757],[76.246,10.749],[76.253,10.747],[76.265,10.753],[76.27,10.754],[76.281,10.752],[76.288,10.755],[76.311,10.75],[76.319,10.747],[76.329,10.745],[76.335,10.749],[76.342,10.748],[76.352,10.743],[76.357,10.744],[76.359,10.748],[76.362,10.758],[76.365,10.763],[76.379,10.768],[76.385,10.768],[76.389,10.763],[76.394,10.749],[76.397,10.746],[76.403,10.746],[76.409,10.749],[76.421,10.749],[76.433,10.751],[76.443,10.75],[76.449,10.751],[76.469,10.752],[76.473,10.749],[76.471,10.74],[76.48,10.734],[76.478,10.73],[76.468,10.725],[76.464,10.721],[76.462,10.708],[76.457,10.701],[76.452,10.702],[76.44,10.697],[76.448,10.686],[76.451,10.676],[76.451,10.666],[76.447,10.661],[76.442,10.663],[76.436,10.656],[76.434,10.65],[76.425,10.649],[76.424,10.644],[76.42,10.638],[76.417,10.63],[76.426,10.628],[76.428,10.613],[76.422,10.606],[76.413,10.606],[76.415,10.6],[76.413,10.595],[76.405,10.602],[76.401,10.596],[76.402,10.591],[76.408,10.584],[76.408,10.58],[76.413,10.578],[76.42,10.579],[76.421,10.572],[76.425,10.572],[76.426,10.566],[76.429,10.565],[76.432,10.558],[76.438,10.554],[76.435,10.548],[76.432,10.537],[76.433,10.534],[76.44,10.53],[76.441,10.523],[76.451,10.522],[76.46,10.511],[76.459,10.508],[76.467,10.503],[76.467,10.499],[76.472,10.497],[76.474,10.487],[76.48,10.486],[76.487,10.486],[76.489,10.479],[76.499,10.479],[76.506,10.473],[76.515,10.472],[76.525,10.467],[76.527,10.462],[76.532,10.459],[76.536,10.448],[76.553,10.446],[76.557,10.443],[76.556,10.437],[76.559,10.434],[76.567,10.437],[76.57,10.436],[76.585,10.437],[76.588,10.435],[76.595,10.424],[76.595,10.422],[76.601,10.418],[76.609,10.399],[76.615,10.391],[76.622,10.38],[76.633,10.376],[76.636,10.38],[76.647,10.383],[76.652,10.38],[76.661,10.386],[76.668,10.378],[76.669,10.374],[76.679,10.368],[76.684,10.367],[76.687,10.363],[76.695,10.362],[76.703,10.363],[76.704,10.368],[76.713,10.373],[76.722,10.372],[76.731,10.368],[76.734,10.369],[76.75,10.366],[76.756,10.361],[76.764,10.362],[76.765,10.356],[76.759,10.349],[76.753,10.348],[76.754,10.344],[76.752,10.338],[76.755,10.336],[76.76,10.337],[76.772,10.334],[76.776,10.342],[76.785,10.337],[76.792,10.336],[76.799,10.338],[76.805,10.337],[76.806,10.344],[76.816,10.349],[76.828,10.337],[76.838,10.338]]]]}},{"type":"Feature","properties":{"district":"Ernakulam","state":"KERALA"},"geometry":{"type":"MultiPolygon","coordinates":[[[[76.901,10.252],[76.905,10.248],[76.903,10.24],[76.908,10.241],[76.913,10.235],[76.922,10.232],[76.926,10.233],[76.939,10.239],[76.953,10.232],[76.956,10.234],[76.971,10.229],[76.973,10.225],[76.98,10.224],[76.982,10.22],[76.991,10.226],[76.993,10.23],[76.999,10.23],[77.001,10.235],[77.011,10.24],[77.015,10.246],[77.017,10.246],[77.032,10.252],[77.04,10.253],[77.043,10.257],[77.051,10.262],[77.056,10.253],[77.061,10.25],[77.063,10.243],[77.06,10.236],[77.048,10.231],[77.045,10.234],[77.031,10.229],[77.024,10.23],[77.014,10.224],[77.017,10.219],[77.022,10.217],[77.024,10.212],[77.033,10.205],[77.04,10.203],[77.043,10.207],[77.049,10.206],[77.055,10.212],[77.062,10.21],[77.068,10.207],[77.066,10.199],[77.08,10.193],[77.084,10.187],[77.089,10.183],[77.085,10.175],[77.081,10.171],[77.077,10.176],[77.068,10.174],[77.061,10.17],[77.057,10.178],[77.048,10.176],[77.043,10.177],[77.036,10.173],[77.028,10.172],[77.023,10.178],[77.016,10.176],[77.005,10.17],[77.001,10.165],[76.989,10.161],[76.986,10.165],[76.98,10.165],[76.976,10.161],[76.967,10.16],[76.962,10.164],[76.955,10.166],[76.949,10.17],[76.941,10.171],[76.928,10.179],[76.921,10.176],[76.918,10.168],[76.913,10.165],[76.912,10.162],[76.903,10.147],[76.904,10.141],[76.892,10.131],[76.881,10.113],[76.871,10.099],[76.864,10.091],[76.863,10.081],[76.865,10.074],[76.845,10.079],[76.838,10.084],[76.824,10.09],[76.814,10.08],[76.817,10.072],[76.816,10.069],[76.823,10.064],[76.817,10.062],[76.81,10.063],[76.81,10.058],[76.804,10.058],[76.8,10.063],[76.793,10.064],[76.779,10.066],[76.775,10.064],[76.776,10.06],[76.781,10.059],[76.789,10.046],[76.796,10.042],[76.805,10.04],[76.81,10.035],[76.817,10.035],[76.832,10.025],[76.837,10.025],[76.838,10.012],[76.826,10.013],[76.811,10.021],[76.805,10.027],[76.794,10.029],[76.792,10.033],[76.781,10.035],[76.778,10.031],[76.779,10.024],[76.767,10.02],[76.765,10.011],[76.769,10.001],[76.768,9.995],[76.763,9.992],[76.764,9.981],[76.754,9.988],[76.745,9.991],[76.736,9.985],[76.731,9.985],[76.723,9.981],[76.716,9.987],[76.712,9.982],[76.711,9.973],[76.715,9.97],[76.716,9.964],[76.719,9.96],[76.724,9.957],[76.722,9.952],[76.713,9.953],[76.714,9.947],[76.704,9.939],[76.7,9.931],[76.69,9.929],[76.683,9.924],[76.69,9.923],[76.696,9.915],[76.697,9.91],[76.691,9.907],[76.682,9.912],[76.678,9.917],[76.672,9.919],[76.664,9.916],[76.658,9.92],[76.653,9.918],[76.649,9.922],[76.642,9.918],[76.634,9.917],[76.629,9.913],[76.632,9.906],[76.629,9.899],[76.631,9.895],[76.63,9.889],[76.636,9.884],[76.637,9.873],[76.632,9.871],[76.633,9.859],[76.629,9.856],[76.625,9.857],[76.619,9.856],[76.616,9.852],[76.609,9.849],[76.616,9.839],[76.605,9.841],[76.604,9.845],[76.594,9.846],[76.591,9.842],[76.58,9.843],[76.582,9.827],[76.581,9.822],[76.575,9.82],[76.567,9.825],[76.564,9.82],[76.559,9.815],[76.557,9.805],[76.554,9.802],[76.544,9.801],[76.543,9.809],[76.545,9.813],[76.539,9.815],[76.539,9.823],[76.524,9.827],[76.52,9.824],[76.517,9.833],[76.519,9.835],[76.514,9.844],[76.514,9.849],[76.51,9.851],[76.498,9.851],[76.486,9.846],[76.483,9.843],[76.478,9.844],[76.474,9.842],[76.46,9.847],[76.457,9.847],[76.454,9.841],[76.45,9.841],[76.448,9.836],[76.429,9.825],[76.414,9.822],[76.411,9.828],[76.406,9.83],[76.396,9.83],[76.394,9.831],[76.389,9.844],[76.38,9.843],[76.373,9.837],[76.372,9.839],[76.37,9.853],[76.372,9.856],[76.366,9.868],[76.362,9.871],[76.357,9.88],[76.353,9.884],[76.35,9.882],[76.336,9.877],[76.33,9.877],[76.322,9.881],[76.311,9.884],[76.303,9.89],[76.293,9.891],[76.293,9.884],[76.297,9.855],[76.296,9.851],[76.286,9.85],[76.284,9.837],[76.28,9.831],[76.279,9.827],[76.284,9.817],[76.287,9.819],[76.291,9.807],[76.283,9.805],[76.284,9.791],[76.277,9.789],[76.271,9.824],[76.269,9.834],[76.262,9.872],[76.26,9.883],[76.252,9.917],[76.249,9.924],[76.243,9.942],[76.238,9.953],[76.237,9.965],[76.238,9.969],[76.235,9.975],[76.23,9.978],[76.22,10.001],[76.213,10.026],[76.211,10.027],[76.207,10.04],[76.202,10.053],[76.193,10.086],[76.186,10.117],[76.178,10.142],[76.172,10.16],[76.167,10.171],[76.165,10.18],[76.169,10.185],[76.177,10.187],[76.185,10.191],[76.198,10.193],[76.204,10.195],[76.214,10.194],[76.213,10.201],[76.22,10.207],[76.233,10.204],[76.237,10.204],[76.25,10.201],[76.254,10.203],[76.26,10.202],[76.264,10.199],[76.261,10.19],[76.267,10.186],[76.271,10.185],[76.275,10.176],[76.28,10.175],[76.286,10.178],[76.295,10.176],[76.298,10.177],[76.302,10.185],[76.312,10.182],[76.311,10.205],[76.314,10.207],[76.325,10.208],[76.331,10.209],[76.335,10.213],[76.338,10.226],[76.341,10.231],[76.346,10.233],[76.372,10.241],[76.379,10.245],[76.378,10.255],[76.391,10.255],[76.39,10.264],[76.397,10.268],[76.401,10.276],[76.413,10.281],[76.412,10.288],[76.417,10.289],[76.415,10.294],[76.428,10.29],[76.437,10.294],[76.443,10.293],[76.448,10.297],[76.459,10.297],[76.472,10.292],[76.478,10.293],[76.483,10.292],[76.488,10.294],[76.494,10.292],[76.497,10.288],[76.506,10.289],[76.517,10.288],[76.525,10.285],[76.533,10.288],[76.542,10.289],[76.547,10.289],[76.553,10.283],[76.573,10.287],[76.566,10.293],[76.577,10.303],[76.586,10.298],[76.59,10.299],[76.59,10.292],[76.6,10.285],[76.603,10.28],[76.619,10.28],[76.621,10.274],[76.636,10.273],[76.641,10.275],[76.646,10.28],[76.662,10.28],[76.662,10.277],[76.67,10.271],[76.684,10.268],[76.696,10.264],[76.705,10.267],[76.706,10.27],[76.718,10.269],[76.735,10.272],[76.739,10.274],[76.751,10.278],[76.753,10.274],[76.76,10.269],[76.769,10.269],[76.774,10.271],[76.776,10.277],[76.789,10.278],[76.793,10.28],[76.799,10.278],[76.804,10.285],[76.81,10.286],[76.826,10.281],[76.829,10.275],[76.832,10.276],[76.836,10.284],[76.842,10.28],[76.848,10.281],[76.861,10.273],[76.865,10.273],[76.879,10.269],[76.878,10.26],[76.889,10.258],[76.896,10.259],[76.896,10.254],[76.901,10.252]]]]}},{"type":"Feature","properties":{"district":"Thiruvananthapuram","state":"KERALA"},"geometry":{"type":"MultiPolygon","coordinates":[[[[77.2,8.77],[77.2,8.763],[77.197,8.75],[77.192,8.744],[77.183,8.743],[77.172,8.75],[77.17,8.742],[77.179,8.731],[77.177,8.726],[77.186,8.713],[77.19,8.712],[77.195,8.708],[77.196,8.702],[77.206,8.685],[77.207,8.681],[77.201,8.669],[77.208,8.664],[77.212,8.657],[77.214,8.649],[77.22,8.645],[77.225,8.639],[77.229,8.64],[77.232,8.636],[77.235,8.627],[77.244,8.622],[77.246,8.616],[77.246,8.603],[77.25,8.599],[77.254,8.598],[77.257,8.591],[77.264,8.589],[77.269,8.577],[77.272,8.57],[77.275,8.566],[77.274,8.56],[77.282,8.55],[77.284,8.547],[77.275,8.538],[77.267,8.52],[77.265,8.512],[77.262,8.507],[77.251,8.505],[77.246,8.502],[77.244,8.498],[77.24,8.497],[77.232,8.507],[77.222,8.512],[77.214,8.513],[77.211,8.508],[77.202,8.501],[77.204,8.497],[77.212,8.492],[77.214,8.486],[77.212,8.477],[77.214,8.47],[77.221,8.466],[77.227,8.458],[77.228,8.447],[77.225,8.446],[77.207,8.445],[77.201,8.432],[77.197,8.429],[77.198,8.42],[77.186,8.407],[77.183,8.405],[77.182,8.396],[77.17,8.386],[77.161,8.39],[77.154,8.388],[77.151,8.385],[77.16,8.381],[77.161,8.374],[77.16,8.369],[77.156,8.366],[77.154,8.361],[77.153,8.355],[77.164,8.361],[77.174,8.359],[77.175,8.35],[77.171,8.348],[77.167,8.343],[77.172,8.334],[77.177,8.326],[77.176,8.32],[77.172,8.321],[77.167,8.332],[77.154,8.328],[77.147,8.332],[77.145,8.33],[77.129,8.325],[77.125,8.321],[77.119,8.321],[77.12,8.316],[77.124,8.312],[77.123,8.309],[77.116,8.31],[77.113,8.304],[77.106,8.307],[77.102,8.306],[77.101,8.299],[77.096,8.293],[77.077,8.307],[77.06,8.32],[77.042,8.336],[77.028,8.348],[77.017,8.355],[77.011,8.355],[77.009,8.36],[77,8.372],[76.992,8.378],[76.987,8.376],[76.979,8.383],[76.971,8.392],[76.972,8.397],[76.967,8.409],[76.961,8.418],[76.955,8.425],[76.938,8.447],[76.896,8.496],[76.874,8.524],[76.821,8.589],[76.809,8.604],[76.793,8.625],[76.78,8.641],[76.756,8.671],[76.74,8.689],[76.729,8.703],[76.712,8.723],[76.701,8.736],[76.693,8.749],[76.691,8.754],[76.673,8.782],[76.678,8.786],[76.68,8.781],[76.69,8.779],[76.692,8.791],[76.71,8.791],[76.709,8.795],[76.714,8.796],[76.721,8.804],[76.728,8.8],[76.739,8.798],[76.741,8.796],[76.758,8.795],[76.761,8.8],[76.769,8.799],[76.768,8.804],[76.772,8.806],[76.771,8.811],[76.777,8.81],[76.788,8.812],[76.79,8.818],[76.794,8.828],[76.789,8.835],[76.785,8.836],[76.782,8.843],[76.775,8.844],[76.782,8.852],[76.784,8.859],[76.79,8.853],[76.796,8.855],[76.802,8.849],[76.808,8.857],[76.815,8.856],[76.824,8.851],[76.824,8.845],[76.829,8.845],[76.839,8.841],[76.84,8.838],[76.848,8.834],[76.846,8.828],[76.852,8.822],[76.863,8.814],[76.87,8.811],[76.876,8.81],[76.883,8.806],[76.89,8.811],[76.898,8.812],[76.907,8.805],[76.907,8.801],[76.913,8.799],[76.915,8.794],[76.921,8.787],[76.915,8.782],[76.915,8.777],[76.935,8.762],[76.942,8.766],[76.946,8.771],[76.95,8.772],[76.964,8.771],[76.973,8.775],[76.974,8.783],[76.979,8.789],[76.983,8.79],[76.991,8.788],[76.998,8.783],[77.001,8.772],[77.003,8.771],[77.015,8.772],[77.025,8.775],[77.016,8.792],[77.011,8.797],[77.011,8.806],[77.009,8.813],[77.02,8.822],[77.02,8.828],[77.025,8.834],[77.029,8.834],[77.033,8.843],[77.043,8.846],[77.051,8.846],[77.056,8.844],[77.069,8.841],[77.083,8.84],[77.088,8.834],[77.1,8.83],[77.107,8.83],[77.108,8.827],[77.113,8.823],[77.119,8.822],[77.123,8.818],[77.128,8.811],[77.137,8.806],[77.141,8.807],[77.151,8.799],[77.156,8.797],[77.159,8.793],[77.169,8.788],[77.177,8.781],[77.184,8.778],[77.192,8.773],[77.2,8.77]]]]}},{"type":"Feature","properties":{"district":"Kannur","state":"KERALA"},"geometry":{"type":"MultiPolygon","coordinates":[[[[75.472,12.298],[75.473,12.297],[75.476,12.296],[75.477,12.296],[75.479,12.295],[75.487,12.289],[75.489,12.283],[75.489,12.281],[75.492,12.276],[75.493,12.275],[75.496,12.272],[75.497,12.272],[75.498,12.272],[75.502,12.271],[75.504,12.271],[75.507,12.267],[75.509,12.262],[75.512,12.258],[75.512,12.256],[75.516,12.25],[75.519,12.245],[75.519,12.244],[75.52,12.241],[75.523,12.236],[75.525,12.235],[75.528,12.232],[75.528,12.231],[75.527,12.226],[75.531,12.222],[75.54,12.217],[75.539,12.212],[75.538,12.211],[75.538,12.21],[75.537,12.209],[75.537,12.208],[75.536,12.207],[75.535,12.206],[75.533,12.201],[75.534,12.203],[75.536,12.201],[75.537,12.202],[75.541,12.201],[75.541,12.199],[75.541,12.197],[75.544,12.198],[75.546,12.198],[75.547,12.198],[75.547,12.197],[75.547,12.196],[75.548,12.194],[75.549,12.193],[75.552,12.193],[75.553,12.19],[75.555,12.183],[75.559,12.182],[75.559,12.18],[75.559,12.177],[75.56,12.176],[75.562,12.175],[75.566,12.174],[75.571,12.17],[75.573,12.167],[75.574,12.166],[75.574,12.165],[75.576,12.161],[75.577,12.159],[75.581,12.159],[75.583,12.159],[75.584,12.157],[75.588,12.155],[75.591,12.151],[75.592,12.149],[75.593,12.148],[75.596,12.154],[75.603,12.155],[75.609,12.154],[75.61,12.153],[75.611,12.153],[75.613,12.153],[75.615,12.156],[75.616,12.156],[75.62,12.156],[75.623,12.155],[75.629,12.15],[75.633,12.149],[75.638,12.147],[75.639,12.144],[75.639,12.142],[75.638,12.141],[75.643,12.139],[75.643,12.136],[75.645,12.134],[75.644,12.132],[75.644,12.126],[75.645,12.125],[75.648,12.118],[75.647,12.116],[75.647,12.115],[75.651,12.11],[75.653,12.11],[75.653,12.109],[75.654,12.107],[75.659,12.103],[75.66,12.102],[75.661,12.1],[75.664,12.099],[75.669,12.097],[75.673,12.098],[75.677,12.098],[75.679,12.102],[75.682,12.104],[75.686,12.108],[75.686,12.11],[75.689,12.11],[75.691,12.111],[75.696,12.11],[75.703,12.108],[75.703,12.102],[75.703,12.1],[75.703,12.099],[75.702,12.093],[75.702,12.092],[75.703,12.092],[75.705,12.092],[75.707,12.092],[75.708,12.092],[75.713,12.09],[75.714,12.09],[75.715,12.088],[75.717,12.086],[75.718,12.082],[75.717,12.082],[75.715,12.077],[75.715,12.073],[75.715,12.072],[75.72,12.071],[75.722,12.072],[75.727,12.072],[75.728,12.073],[75.734,12.078],[75.738,12.079],[75.741,12.079],[75.744,12.08],[75.747,12.078],[75.748,12.079],[75.749,12.082],[75.75,12.083],[75.752,12.084],[75.757,12.083],[75.766,12.084],[75.769,12.084],[75.772,12.083],[75.773,12.083],[75.776,12.083],[75.786,12.084],[75.796,12.081],[75.797,12.081],[75.804,12.076],[75.802,12.073],[75.801,12.069],[75.801,12.067],[75.799,12.065],[75.799,12.063],[75.799,12.06],[75.799,12.057],[75.796,12.056],[75.795,12.056],[75.794,12.056],[75.798,12.051],[75.801,12.044],[75.801,12.037],[75.803,12.036],[75.806,12.033],[75.811,12.027],[75.81,12.026],[75.81,12.023],[75.813,12.021],[75.814,12.021],[75.815,12.021],[75.817,12.019],[75.819,12.017],[75.822,12.015],[75.822,12.014],[75.823,12.012],[75.822,12.007],[75.824,12.002],[75.825,12.003],[75.825,11.993],[75.826,11.99],[75.829,11.984],[75.837,11.981],[75.84,11.983],[75.843,11.981],[75.848,11.98],[75.848,11.975],[75.853,11.97],[75.857,11.962],[75.859,11.959],[75.864,11.958],[75.866,11.957],[75.87,11.953],[75.873,11.953],[75.874,11.952],[75.879,11.951],[75.88,11.95],[75.881,11.95],[75.885,11.951],[75.887,11.951],[75.889,11.951],[75.893,11.949],[75.894,11.948],[75.897,11.945],[75.909,11.947],[75.921,11.944],[75.927,11.943],[75.929,11.942],[75.936,11.94],[75.937,11.941],[75.937,11.936],[75.929,11.935],[75.926,11.932],[75.925,11.929],[75.926,11.925],[75.926,11.923],[75.929,11.918],[75.93,11.917],[75.936,11.911],[75.936,11.909],[75.939,11.903],[75.936,11.898],[75.936,11.896],[75.935,11.889],[75.933,11.885],[75.927,11.882],[75.919,11.88],[75.913,11.876],[75.913,11.873],[75.915,11.872],[75.916,11.872],[75.918,11.87],[75.922,11.869],[75.924,11.866],[75.931,11.858],[75.929,11.855],[75.927,11.854],[75.927,11.852],[75.926,11.849],[75.927,11.846],[75.927,11.845],[75.926,11.847],[75.925,11.847],[75.923,11.847],[75.922,11.847],[75.919,11.845],[75.918,11.845],[75.916,11.845],[75.912,11.846],[75.909,11.844],[75.907,11.844],[75.9,11.843],[75.895,11.843],[75.892,11.843],[75.886,11.846],[75.884,11.845],[75.877,11.847],[75.873,11.848],[75.865,11.849],[75.861,11.85],[75.859,11.848],[75.856,11.848],[75.852,11.848],[75.849,11.851],[75.847,11.854],[75.847,11.855],[75.845,11.856],[75.839,11.854],[75.834,11.852],[75.831,11.851],[75.828,11.851],[75.827,11.852],[75.825,11.853],[75.823,11.853],[75.822,11.854],[75.822,11.855],[75.82,11.859],[75.819,11.859],[75.818,11.858],[75.817,11.856],[75.816,11.856],[75.814,11.857],[75.81,11.857],[75.808,11.856],[75.806,11.855],[75.806,11.854],[75.805,11.854],[75.805,11.852],[75.805,11.851],[75.805,11.848],[75.798,11.845],[75.795,11.846],[75.791,11.843],[75.79,11.841],[75.79,11.836],[75.791,11.835],[75.791,11.834],[75.797,11.829],[75.798,11.826],[75.798,11.825],[75.798,11.819],[75.797,11.818],[75.794,11.816],[75.793,11.815],[75.788,11.813],[75.786,11.812],[75.782,11.81],[75.777,11.804],[75.776,11.804],[75.774,11.803],[75.773,11.803],[75.772,11.803],[75.757,11.806],[75.75,11.804],[75.747,11.798],[75.753,11.795],[75.758,11.789],[75.75,11.782],[75.746,11.787],[75.737,11.787],[75.737,11.781],[75.729,11.78],[75.727,11.787],[75.723,11.792],[75.717,11.797],[75.713,11.796],[75.699,11.799],[75.691,11.8],[75.691,11.794],[75.688,11.789],[75.686,11.779],[75.683,11.775],[75.669,11.77],[75.665,11.758],[75.659,11.758],[75.658,11.755],[75.648,11.75],[75.649,11.747],[75.641,11.744],[75.638,11.739],[75.634,11.736],[75.627,11.738],[75.624,11.732],[75.615,11.724],[75.611,11.725],[75.603,11.719],[75.599,11.719],[75.596,11.714],[75.589,11.713],[75.593,11.708],[75.592,11.7],[75.595,11.696],[75.601,11.696],[75.604,11.69],[75.601,11.687],[75.594,11.688],[75.587,11.687],[75.579,11.68],[75.57,11.675],[75.562,11.683],[75.564,11.694],[75.557,11.698],[75.553,11.703],[75.544,11.705],[75.541,11.707],[75.536,11.71],[75.534,11.708],[75.533,11.706],[75.532,11.705],[75.53,11.704],[75.524,11.708],[75.508,11.732],[75.504,11.735],[75.497,11.735],[75.49,11.745],[75.485,11.748],[75.483,11.753],[75.476,11.759],[75.473,11.764],[75.466,11.767],[75.461,11.765],[75.453,11.771],[75.454,11.777],[75.446,11.782],[75.445,11.791],[75.436,11.805],[75.432,11.809],[75.426,11.811],[75.408,11.832],[75.406,11.836],[75.399,11.839],[75.386,11.855],[75.381,11.859],[75.374,11.858],[75.371,11.853],[75.365,11.853],[75.356,11.86],[75.353,11.869],[75.344,11.881],[75.334,11.892],[75.318,11.909],[75.321,11.913],[75.307,11.933],[75.298,11.941],[75.273,11.978],[75.255,12.001],[75.25,12.008],[75.243,12.015],[75.229,12.023],[75.223,12.019],[75.221,12.012],[75.217,12.011],[75.209,12.011],[75.204,12.005],[75.201,12.009],[75.184,12.044],[75.186,12.046],[75.185,12.048],[75.182,12.058],[75.178,12.066],[75.176,12.07],[75.176,12.072],[75.176,12.078],[75.17,12.087],[75.168,12.091],[75.168,12.092],[75.174,12.099],[75.175,12.1],[75.176,12.101],[75.178,12.1],[75.183,12.096],[75.185,12.095],[75.187,12.096],[75.19,12.097],[75.19,12.098],[75.191,12.1],[75.192,12.102],[75.193,12.105],[75.192,12.107],[75.192,12.11],[75.191,12.112],[75.192,12.117],[75.193,12.12],[75.192,12.123],[75.188,12.13],[75.19,12.134],[75.192,12.135],[75.193,12.135],[75.195,12.137],[75.195,12.139],[75.196,12.14],[75.195,12.142],[75.194,12.146],[75.193,12.147],[75.191,12.147],[75.191,12.149],[75.191,12.15],[75.191,12.151],[75.191,12.152],[75.19,12.153],[75.19,12.154],[75.19,12.156],[75.19,12.158],[75.189,12.159],[75.189,12.16],[75.188,12.162],[75.188,12.165],[75.188,12.166],[75.187,12.166],[75.186,12.169],[75.182,12.175],[75.182,12.177],[75.18,12.176],[75.179,12.178],[75.179,12.179],[75.179,12.18],[75.178,12.181],[75.176,12.184],[75.176,12.185],[75.175,12.186],[75.174,12.188],[75.173,12.189],[75.176,12.19],[75.177,12.19],[75.182,12.191],[75.19,12.193],[75.193,12.193],[75.195,12.193],[75.196,12.192],[75.197,12.192],[75.198,12.192],[75.2,12.191],[75.201,12.191],[75.205,12.193],[75.205,12.194],[75.207,12.195],[75.207,12.197],[75.208,12.198],[75.209,12.199],[75.21,12.2],[75.213,12.202],[75.215,12.202],[75.215,12.203],[75.219,12.206],[75.22,12.207],[75.222,12.21],[75.228,12.217],[75.228,12.218],[75.229,12.219],[75.231,12.221],[75.232,12.222],[75.239,12.218],[75.24,12.219],[75.241,12.219],[75.244,12.219],[75.247,12.219],[75.248,12.22],[75.252,12.219],[75.253,12.221],[75.261,12.225],[75.27,12.227],[75.276,12.232],[75.282,12.233],[75.283,12.233],[75.291,12.236],[75.291,12.24],[75.291,12.241],[75.29,12.245],[75.29,12.246],[75.289,12.249],[75.289,12.25],[75.288,12.254],[75.288,12.255],[75.287,12.256],[75.287,12.257],[75.287,12.261],[75.288,12.262],[75.289,12.262],[75.292,12.264],[75.296,12.267],[75.304,12.27],[75.308,12.272],[75.314,12.271],[75.316,12.273],[75.322,12.273],[75.325,12.272],[75.328,12.269],[75.333,12.267],[75.341,12.269],[75.346,12.267],[75.348,12.269],[75.354,12.272],[75.359,12.276],[75.361,12.277],[75.365,12.278],[75.366,12.278],[75.366,12.279],[75.368,12.282],[75.37,12.286],[75.372,12.286],[75.374,12.284],[75.379,12.285],[75.382,12.286],[75.385,12.288],[75.387,12.288],[75.386,12.293],[75.39,12.297],[75.391,12.292],[75.392,12.29],[75.393,12.29],[75.394,12.291],[75.396,12.293],[75.397,12.294],[75.401,12.293],[75.404,12.294],[75.406,12.294],[75.409,12.295],[75.414,12.292],[75.42,12.291],[75.421,12.292],[75.422,12.294],[75.423,12.295],[75.426,12.295],[75.427,12.296],[75.43,12.299],[75.436,12.298],[75.438,12.298],[75.443,12.297],[75.446,12.298],[75.447,12.297],[75.459,12.295],[75.46,12.294],[75.462,12.296],[75.464,12.298],[75.467,12.299],[75.469,12.3],[75.47,12.301],[75.471,12.3],[75.472,12.298]]]]}}]}